#property,latitude,longitude,prefCode,identification,pref,city,name,fullNameInKana,alternativeName,address,katagaki,telephoneNumber,extensionNumber,faxNumber,corporateNumber,corporateName,medicalCode,availableDate,medicalStartTime,medicalEndTime,availableDateNote,overtimeResponse,medicalSubjects,numberOfBeds,referenceObject,note
1,0,0,372013,,香川県,高松市,いわき病院,イワキビョウイン,病院,香川県高松市香南町大字由佐113-1,,087-879-3533,,087-879-1080,,医療法人社団以和貴会,,月火水木金,08：30,17：15,火曜日、木曜日午後休診。,,内科、心療内科、精神科、神経科、神経内科、呼吸器科、消化器科、リハビリ科、麻酔科、歯科、歯科口腔外科,237,http://www.iwaki-hospital.or.jp/,
2,0,0,372013,,香川県,高松市,大西病院,オオニシビョウイン,病院,香川県高松市上天神町336,,087-866-1792,,087-865-7601,,一般財団法人大西精神衛生研究所,,月火水木金土,09：00,17：00,土曜日12：30まで。,,精神科、神経科,374,http://ohnishi-hp.or.jp/,
3,0,0,372013,,香川県,高松市,おさか脳神経外科病院,オサカノウシンケイゲカビョウイン,病院,香川県高松市三名町378-1,,087-886-3300,,087-885-3038,,医療法人社団新進会,,月火水木金土,08：30（受付）,17：00（受付）,土曜日午後休診。,,内科、神経内科、循環器内科、外科、整形外科、脳神経外科、リハビリ科、放射線科、麻酔科,69,https://www.osaka-nhp.jp/,
4,0,0,372013,,香川県,高松市,オサカ病院,オサカビョウイン,病院,香川県高松市香川町浅野272,,087-889-0703,,087-889-6539,,医療法人社団仁樹会,,月火水木金土,08：30,18：00,木曜日午後休診。,,内科、循環器内科、外科、整形外科、形成外科、泌尿器科、肛門外科、リハビリ科、放射線科、麻酔科,52,http://www.osaka-hp.jp/,
5,0,0,372013,,香川県,高松市,香川県済生会病院,カガワケンサイセイカイビョウイン,病院,香川県高松市多肥上町1331-1,,087-868-1551,,087-868-9733,,社会福祉法人恩賜財団済生会支部香川県済生会,,月火水木金,09：00,17：00,,,内科、消化器内科、循環器内科、糖尿病内科、腎臓内科、人工透析内科、内視鏡内科、小児科、外科、整形外科、消化器外科、内視鏡外科、皮膚科、泌尿器科、眼科、リハビリ科、放射線科、麻酔科,198,http://www.saiseikai-kagawa.jp/,
6,0,0,372013,,香川県,高松市,香川県立中央病院,カガワケンリツチュウオウビョウイン,病院,香川県高松市朝日町一丁目2-1,,087-811-3333,,,,香川県,,月火水木金,08：30,17：15,,,内科、呼吸器内科、消化器内科、循環器内科、糖尿病内科、腎臓内科、脳神経内科、血液内科、緩和ケア内科、腫瘍内科、小児科、外科、整形外科、形成外科、脳神経外科、頭頚部外科、呼吸器外科、消化器外科、乳腺・内分泌外科、心臓血管外科、皮膚科、泌尿器科、産婦人科、眼科、耳鼻咽喉科、リハビリ科、放射線科、病理診断科、救急科、麻酔科、歯科、歯科口腔外科,533,http://www.chp-kagawa.jp/,
7,0,0,372013,,香川県,高松市,かがわ総合リハビリテーション病院　,カガワソウゴウリハビリテーションビョウイン,病院,香川県高松市田村町1114,,087-867-6008,,087-865-3915,,香川県,,月火水木金,09：00,16：00（受付）,耳鼻科09：30から15：00まで。,,内科、循環器内科、小児科、整形外科、脳神経外科、皮膚科、泌尿器科、眼科、耳鼻咽喉科、リハビリ科、歯科,184,"http://www.kagawa-reha.net/
http://www.kagawa-reha.net/hospital.html",
8,0,0,372013,,香川県,高松市,木太三宅病院,キタミヤケビョウイン,病院,香川県高松市木太町3836-7,,087-867-3131,,087-867-3133,,医療法人社団三恵会,,月火水木金土,09：00,18：00,水曜日、土曜日午後休診。,,内科、消化器内科、循環器内科、外科、整形外科、消化器外科、心臓血管外科、肛門外科、リハビリ科、,31,http://www.kitamiyake.jp/,
9,0,0,372013,,香川県,高松市,キナシ大林病院,キナシオオバヤシビョウイン,病院,香川県高松市鬼無町藤井435-1,,087-881-3631,,087-881-3867,,医療法人財団博仁会,,月火水木金土,08：00（受付）,17：00（受付）,水曜日午後休診。,,内科、心療内科、精神科、神経内科、呼吸器内科科、消化器内科、循環器内科、糖尿病内科、腎臓内科、人工透析内科、外科、整形外科、形成外科、脳神経外科、消化器外科、乳腺・内分泌外科、泌尿器科、眼科、リハビリ科、放射線科、放射線診断科、麻酔科、皮膚科,254,http://www.obayashihp.or.jp/,
10,0,0,372013,,香川県,高松市,久米川病院,クメガワビョウイン,病院,香川県高松市新田町甲474-3,,087-844-3111,,087-844-3112,,医療法人社団啓友会,,月火水木金土,08：30,17：30,,,呼吸器内科、消化器内科、循環器内科、糖尿病内科、リウマチ科、整形外科、脳神経外科、呼吸器外科、消化器外科、乳腺・内分泌外科、循環器外科、皮膚科、リハビリ科、泌尿器科,49,http://kumegawa-hsp.jp/,
11,0,0,372013,,香川県,高松市,クワヤ病院,クワヤビョウイン,病院,香川県高松市塩屋町1-4,,087-851-5208,,087-851-6027,,医療法人社団雙和会,,月火水木金土,09：00,17：30,,,内科、心療内科、精神科、呼吸器科、胃腸科、循環器科、糖尿病内科、ペインクリニック内科、リウマチ科、整形外科、皮膚科、美容皮膚科、泌尿器科、リハビリ科、放射線科,73,http://www.kuwaya.or.jp/,
12,0,0,372013,,香川県,高松市,国立療養所大島青松園,コクリツリョウヨウジョオオシマセイショウエン,病院,香川県高松市庵治町6034-1,,087-871-3131,,087-871-4821,,厚生労働大臣,,,,,,,内科、外科、整形外科、形成外科、皮膚科、耳鼻咽喉科、歯科,100,https://www.mhlw.go.jp/seisakunitsuite/bunya/kenkou_iryou/iryou/hansen/osima/,
14,0,0,372013,,香川県,高松市,三光病院,サンコウビョウイン,病院,香川県高松市牟礼町原883-1,,087-845-3301,,087-845-6822,,医療法人社団光風会,,月火水木金土,09：00,17：00,水曜日は午後7時まで診療。土曜日午後休診。,,内科、精神科、心療内科,320,http://www.sanko-hp.com/,
15,0,0,372013,,香川県,高松市,整形外科吉峰病院,セイケイゲカヨシミネビョウイン,病院,香川県高松市番町一丁目4-13,,087-851-8775,,087-821-5964,,吉峰公博,,月火水木金土,08：30（受付）,17：00（受付）,木曜日、土曜日午後休診。,,内科、消化器内科、リウマチ科、外科、整形外科、リハビリ科,54,https://www.yoshimine.com/,
16,0,0,372013,,香川県,高松市,高畠病院,タカバタケビョウイン,病院,香川県高松市国分寺町新名500-1,,087-874-3131,,087-874-4464,,医療法人社団有史会,,月火水木金,09：00,18：00,木曜に12：00、土曜日17：00まで。,,内科、神経内科、胃腸内科、循環器内科、外科、整形外科、こう門科、眼科、リハビリ科,50,https://www.takabatake-hp.com/,
17,0,0,372013,,香川県,高松市,高松医療センター,タカマツイリョウセンター,病院,香川県高松市新田町乙8,,087-841-2146,,087-843-5545,,独立行政法人国立病院機構,,月火水木金,08：45,17：15,　,,内科、神経内科、呼吸器内科、消化器内科、循環器内科、外科、整形外科、皮膚科、泌尿器科、リハビリ科、麻酔科、歯科,240,http://www.takamatsu-mc.jp/,
18,0,0,372013,,香川県,高松市,高松大林病院,タカマツオオバヤシビョウイン,病院,香川県高松市番町一丁目10-3,,087-862-1231,,087-834-4636,,医療法人社団康生会,,月火水木金土,09：00,18：00,水曜日、土曜日午後休診。,,内科、消化器内科、循環器内科、リハビリ科、放射線科,49,http://wwwb.pikara.ne.jp/kouseikai/,
19,0,0,372013,,香川県,高松市,高松協同病院,タカマツキョウドウビョウイン,病院,香川県高松市木太町4664,,087-833-2330,,087-833-2880,,香川医療生活協同組合,,月火水木金土,08：00,18：00,木曜日、土曜日午後休診。,,内科、整形外科、形成外科、皮膚科、眼科、耳鼻咽喉科、リハビリ科リハビリ科,85,https://t-kyodo.com/,
20,0,0,372013,,香川県,高松市,高松市民病院塩江分院,タカマツシミンビョウインシオノエブンイン,病院,香川県高松市塩江町安原上東99-1,,087-893-0031,,087-893-0104,,高松市,,月火水木金土,08：30,16：30,,,内科、外科、整形外科、脳神経外科、皮膚科、リハビリ科、歯科歯科,87,http://tmh-shionoe.jpn.org/,
21,0,0,372013,,香川県,高松市,高松市立みんなの病院,タカマツシリツミンナノビョウイン,病院,香川県高松市仏生山町甲847番地1,,087-813-7171,,,,高松市,,月火水木金,08：30,17：00,,,内科、精神科、神経内科、呼吸器内科、消化器内科、循環器内科、小児科、外科、整形外科、形成外科、脳神経外科、呼吸器外科、皮膚科、泌尿器科、産科、婦人科、眼科、耳鼻咽喉科、リハビリ科、放射線科、救急科、病理診断科、臨床検査科、麻酔科、歯科口腔外科,305,http://www.takamatsu-municipal-hospital.jp/,
22,0,0,372013,,香川県,高松市,高松赤十字病院,タカマツセキジュウジビョウイン,病院,香川県高松市番町四丁目1-3,,087-831-7101,,087-834-7809,,日本赤十字社,,月火水木金,08：45,15：00（受付）,,,精神科、呼吸器内科、消化器内科、循環器内科、内分泌・代謝内科、腎臓内科、血液内科、腫瘍内科、小児科、整形外科、脳神経外科、消化器外科、胸部・乳腺外科、心臓血管外科、小児外科、腎臓外科（臓器移植）、皮膚科、形成外科、泌尿器科、産婦人科、眼科、耳鼻咽喉科、リハビリ科、放射線科、病理診断科、麻酔科、歯科口腔外科、救急科、脳神経内科,564,https://www.takamatsu.jrc.or.jp/,
23,0,0,372013,,香川県,高松市,高松病院,タカマツビョウイン,病院,香川県高松市天神前4-18,,087-861-3261,,087-835-0793,,国家公務員共済組合連合会,,月火水木金土,08：30,17：00,土曜日12：30まで。,,内科、神経内科、呼吸器内科、消化器内科、循環器内科、代謝内分泌内科、腎臓内科、アレルギー科、リウマチ科、外科、脳神経外科、呼吸器外科、消化器外科、泌尿器科、婦人科、眼科、リハビリ科、放射線科、麻酔科,179,http://www.kkr-ta-hp.gr.jp/,
24,0,0,372013,,香川県,高松市,高松平和病院,タカマツヘイワビョウイン,病院,香川県高松市栗林町一丁目4-1,,087-833-8113,,087-831-1254,,香川医療生活協同組合,,月火水木金土,9：00,17：30,木曜日、土曜日午後休診。,,内科、呼吸器科、消化器科、循環器科、緩和ケア内科、アレルギー科、リウマチ科、小児科、整形外科、乳腺外科、リハビリ科、救急科、病理診断科,123,https://www.t-heiwa.com/,
25,0,0,372013,,香川県,高松市,伊達病院,ダテビョウイン,病院,香川県高松市観光町588-8,,087-831-1701,,087-831-1704,,医療法人社団和広会,,月火水木金土,08：30,17：30,木曜日、土曜日午後休診。,,内科、外科、整形外科、リハビリ科、放射線科,50,http://www.date-med.or.jp/,
26,0,0,372013,,香川県,高松市,馬場病院,ババビョウイン,病院,香川県高松市郷東町580,,087-881-4375,,087-881-4378,,医療法人社団玉藻会,,月火水木金土,09：00,16：30,土曜日11：30まで。,,内科、心療内科、精神科、神経科,427,https://itp.ne.jp/info/377345325400000899/,
27,0,0,372013,,香川県,高松市,百石病院,ヒャッコクビョウイン,病院,香川県高松市屋島西町1937-1,,087-843-6121,,087-843-0257,,医療法人社団百石病院,,月火水木金土,08：30（受付）,17：45（受付）,木曜日12：30まで。,,内科、循環器内科、外科、整形外科、脳神経外科、胃腸外科、小児外科、泌尿器科、肛門外科、リハビリ科、麻酔科,87,https://hyakkokuhp.wixsite.com/hyakkokuhp,
28,0,0,372013,,香川県,高松市,広瀬病院,ヒロセビョウイン,病院,香川県高松市松縄町35-3,,087-867-9911,,087-867-9988,,医療法人社団研宣会,,月火水木金土,08：30,17：45,木曜日午後休診。土曜日16：45まで。,,リウマチ科、外科、整形外科、リハビリ科,43,https://www.hirose-hosp.or.jp/,
29,0,0,372013,,香川県,高松市,前田病院,マエダビョウイン,病院,香川県高松市東ハゼ町824,,087-865-7111,,087-865-3336,,医療法人和光会,,月火水木金土,09：00,18：00,水曜日、土曜日12：30まで。,,内科、消化器内科、肛門内科、ペインクリニック内科、外科、整形外科、消化器外科、肛門外科、リハビリ科、麻酔科,96,https://www.maeda-hosp.com/,
30,0,0,372013,,香川県,高松市,マオカ病院,マオカビョウイン,病院,香川県高松市瓦町一丁目12-45,,087-862-8888,,087-863-0880,,医療法人社団弘徳会,,月火水木金土,09：00,18：30,木曜日午後休診。,,内科、リウマチ科、整形外科、リハビリ科、麻酔科,58,"https://itp.ne.jp/info/377311715400000899/
https://hospital.dr-navip.jp/kagawa/facility/1518/",
31,0,0,372013,,香川県,高松市,ミタニ病院,ミタニビョウイン,病院,香川県高松市三谷町1680番地1,,087-864-8778,,087-864-8668,,医療法人社団清澄会,,月火水木金土,09：00,17：30,,,内科、呼吸器内科、消化器内科、循環器内科、腎臓内科、泌尿器科,85,http://www.mitani-fujita-hp.jp/index.html,
32,0,0,372013,,香川県,高松市,三宅リハビリテーション病院,ミヤケリハビリテーションビョウイン,病院,香川県高松市天神前5-5,,087-831-2101,,087-835-1886,,一般財団法人三宅医学研究所,,月火水木金土,08：30,17：00,土曜日12：30まで。,,内科、脳神経内科、リウマチ科、整形外科、脳神経外科、リハビリ科、放射線科,61,http://www.miyake.or.jp/,
33,0,0,372013,,香川県,高松市,屋島総合病院,ヤシマソウゴウビョウイン,病院,香川県高松市屋島西町2105-17,,087-841-9141,,087-841-7392,,香川県厚生農業協同組合連合会,,月火水木金,08：30,17：00,,,内科、呼吸器内科、消化器内科、循環器内科、糖尿病内科、透析科、小児アレルギー科、小児科、外科、整形外科、形成外科、脳神経外科、消化器外科、乳腺外科、皮膚科、泌尿器科、肛門外科、産婦人科、眼科、耳鼻咽喉科、リハビリ科、放射線科、麻酔科、歯科,279,http://www.yashima-hp.com/,
34,0,0,372013,,香川県,高松市,りつりん病院,リツリンビョウイン,病院,香川県高松市栗林町三丁目5-9,,087-862-3171,,087-837-1427,,独立行政法人地域医療機能推進機構,,月火水木金,08：30（受付）,16：30（受付）,,,内科、呼吸器内科、循環器内科、小児科、外科、整形外科、脳神経外科、皮膚泌尿器科、婦人科、眼科、耳鼻咽喉科、リハビリ科、放射線科、麻酔科、歯科口腔外科,199,https://ritsurin.jcho.go.jp/,
36,0,0,372013,,香川県,高松市,あおば内科クリニック,アオバナイカクリニック,無床診療所,香川県高松市太田上町420-1,,087-816-1122,,087-816-1010,,辻上　幸司,,月火水木金土,09：00,18：00,木曜日、土曜日12：00まで。,,内科、消化器内科,0,http://aoba-naika.jp/publics/index/3/,
37,0,0,372013,,香川県,高松市,美術館診療所,ビジュツカンシンリョウジョ,無床診療所,香川県高松市香西東町433-1,,087-881-2776,,,,医療法人社団なつめ会,,月火水木金土,09：00,18：00,土曜日13：00まで。,,内科、循環器内科、呼吸器内科、糖尿病内科、ペインクリニック整形外科、泌尿器科、脳神経外科、リハビリテーション科、産婦人科、耳鼻咽喉科,0,https://machikuri.or.jp/,
38,0,0,372013,,香川県,高松市,赤松内科医院,アカマツナイカイイン,有床診療所,香川県高松市鹿角町271-6,,087-866-6667,,087-888-5020,,医療法人社団赤松内科医院,,月火水木金,09：00,18：00,,,内科,16,,
39,0,0,372013,,香川県,高松市,阿河耳鼻咽喉科医院,アガワジビインコウカイイン,無床診療所,香川県高松市香川町大野2452-2,,087-885-3387,,087-885-5187,,医療法人社団阿河耳鼻咽喉科医院,,月火水木金土,09：00,18：00,木曜日12：00、土曜日13：30まで。,,耳鼻咽喉科,0,https://itp.ne.jp/info/375868425400000899/,
40,0,0,372013,,香川県,高松市,あきた小児科クリニック,アキタショウニカクリニック,無床診療所,香川県高松市六条町605-5,,087-868-6000,,087-868-6731,,医療法人社団裕心会,,月火水木金土,09：00,18：15,木曜日12：30、土曜日17：00まで。,,小児循環器内科、アレルギー科、小児科、,0,https://www.akita-clinic.jp/,
41,0,0,372013,,香川県,高松市,あきやまクリニック,アキヤマクリニック,有床診療所,香川県高松市香川町大野459-5,,087-815-8588,,087-815-8688,,医療法人社団健愛会,,月火水木金土,09：00,18：00,土曜日13：00まで。,,内科、腎臓内科、泌尿器科、呼吸器内科、糖尿病内科,3,https://www.akiyama-clinic.com/,
42,0,0,372013,,香川県,高松市,秋山内科医院,アキヤマナイカイイン,無床診療所,香川県高松市木太町3485-1,,087-861-6339,,087-861-8755,,秋山　恭介,,月火水木金土,08：00,18：00,木曜日、土曜日12：30まで。,,内科、胃腸科、循環器科、小児科,0,https://itp.ne.jp/info/375134615400000899/,
43,0,0,372013,,香川県,高松市,浅野皮膚科医院,アサノヒフカイイン,無床診療所,香川県高松市屋島西町2490-19,,087-843-2332,,087-843-2344,,浅野　隆司,,月火水木金土,09：00,18：00,木曜日13：00まで第１、第３、第５のみ。土曜日14：30まで。,,皮膚科,0,,
44,0,0,372013,,香川県,高松市,あさひクリニック,アサヒクリニック,無床診療所,香川県高松市観光町字川下538-2,,087-831-0280,,,,医療法人社団愛和会,,月火水木金土,09：00,18：00,水曜日、土曜日12：30まで。,,内科、泌尿器科、産婦人科、小児科,0,http://www.asahi-cl.jp/,
45,0,0,372013,,香川県,高松市,庵治整形外科・内科医院,アジセイケイゲカ・ナイカイイン,無床診療所,香川県高松市庵治町619,,087-871-3801,,087-871-3843,,医療法人社団庵治整形外科・内科医院,,月火水木金土,09：00,18：00,木曜日、土曜日12：00まで。,,内科、リウマチ科、整形外科、リハビリ科,0,,
46,0,0,372013,,香川県,高松市,あじの港メンタルクリニック,アジノミナトメンタルクリニック,無床診療所,香川県高松市庵治町5732,,087-871-5377,,,,池田　研二,,月火水木金,10：00,17：00,,,精神科,0,,
47,0,0,372013,,香川県,高松市,阿部内科眼科医院,アベナイカガンカイイン,有床診療所,香川県高松市牟礼町牟礼1006-3,,087-845-1335,,087-845-6126,,医療法人社団慈愛会,,月火水木金土,09：00,18：00,木曜日13：00まで。,,内科、糖尿病内科、眼科,19（休床中）,,
48,0,0,372013,,香川県,高松市,阿部内科クリニック,アベナイカクリニック,無床診療所,香川県高松市藤塚町一丁目4-11,,087-837-3131,,087-837-3130,,医療法人社団阿部内科クリニック,,月水金,09：00,18：00,月・金曜日13：00まで。,,内科、消化器内科,0,,
49,0,0,372013,,香川県,高松市,あまの内科クリニック,アマノナイカクリニック,無床診療所,香川県高松市木太町4326-1,,087-868-3363,,087-868-3373,,天野　克也,,月火水木金土,08：45,17：45,木曜日、土曜日12：00まで。,,内科、循環器内科、糖尿病内科,0,http://www.amanonaika.jp/,
50,0,0,372013,,香川県,高松市,綾こどもクリニック,アヤコドモクリニック,無床診療所,香川県高松市国分寺町福家甲3174-4,,087-875-2220,,087-875-2225,,医療法人社団雲井会,,月火水木金土,08：45,18：30,水曜日、土曜日12：30まで。,,小児科、アレルギー科,0,http://ayauta-med.or.jp/search/hospital.php?no=15,
51,0,0,372013,,香川県,高松市,綾田医院,アヤダイイン,無床診療所,香川県高松市香南町由佐210-1,,087-879-2008,,087-879-6976,,医療法人社団雄翔会,,月火水金土,08：30,18：00,土曜日17：00まで。,,内科、消化器内科、循環器内科,0,https://ayada-clinic-yuusyoukai.com/,
52,0,0,372013,,香川県,高松市,綾田内科消化器科クリニック,アヤダナイカショウカキカクリニック,無床診療所,香川県高松市太田下町1872-2,,087-864-5111,,087-868-5222,,医療法人社団修美会,,月火水木金土,09：00,18：00,水曜日、土曜日12：30まで。,,内科、消化器科、循環器内科、アレルギー科,0,,
53,0,0,372013,,香川県,高松市,荒木内科医院,アラキナイカイイン,無床診療所,香川県高松市伏石町1316－3,,087-867-7041,,087-867-7029,,医療法人社団荒木内科医院,,月火水木金土,08：00,18：00,水曜日、土曜日12：30まで。,,内科,0,,
54,0,0,372013,,香川県,高松市,ありとも内科クリニック,アリトモナイカクリニック,無床診療所,香川県高松市小村町256番地13,,087-887-4103,,,,医療法人ありとも内科クリニック,,月火木金土,09：00,18：00,,,内科、消化器内科,0,http://www.aritomo-clinic.com/,
55,0,0,372013,,香川県,高松市,安西内科医院,アンザイナイカイイン,有床診療所,香川県高松市元山町1231-13,,087-866-4170,,087-866-4174,,安西　芳朗,,月火水木金,08：00,18：00,,,内科、胃腸内科、循環器内科、放射線科,11,,
56,0,0,372013,,香川県,高松市,あんどう発達クリニック,アンドウハッタツクリニック,無床診療所,香川県高松市多肥下町517-10,,087-867-0234,,087-867-0208,,安藤　美智子,,月火水木金土,09：00,18：00,月曜日13：00まで第１第３のみ。木曜日14：00から。土曜日第２第４第５のみ。,,精神科、小児神経内科、小児科,0,http://web.clinicn.jp/ando-ha-cl/,
57,0,0,372013,,香川県,高松市,安藤レディースクリニック,アンドウレディースクリニック,有床診療所,香川県高松市多肥下町1524-14,,087-815-2833,,087-815-2832,,医療法人安藤レディースクリニック,,月火水木金土日,09：00,18：30,火曜日17：00、水・土・日曜日12：30、日曜日は第2第4のみ,,産婦人科,3,http://andolc.sakura.ne.jp/,
58,0,0,372013,,香川県,高松市,いがわ医院,イガワイイン,有床診療所,香川県高松市藤塚町一丁目11-1,,087-861-4306,,087-835-0270,,医療法人社団少将井いがわ医院,,月火水木金土,08：45,17：30,土曜日12：30まで。診療科により診察曜日、時間が違う。,,内科、整形外科、形成外科、眼科、耳鼻咽喉科、リハビリ科、歯科,19,http://igawa-iin.byoinnavi.jp/pc/,
59,0,0,372013,,香川県,高松市,石井耳鼻咽喉科医院,イシイジビインコウカイイン,無床診療所,香川県高松市木太町4023-5,,087-866-7220,,,,石井　玄吾,,月火水木金土,09：00,19：00,水曜日、土曜日12：00まで。,,耳鼻咽喉科,0,https://www.ishii-jibika.jp/,
60,0,0,372013,,香川県,高松市,石井皮膚科医院,イシイヒフカイイン,無床診療所,香川県高松市木太町1323-1,,087-865-3500,,087-865-3739,,医療法人社団石井皮膚科医院,,月火水金土,09：00,18：00,土曜日13：00まで。,,皮膚科,0,,
61,0,0,372013,,香川県,高松市,石川内科胃腸科医院,イシカワナイカイチョウカイイン,無床診療所,香川県高松市松縄町48-2,,087-867-1000,,087-865-0036,,医療法人社団石川内科胃腸科医院,,月火水木金土,09：00,18：00,木曜日、土曜日12：30まで。,,内科、胃腸科、外科,0,http://www.ishikawa-naikaiin.com/,
63,0,0,372013,,香川県,高松市,石田クリニック,イシダクリニック,無床診療所,香川県高松市番町五丁目1-23,,087-835-1289,,087-835-1321,,医療法人社団石田クリニック,,月火水木金土,09：00,17：00,火曜日、木曜日、土曜日15：00まで。,,リハビリ科、麻酔科,0,,
64,0,0,372013,,香川県,高松市,いしばし内科医院,イシバシナイカイイン,無床診療所,香川県高松市塩上町9-15,,087-831-7487,,087-831-7486,,石橋　忠明,,月火水木金土,09：00,18：00,土曜日13：00まで。,,内科、胃腸科、循環器科,0,https://itp.ne.jp/info/373353905400000899/,
65,0,0,372013,,香川県,高松市,イズミ医院,イズミイイン,無床診療所,香川県高松市三谷町90-1,,087-840-1777,,087-888-3368,,医療法人社団イズミ医院,,月火水木金土,08：30,18：00,木曜日12：30、土曜日16：00まで。,,内科、神経内科、循環器内科、外科、整形外科、脳神経外科、リハビリ科、放射線科、麻酔科、脳卒中内科、リハビリ科,0,,
66,0,0,372013,,香川県,高松市,泉クリニック,イズミクリニック,無床診療所,香川県高松市屋島西町2490-1,,087-841-8808,,087-841-8870,,医療法人社団緑洋会,,月火水木金土,09：00,18：00,木曜日12：30まで。,,内科、心療内科、精神科、神経内科,0,http://izumi-clinic.or.jp/,
67,0,0,372013,,香川県,高松市,いずみ内科医院,イズミナイカイイン,無床診療所,香川県高松市高松町1689-4,,087-843-1115,,087-870-0267,,医療法人社団いずみ内科医院,,月火水木金土,09：00,18：00,水曜日、土曜日12：30まで。,,内科、消化器内科、循環器内科、糖尿病・代謝内科,0,https://itp.ne.jp/info/376427215400000899/,
68,0,0,372013,,香川県,高松市,磯島クリニック,イソシマクリニック,無床診療所,香川県高松市常磐町二丁目3-6,,087-862-5177,,087-862-5152,,医療法人社団玄正会,,月火水木金土,09：00,18：00,,,内科、心療内科、精神科、リハビリ科,0,https://itp.ne.jp/info/370719615400000899/,
69,0,0,372013,,香川県,高松市,いとうクリニック,イトウクリニック,無床診療所,香川県高松市木太町3238-7,,087-835-5011,,087-863-3750,,医療法人社団いとうクリニック,,月火水木金土,09：00,18：00,木曜日、土曜日12：30まで。,,内科、脳神経外科、リハビリ科、麻酔科,0,"http://www2.plala.or.jp/ito_clinic/
https://itp.ne.jp/info/377812115400000899/",
70,0,0,372013,,香川県,高松市,いとうわんぱくクリニック,イトウワンパククリニック,無床診療所,香川県高松市楠上町二丁目3-15,アルファメディカルモール2F,087-812-1089,,087-812-1090,,医療法人社団いとうわんぱくクリニック,,月火水木金土,09：00,18：00,水曜日、土曜日12：30まで。,,アレルギー科、小児科,0,http://www.maroon.dti.ne.jp/wanpack/main.html,
71,0,0,372013,,香川県,高松市,稲井皮膚科クリニック,イナイヒフカクリニック,無床診療所,香川県高松市円座町129-7,,087-885-3356,,087-885-3356,,稲井　優,,月火水木金土,09：00,18：00,水曜日、土曜日12：30まで。,,皮膚科,0,http://inaihifuka.her.jp/,
72,0,0,372013,,香川県,高松市,いまいこどもファミリークリニック,イマイコドモファミリークリニック,無床診療所,香川県高松市新田町甲658-7,,087-813-8048,,087-813-8348,,医療法人社団いまいこどもファミリークリニック,,月火水木金土,08：30,18：00,火曜日、金曜日12：00、土曜日17：00まで。,,血液内科、小児科,0,http://www.imaikfc.com/,
73,0,0,372013,,香川県,高松市,岩藤内科医院,イワドウナイカイイン,無床診療所,香川県高松市牟礼町牟礼2128-10,,087-845-3337,,087-845-8666,,岩藤　孫六,,月火水木金土,08：30,18：00,水曜日、土曜日12：00まで。,,内科、呼吸器科、消化器科、循環器科,0,http://www.geocities.jp/iwadounaika/index.html,
74,0,0,372013,,香川県,高松市,岩部医院,イワブイイン,無床診療所,香川県高松市松福町二丁目10-10,,087-821-6203,,087-821-6203,,岩部　道孝,,月火水木金土,09：00,18：00,水曜日、土曜日12：00まで,,内科、呼吸器科、小児科,0,,
75,0,0,372013,,香川県,高松市,上原耳鼻咽喉科医院,ウエハラジビインコウカイイン,無床診療所,香川県高松市国分寺町新居1362,,087-874-4133,,087-874-8701,,医療法人社団勇静会,,月火木金土,09：00,17：30,土曜日12：30まで。,,耳鼻咽喉科,0,https://itp.ne.jp/info/379799025400000899/,
76,0,0,372013,,香川県,高松市,うえむら耳鼻咽喉科,ウエムラジビインコウカ,無床診療所,香川県高松市楠上町二丁目3-15,アルファメディカルモール2F,087-831-8733,,,,医療法人社団うえむら耳鼻咽喉科,,月火水木金土,09：00,18：00,木曜日12：30、土曜日17：00まで。,,耳鼻咽喉科,0,http://uemura.atat.jp/i/f.php,
77,0,0,372013,,香川県,高松市,牛山クリニック,ウシヤマクリニック,無床診療所,香川県高松市檀紙町68-1,,087-886-0119,,087-886-0559,,医療法人社団牛山クリニック,,月火水木金土,08：30,18：00,木曜日、土曜日12：30まで。,,内科、消化器内科、外科、リハビリテーション科、美容皮膚科,0,https://ushiyama-cl.jimdo.com/,
78,0,0,372013,,香川県,高松市,内田眼科クリニック,ウチダガンカクリニック,無床診療所,香川県高松市扇町二丁目1-7,,087-823-3443,,087-823-3443,,医療法人社団内田眼科クリニック,,月火水木金土,09：00,17：30,水曜日、土曜日12：00まで。,,眼科,0,https://itp.ne.jp/info/376823805400000899/,
80,0,0,372013,,香川県,高松市,江藤内科クリニック,エトウナイカクリニック,無床診療所,香川県高松市六条町198-1,,087-847-6840,,087-847-6841,,江藤　内詞,,月火水木金土,08：30,17：30,木曜日14：30から17：30。土曜日12：00まで第1第3のみ。,,内科,0,,
81,0,0,372013,,香川県,高松市,えないメンタルクリニック,エナイメンタルクリニック,無床診療所,香川県高松市観光町649-8,,087-813-1613,,087-813-1614,,繒内　利啓,,月火水金土,09：00,18：00,月曜日19：00、土曜日17：00まで。,,心療内科、精神科,0,https://www.enai-mental-clinic.jp/,
83,0,0,372013,,香川県,高松市,遠藤医院,エンドウイイン,無床診療所,香川県高松市浜ノ町58-10,,087-821-9300,,087-822-4428,,遠藤　俊一,,月火水木金土,09：00,18：00,土曜日13：00まで。,,呼吸器科、胃腸科、外科、整形外科、リハビリ科、麻酔科,0,,
84,0,0,372013,,香川県,高松市,大饗内科消化器科医院,オオアエナイカショウカキカイイン,無床診療所,香川県高松市成合町728-7,,087-885-1233,,087-885-1681,,大饗　由之,,月火水木金土,08：30,18：00,土曜日12：00まで。,,内科、心療内科、精神科、消化器内科,0,"http://www.ooae.jp/
https://itp.ne.jp/info/375356425400000899/",
85,0,0,372013,,香川県,高松市,大内胃腸科眼科医院,オオウチイチョウカガンカイイン,無床診療所,香川県高松市高松町2507-4,,087-843-1662,,087-843-1664,,大内　晰,,月火水木金土,09：00,18：00,木曜日、土曜日13：00まで。,,内科、胃腸科、眼科,0,,
86,0,0,372013,,香川県,高松市,おおくぼ小児科,オオクボショウニカ,無床診療所,香川県高松市東山崎町466-3,,087-847-2500,,087-847-2510,,医療法人社団おおくぼ小児科,,月火水木金土,08：30,18：00,水曜日12：00、土曜日15：00まで。,,アレルギー科、小児科、新生児内科,0,http://www.okubo-hospital.jp/,
87,0,0,372013,,香川県,高松市,大嶋整形外科医院,オオシマセイケイゲカイイン,有床診療所,香川県高松市香川町大野1092-1,,087-885-3611,,087-885-5526,,医療法人社団大嶋整形外科医院,,月火水木金土,09：00,18：00,木曜日12：00、土曜日14：00まで。,,リウマチ科、整形外科、リハビリ科,19,,
88,0,0,372013,,香川県,高松市,太田クリニック,オオタクリニック,有床診療所,香川県高松市福岡町二丁目24-26,,087-851-1238,,,,医療法人社団らく楽会,,月火水木金土,09：00,18：00,土曜日は13：00まで診療,,内科、外科、泌尿器科、リハビリ科,19,http://www.rakuraku-group.jp/otaclinic.html,
89,0,0,372013,,香川県,高松市,おおた小児科アレルギー科クリニック,オオタショウニカアレルギーカクリニック,無床診療所,香川県高松市春日町466-1,,087-844-8288,,087-844-8332,,医療法人社団すこやか,,月火水木金土,09：00,18：00,木曜日17：00から18：00。土曜日は17：00まで。,,呼吸器科、アレルギー科、小児科,0,https://www.ohtaclinic.jp/,
90,0,0,372013,,香川県,高松市,大塚整形外科医院,オオツカセイケイゲカイイン,有床診療所,香川県高松市中央町1-28,,087-834-7611,,087-834-7613,,医療法人社団大塚整形外科医院,,月火水木金土,08：30,17：30,木曜日13：00、土曜日12：30まで。,,リウマチ科、整形外科、リハビリ科,15,https://otsuka-seikei.jp/,
91,0,0,372013,,香川県,高松市,大西整形外科クリニック,オオニシセイケイゲカクリニック,無床診療所,香川県高松市松島町一丁目8-18,,087-862-8288,,087-862-8289,,医療法人社団大西整形外科クリニック,,月火水木金土,09：00,18：30,木曜日13：00まで。,,外科、整形外科、リハビリ科,0,,
92,0,0,372013,,香川県,高松市,大西内科クリニック,オオニシナイカクリニック,無床診療所,香川県高松市屋島西町2490-18,,087-818-0765,,087-818-0785,,医療法人社団空会,,月火水木金土,09：00,18：30,水曜日、土曜日12：30まで。,,内科、消化器内科、アレルギー科,0,http://ohnishinaika.homepagelife.jp/,
93,0,0,372013,,香川県,高松市,大野ペインクリニック,オオノペインクリニック,無床診療所,香川県高松市天神前5-6,高松メディカルモール4F,087-836-9870,,087-836-9878,,大野　健次,,月火水金土,09：00,18：00,,,麻酔科,0,https://www.ohnopain.clinic/,
94,0,0,372013,,香川県,高松市,大橋内科胃腸科,オオハシナイカイチョウカ,無床診療所,香川県高松市三条町109-1,,087-866-0084,,087-866-0084,,医療法人社団大橋内科胃腸科,,月火水木金土,09：00,18：00,木曜日、土曜日12：30まで。,,内科、胃腸科,0,https://itp.ne.jp/info/374643531104821690/,
95,0,0,372013,,香川県,高松市,おか整形・リハビリクリニック,オカセイケイ・リハビリクリニック,無床診療所,香川県高松市西ハゼ町8-1,,087-814-8555,,087-814-8666,,医療法人社団おか整形・リハビリクリニック,,月火水木金土,09：00,18：00,水曜日12：30、土曜日13：00まで。,,整形外科、リハビリ科,0,http://www.oka-seikei.com/,
96,0,0,372013,,香川県,高松市,おか内科クリニック,オカナイカクリニック,無床診療所,香川県高松市香川町川東上1864-3,,087-879-1600,,087-879-1632,,岡　隆彦,,月火水木金土,08：30,18：00,水曜日12：30、土曜日17：30まで。,,内科、呼吸器内科、消化器内科、糖尿病内科、リウマチ科、外科、整形外科、胃腸外科、肛門外科、リハビリ科,0,https://itp.ne.jp/info/372595059018841960/,
98,0,0,372013,,香川県,高松市,小川内科医院,オガワナイカイイン,有床診療所,香川県高松市藤塚町三丁目3-12,,087-861-9551,,087-837-2012,,医療法人社団小川内科医院,,月火水木金土,09：00,18：00,木曜日、土曜日午後休診。,,内科、消化器科、循環器科、放射線科,19,https://ogawaiin.jimdo.com/,
99,0,0,372013,,香川県,高松市,おだ整形外科医院,オダセイケイゲカイイン,無床診療所,香川県高松市花ノ宮町二丁目12-1,,087-866-7166,,087-866-0031,,医療法人社団おだ整形外科医院,,月火水木金土,09：00,18：00,木曜日、土曜日13：00まで。,,リウマチ科、外科、リハビリ科,0,,
100,0,0,372013,,香川県,高松市,おはら整形外科クリニック,オハラセイケイゲカクリニック,無床診療所,香川県高松市多肥下町1543-1,,087-865-2398,,087-816-6193,,医療法人社団おはら整形外科クリニック,,月火水木金土,09：00,18：00,水曜日、土曜日12：30まで。,,リウマチ科、外科、整形外科、胃腸外科、肛門外科、リハビリ科,0,https://hospital.dr-navip.jp/kagawa/facility/1477/,
101,0,0,372013,,香川県,高松市,オリーブ高松メディカルクリニック,オリーブタカマツメディカルクリニック,無床診療所,香川県高松市観光町649-8,,087-839-9620,,,,医療法人如水会,,月火水木金土,08：30,17：30,,,内科、婦人科,0,https://www.olive.clinic/,
102,0,0,372013,,香川県,高松市,海部医院,カイフイイン,有床診療所,香川県高松市高松町2365,,087-843-3666,,087-843-3667,,医療法人社団海部医院,,月火水木金土,09：00,18：00,土曜日13：00まで。,,内科、腎臓内科、循環器内科、皮膚科、泌尿器科,19,http://www.kaifuiin.com/medical/index.html,
103,0,0,372013,,香川県,高松市,楓の森整形外科,カエデノモリセイケイゲカ,無床診療所,香川県高松市小村町256-2,,087-887-9888,,,,医療法人社団つばさ,,月火木金土,09：00,18：00,,,整形外科、リハビリ科,0,http://www.kaedenomori.jp/,
104,0,0,372013,,香川県,高松市,香川県総合健診協会,カガワケンソウゴウケンシンキョウカイ,無床診療所,香川県高松市郷東町587-1,,087-881-4867,,087-881-8171,,公益財団法人香川県総合健診協会,,,,,,,内科、婦人科、放射線科,0,,
105,0,0,372013,,香川県,高松市,かがわ整形外科クリニック,カガワセイケイゲカクリニック,無床診療所,香川県高松市屋島西町1347-10,,087-887-9876,,,,医療法人社団一耀会かがわ整形外科クリニック,,月火水木金土,09：00,18：00,水曜日、土曜日12：30まで。,,整形外科、リハビリ科,0,http://kagawa-orthop.com/index.html,
106,0,0,372013,,香川県,高松市,笠岡　腎・透析・泌尿器科クリニック,カサオカ　ジン・トウセキ・ヒニョウキカクリニック,無床診療所,香川県高松市郷東町字東新開148-3,,087-882-8777,,,,笠岡　良信,,月火水木金土,09：00,18：00,木曜日、土曜日12：30まで。,,泌尿器科、泌尿器科（人工透析）,0,http://www.kasaoka-urology-cl.com/,
107,0,0,372013,,香川県,高松市,加地医院,カジイイン,無床診療所,香川県高松市牟礼町牟礼22-1,,087-845-9713,,,,医療法人社団　加地医院,,月火水木金土,09：00,18：00,木曜日は12：00、土曜日は12：30まで診療,,内科、消化器内科,0,http://kajiclinic.web.fc2.com/,
108,0,0,372013,,香川県,高松市,かしむら内科医院,カシムラナイカイイン,有床診療所,香川県高松市多肥上町718-1,,087-889-7760,,087-889-7769,,医療法人かしむら内科医院,,月火水金土,09：00,18：00,,,内科、胃腸科、リハビリ科,19,http://wwwb.pikara.ne.jp/kashimura-iin/,
109,0,0,372013,,香川県,高松市,春日佐々木医院,カスガササキイイン,無床診療所,香川県高松市春日町1650-1,,087-841-7676,,087-841-7671,,佐々木　良英,,月火水木金土,09：00,18：00,水曜日、土曜日12：30まで。,,内科、呼吸器科、胃腸科、循環器科、,0,https://hospital.dr-navip.jp/kagawa/facility/1448/,
110,0,0,372013,,香川県,高松市,形見医院,カタミイイン,無床診療所,香川県高松市番町四丁目8-25,,087-831-5965,,087-833-4397,,形見　智彦,,月火水木金土,09：00,18：00,水曜日午後診療15：00から。土曜日12：30まで。,,内科、循環器科、小児科,0,,
111,0,0,372013,,香川県,高松市,かつが整形外科クリニック,カツガセイケイゲカクリニック,有床診療所,香川県高松市香西本町114-10,,087-832-8877,,087-832-8911,,医療法人社団勝賀,,月火水木金土,09：00,18：30,木曜日、土曜日12：30まで。,,リウマチ科、整形外科、リハビリ科、麻酔科,2,http://www.katsuga.com/,
112,0,0,372013,,香川県,高松市,加藤医院,カトウイイン,無床診療所,香川県高松市天神前1-22,　,087-862-6614,,,,加藤　秀樹,,月火水木金土,09：00,18：00,月曜日、木曜日19：00まで。土曜日午前12：30まで、午後13：30から15：00まで。,,耳鼻咽喉科、気管食道外科,0,https://itp.ne.jp/info/375210715400000899/,
113,0,0,372013,,香川県,高松市,加藤眼科医院,カトウガンカイイン,無床診療所,香川県高松市天神前10-28,,087-831-3893,,087-831-7771,,医療法人社団正眼会,,月火水木金土,09：00,17：00,木曜日、土曜日13：00まで。,,眼科,0,https://itp.ne.jp/info/371140905400000899/,
114,0,0,372013,,香川県,高松市,加藤眼科クリニック,カトウガンカクリニック,無床診療所,香川県高松市多肥下町1548-20,,087-868-0707,,087-868-0770,,加藤　俊彦,,月火水金土日,09：00,18：30,日曜日12：30まで。,,眼科,0,https://www6.bausch.co.jp/clinic/V0878680707,
115,0,0,372013,,香川県,高松市,かとう整形外科,カトウセイケイゲカ,無床診療所,香川県高松市楠上町一丁目5-31,,087-833-5545,,,,医療法人社団かとう整形外科,,月火水木金土,09：00,18：00,木曜日、土曜日12：30まで。,,リウマチ科、整形外科、リハビリ科,0,https://hospital.dr-navip.jp/kagawa/facility/1441/,
116,0,0,372013,,香川県,高松市,かとう皮フ科クリニック,カトウヒフカクリニック,無床診療所,香川県高松市香川町大野2453-1,,087-864-7227,,087-864-7228,,医療法人社団かとう皮フ科クリニック,,月火水金,09：00,18：00,土曜日12：00まで。,,皮膚科,0,,
117,0,0,372013,,香川県,高松市,かど小児科クリニック,カドショウニカクリニック,無床診療所,香川県高松市多肥下町1556-15,,087-868-1200,,087-868-1386,,医療法人かど小児科クリニック,,月火水木金土,08：30,17：45,木曜日、土曜日12：05まで。,,小児科,0,http://www.kado-child-clinic.com/,
118,0,0,372013,,香川県,高松市,かねたけ耳鼻咽喉科医院,カネタケジビインコウカイイン,無床診療所,香川県高松市屋島西町1968-7,,087-841-8733,,087-841-8733,,医療法人社団かねたけ耳鼻咽喉科医院,,月火水木金土,08：30,18：30,水曜日午後診療14：30から。土曜日午後診療13：30から17：00まで。,,アレルギー科、耳鼻咽喉科,0,https://itp.ne.jp/info/376425215400000899/,
120,0,0,372013,,香川県,高松市,亀井内科呼吸器科医院,カメイナイカコキュウキカイイン,無床診療所,香川県高松市太田下町3007-4,,087-866-5001,,087-866-1877,,医療法人社団弘雅会,,月火水木金土,09：00,18：00,木曜日、土曜日12：30まで。,,内科、呼吸器内科、アレルギー科,0,https://itp.ne.jp/info/374811925197531780/,
121,0,0,372013,,香川県,高松市,かわさきレディースクリニック,カワサキレディースクリニック,無床診療所,香川県高松市番町三丁目19-15,,087-802-5525,,,,医療法人社団啓里会,,月火水木金土,09：00,18：00,水曜日、土曜日12：30まで。,,産婦人科,0,https://itp.ne.jp/info/371733359016381350/,
122,0,0,372013,,香川県,高松市,川地クリニック,カワジクリニック,無床診療所,香川県高松市松縄町1117-16,,087-815-2110,,087-815-2223,,医療法人社団川地クリニック,,月火水木金土,08：30,18：00,木曜日、土曜日12：30まで。,,内科、呼吸器科、アレルギー科,0,http://www.kawaji-clinic.com/,
123,0,0,372013,,香川県,高松市,河西医院,カワニシイイン,無床診療所,香川県高松市番町一丁目7-11,,087-851-2666,,087-851-3969,,河西　敏晴,,月火水木金土,08：30,17：30,木曜日、土曜日12：30まで。,,リウマチ科、整形外科、リハビリ科,0,https://itp.ne.jp/info/375005515400000899/,
124,0,0,372013,,香川県,高松市,かわにし眼科医院,カワニシガンカイイン,無床診療所,香川県高松市上之町一丁目3-11,,087-815-0588,,087-815-0587,,河西　庸二郎,,月火水木金土,09：00,18：30,水曜日12：30、土曜日13：20まで。,,眼科,0,,
125,0,0,372013,,香川県,高松市,川ばた整形・リハビリクリニック,カワバタセイケイ・リハビリクリニック,無床診療所,香川県高松市出作町431-5,,087-889-7770,,087-889-7797,,医療法人社団川ばた整形・リハビリクリニック,,月火水金土日,09：00,18：30,土曜日13：30まで。,,整形外科、リハビリ科,0,https://itp.ne.jp/info/510000000000062169/,
126,0,0,372013,,香川県,高松市,川原耳鼻咽喉科医院,カワハラジビインコウカイイン,無床診療所,香川県高松市瓦町二丁目7-20,,087-834-4731,,087-861-2023,,川原　孝文,,月火水木金土,09：00,18：00,木、土曜日13：00まで。,,耳鼻咽喉科,0,https://otolaryngologist-393.business.site/,
127,0,0,372013,,香川県,高松市,菅循環器科内科クリニック,カンジュンカンキカナイカクリニック,無床診療所,香川県高松市中間町40-1,,087-885-5100,,087-885-5200,,医療法人社団菅循環器科内科クリニック,,月火水木金土,09：00,18：00,木曜日12：30、土曜日16：00まで。,,内科、消化器内科、循環器内科,0,https://itp.ne.jp/info/373359425400000899/,
129,0,0,372013,,香川県,高松市,北島眼科,キタジマガンカ,無床診療所,香川県高松市兵庫町8-2,アルファステイツ兵庫町102,087-816-6614,,087-816-6814,,北島　仁,,月火水木金土,09：00,18：00,水曜日13：00、土曜日12：00まで。,,眼科,0,http://kamatama-dai.lolipop.jp/,
131,0,0,372013,,香川県,高松市,キッズメディカルまなべ,キッズメディカルマナベ,無床診療所,香川県高松市太田上町420-1,,087-869-4155,,087-869-4351,,真鍋　正博,,月火水木金土,09：00,18：00,木曜日、土曜日12：00まで。,,小児科,0,http://www.kids-m-manabe.com/index_pc.html,
132,0,0,372013,,香川県,高松市,木村医院,キムライイン,無床診療所,香川県高松市前田東町800-1,,087-847-6002,,087-847-6180,,医療法人社団木村医院,,月火水木金土,08：30,18：00,木曜日、土曜日12：30まで。,,内科、循環器科、小児科,0,,
133,0,0,372013,,香川県,高松市,木村耳鼻咽喉科医院,キムラジビインコウカイイン,無床診療所,香川県高松市太田上町420-1,,087-815-3317,,087-815-3318,,医療法人社団木村耳鼻咽喉科医院,,月火水木金土,09：00,18：00,土曜日12：00まで。,,アレルギー科、耳鼻咽喉科,0,http://kimura-ent01.com/,
134,0,0,372013,,香川県,高松市,きゅうか内科クリニック,キュウカナイカクリニック,無床診療所,香川県高松市木太町551-1,,087-869-2200,,087-869-2200,,医療法人社団重陽会きゅうか内科ｸﾘﾆｯｸ,,月火水木金土,09：00,18：00,木曜日、土曜日12：30まで。,,内科、呼吸器内科,0,"http://www.kyuka-naika.com/
https://itp.ne.jp/info/510000000000062047/",
135,0,0,372013,,香川県,高松市,共立美容外科高松院,キョウリツビヨウゲカタカマツイン,無床診療所,香川県高松市サンポート2-1,高松シンボルタワー9F,087-823-7710,,087-823-7715,,医療法人社団美人会,,月火水木金土,10：00,19：00,,,形成外科、美容外科,0,https://www.kyoritsu-biyo.com/clinic/takamatsu.php,
136,0,0,372013,,香川県,高松市,協和医院,キョウワイイン,無床診療所,香川県高松市東山崎町165-8,,087-847-6073,,087-847-6153,,三好　賢一,,月火水木金土,09：00,18：00,木曜日、土曜日12：00まで。,,内科、外科,0,,
137,0,0,372013,,香川県,高松市,楠の森眼科医院,クスノモリガンカイイン,無床診療所,香川県高松市木太町1608-5,,087-802-1211,,,,医療法人社団一心会,,月火水金土,09：00,18：00,土曜日午後診療14：00から16：00。火曜日午後手術。,,眼科,0,http://www.kusunomori-ganka.com/,
138,0,0,372013,,香川県,高松市,くにしげ内科小児科医院,クニシゲナイカショウニカイイン,無床診療所,香川県高松市香川町浅野137-1,,087-889-6600,,087-889-6668,,医療法人社団三心会,,月火水木金土,09：00,18：00,,,内科、呼吸器科、消化器科、小児科,0,,
139,0,0,372013,,香川県,高松市,Clinicaみやむら,クリニカミヤムラ,無床診療所,香川県高松市多肥下町527-1,,087-868-3860,,,,宮村　卓,,月火水金土,09：00,18：00,,,形成外科、美容皮膚科,0,"http://clinica-miyamura.com/
https://hospital.dr-navip.jp/kagawa/facility/1553/",
140,0,0,372013,,香川県,高松市,CＬＩＮＩＱＵＥ　Ｊ　形成外科,クリニックジェイケイセイゲカ,無床診療所,香川県高松市常磐町一丁目3-1,瓦町FLAG 9階,087-831-1403,,087-831-1404,,医療法人ＪＵＮＯ,,水木金土日,10：00,20：00,,,形成外科、美容外科、美容皮膚科,0,http://www.clinique-j.jp/,
141,0,0,372013,,香川県,高松市,くろべクリニック,クロベクリニック,無床診療所,香川県高松市木太町1335-4,,087-867-2267,,087-867-2217,,医療法人社団くろべクリニック,,月火水木金土,09：00,18：00,土曜日13：00まで。,,産婦人科,0,"http://www.kurobe-cl.com/index.html
https://localplace.jp/t100337638/",
142,0,0,372013,,香川県,高松市,香西内科医院,コウザイナイカイイン,無床診療所,香川県高松市檀紙町1531番地1,,087-886-5510,,,,医療法人社団博永会,,月火水木金土,08：30,18：00,木曜日、土曜日12：00まで。,,内科,0,,
143,0,0,372013,,香川県,高松市,河野内科医院,コウノナイカイイン,無床診療所,香川県高松市東山崎町543-5,,087-847-8150,,087-887-4444,,河野　康太,,月火水木金土,09：00,18：00,木曜日、土曜日12：00まで。,,内科、ペインクリニック科、麻酔科,0,,
144,0,0,372013,,香川県,高松市,こくぶ脳外科・内科クリニック,コクブノウゲカ・ナイカクリニック,無床診療所,香川県高松市国分寺町福家字下福家甲3812-1,イオンタウン国分寺メディカルモール,087-875-2255,,,,医療法人社団こくぶりた,,月火水木金土,09：00,18：00,月曜日18：00、木曜日、土曜日13：00まで。,,内科、脳神経外科,0,"http://www.kokubu-clinic.jp/
https://itp.ne.jp/info/371181845136260600/about/",
145,0,0,372013,,香川県,高松市,五色台クリニック,ゴシキダイクリニック,無床診療所,香川県高松市寿町一丁目4番3号,,087-822-2311,,,,医療法人社団五色会,,月火水木金土,10：00,19：00,木曜日13：30から。,,心療内科、精神科、児童・思春期精神科,0,http://www.goshikidai.or.jp/04clinic/,
146,0,0,372013,,香川県,高松市,こじまクリニック,コジマクリニック,無床診療所,香川県高松市楠上町二丁目3－15,アルファメディカルモール2F,087-813-1122,,087-813-1121,,医療法人社団裕和会,,月火水木金土,09：00,18：30,木曜日12：30まで。土曜日13：00まで。,,内科、循環器内科,0,http://www.kojima-clinic-hp.jp/index.html,
147,0,0,372013,,香川県,高松市,小谷医院,コタニイイン,無床診療所,香川県高松市香川町安原下第3号162,,087-879-7005,,087-840-5331,,堀川　知,,月火水木土,09：00,18：00,木曜日13：00まで。,,内科、消化器科、外科,0,,
148,0,0,372013,,香川県,高松市,小林内科小児科医院,コバヤシナイカショウニカイイン,無床診療所,香川県高松市屋島西町2485-6,,087-843-3315,,087-841-9899,,医療法人社団小林内科小児科医院,,月火水木金土,09：00,12：30,木曜日12：30、土曜日13：00まで。,,内科、呼吸器科、胃腸科、アレルギー科、小児科,0,"http://wwwd.pikara.ne.jp/kobayasi/index.html
https://itp.ne.jp/info/375544605116130300/",
149,0,0,372013,,香川県,高松市,五番丁医院,ゴバンチョウイイン,有床診療所,香川県高松市番町二丁目4-16,,087-822-3331,,,,河野　良太,,月火水木金土,09：00,18：00,木曜日、土曜日13：00まで。,,内科、外科、整形外科、こう門科、リハビリ科,19,http://gandkbyouin5.byoinnavi.jp/pc/,
150,0,0,372013,,香川県,高松市,こんスキンケアクリニック,コンスキンケアクリニック,無床診療所,香川県高松市今里町4-6,,087-869-7800,,087-869-7888,,権　成基,,月火水金土,10：00,19：00,土曜日18：00まで。,,形成外科、皮膚科,0,,
151,0,0,372013,,香川県,高松市,在宅診療敬二郎クリニック,ザイタクシンリョウケイジロウクリニック,無床診療所,香川県高松市多肥上町1297-1,,087-864-3109,,087-864-3108,,医療法人社団慈風会,,月火水木金土日,09：00,18：00,　,,内科、外科,0,http://www.healthcarenet.jp/clinic-kjr/,
152,0,0,372013,,香川県,高松市,ザイタックスクリニック,ザイタックスクリニック,有床診療所,香川県高松市上天神町512-1,,087-867-1177,,,,医療法人社団緑会,,月火水木金土,09：00,18：00,,,内科、人工透析内科、糖尿病内科、リウマチ科、泌尿器科,19,http://www.midori-kai.jp/,
153,0,0,372013,,香川県,高松市,榊原クリニック,サカキバラクリニック,無床診療所,香川県高松市亀井町10-10,1Ｆ,087-835-0977,,087-835-0977,,榊原　正知,,月火水金土,09：00,18：00,土曜日17：00まで。,,内科、麻酔科,0,,
154,0,0,372013,,香川県,高松市,坂口眼科医院,サカグチガンカイイン,無床診療所,香川県高松市太田上町420-1,,087-816-5151,,087-816-5151,,坂口　恭久,,月火水木金土,09：00,18：00,木曜日、土曜日12：00まで。,,眼科,0,,
155,0,0,372013,,香川県,高松市,鷺岡クリニック,サギオカクリニック,無床診療所,香川県高松市中新町11-12,三幸ビル2F,087-833-2631,,087-837-1706,,市原　正浩,,月火水金土,09：00,18：00,月曜日14：00から。第1土曜日12：30まで。,,内科、精神科、神経科,0,"http://www.myclinic.ne.jp/sagiokac/pc/
https://itp.ne.jp/info/370998905400000899/",
157,0,0,372013,,香川県,高松市,さくらクリニック博多　高松分院,サクラクリニックハカタ　タカマツブンイン,無床診療所,香川県高松市林町2217-6,,087-887-8881,,,,平野　英保,,水土,10：00,19：00,,,内科,0,,
158,0,0,372013,,香川県,高松市,さくらの馬場クリニック,サクラノババクリニック,無床診療所,香川県高松市仏生山町甲471-5,,087-889-3555,,,,医療法人社団讃志会,,月火水木金土,09：00,18：00,木曜日13：00、土曜日16：00まで。,,内科、循環器内科、人工透析内科、腎臓内科、リウマチ科、,0,http://sanshikai-med.jp/,
160,0,0,372013,,香川県,高松市,佐々木内科医院,ササキナイカイイン,有床診療所,香川県高松市扇町一丁目24-5,,087-851-6688,,087-822-4940,,医療法人社団慈和会,,月火水木金土,09：00,18：00,土曜日12：30まで。,,内科、胃腸科、循環器科、小児科,19,https://itp.ne.jp/info/510000000000062021/,
161,0,0,372013,,香川県,高松市,佐々木内科クリニック,ササキナイカクリニック,無床診療所,香川県高松市福岡町四丁目2-1,,087-821-1236,,087-821-1236,,佐々木　一乗,,月火水木金土,09：00,18：00,木曜日午後休診。,,内科、呼吸器科、循環器科,0,,
162,0,0,372013,,香川県,高松市,ササキメディカルクリニック,ササキメディカルクリニック,無床診療所,香川県高松市多肥下町1547-8,,087-814-3339,,,,佐々木　寛,,月火水木金土,09：00,18：30,水曜日、土曜日13：00まで。,,内科、外科、乳腺外科、リハビリ科,0,https://www.sasaki-medical.com/,
163,0,0,372013,,香川県,高松市,佐藤クリニック,サトウクリニック,有床診療所,香川県高松市成合町726-1,,087-885-0105,,087-886-5193,,医療法人社団泰平会,,月火水木金土,09：00,18：00,水曜日12：30、土曜日12：00まで。,,内科、外科、整形外科、こう門科、リハビリ科、放射線科,19,https://hospital.dr-navip.jp/kagawa/facility/1515/,
164,0,0,372013,,香川県,高松市,さとう内科クリニック,サトウナイカクリニック,無床診療所,香川県高松市新田町甲2607-4,,087-816-3101,,087-818-0587,,医療法人社団誠心会,,月火水木金土,09：00,18：00,水曜日13：00まで。,,内科、糖尿病内科、内分泌内科,0,http://sato-naika.byoinnavi.jp/pc/,
165,0,0,372013,,香川県,高松市,佐藤皮膚科泌尿器科性病科医院,サトウヒフカヒニョウキカセイビョウカイイン,無床診療所,香川県高松市栗林町一丁目13-8,,087-862-1971,,087-837-2925,,佐藤　稔,,月火水木金土,09：00,18：00,木曜日午後休診。,,皮膚科、泌尿器科、性病科,0,http://sato-ud-chinic.com./,
166,0,0,372013,,香川県,高松市,さわ医院,サワイイン,無床診療所,香川県高松市六条町481-1,,087-868-5001,,087-864-5373,,佐和　尚信,,月火水木金土,09：00,18：00,水曜日12：00、土曜日12：30まで。,,消化器内科、外科、整形外科、こう門科,0,http://www.myclinic.ne.jp/sawa_iin/pc/,
167,0,0,372013,,香川県,高松市,さんあいクリニック,サンアイクリニック,無床診療所,香川県高松市松縄町1005-3,,087-816-3192,,087-816-3115,,医療法人社団さんあいｸﾘﾆｯｸ,,月火水木金土,09：00,18：30,水曜日12：30、土曜日14：00まで。,,心療内科、精神科、耳鼻咽喉科,0,http://www.3ai.jp/,
168,0,0,372013,,香川県,高松市,さんごの海整形外科,サンゴノウミセイケイゲカ,無床診療所,香川県高松市観光通一丁目3-4,レアーレ瓦町１階102号,087-831-3535,,087-831-3565,,医療法人社団さんごの海,,月火木金土,09：00,19：30,土曜日13：30まで。,,リウマチ科、整形外科、リハビリ科,0,http://www.sangonoumi.com/,
169,0,0,372013,,香川県,高松市,三条整形外科スポーツクリニック,サンジョウセイケイゲカスポーツクリニック,有床診療所,香川県高松市三条町482-1,,087-867-2270,,087-867-4100,,医療法人弘仁会,,月火水木金土,09：00,18：00,水曜日、土曜日13：00まで。,,リウマチ科、整形外科、リハビリ科,19,http://www.sanjo-hp.net/,
170,0,0,372013,,香川県,高松市,三条山下内科医院,サンジョウヤマシタナイカイイン,無床診療所,香川県高松市三条町504-1,,087-867-1201,,087-868-0501,,医療法人社団耕彩会,,月火水木金土,09：00,17：45,水曜日、土曜日13：00まで。,,内科、神経内科、循環器科,0,"http://www.sy-naika.com/
https://byoinnavi.jp/clinic/95709",
171,0,0,372013,,香川県,高松市,サンフラワーマタニティークリニック,サンフラワーマタニティークリニック,有床診療所,香川県高松市太田下町3017-3,,087-868-4103,,,,柳原　敏宏,,月火水木金土,09：00,18：00,木曜日12：00、土曜日14：00まで。水曜日は午後手術。,,産科、婦人科,19,http://www.sfmc.jp/,
172,0,0,372013,,香川県,高松市,塩見内科医院,シオミナイカイイン,無床診療所,香川県高松市楠上町一丁目9-36,,087-862-0403,,087-831-8694,,塩見　哲夫,,月火水木金土,09：00,18：00,木曜日、土曜日12：30まで。,,内科,0,http://www.geocities.jp/shiomi_medical_clinic/,
173,0,0,372013,,香川県,高松市,しげなり内科医院,シゲナリナイカイイン,無床診療所,香川県高松市香南町池内517-15,,087-879-0366,,087-879-0366,,医療法人しげなり内科医院,,月火水木金土,08：30,18：00,水曜日、木曜日、土曜日12：30まで。,,内科、心療内科、精神科、神経科、神経内科、胃腸科,0,,
174,0,0,372013,,香川県,高松市,四宮医院,シノミヤイイン,有床診療所,香川県高松市西植田町1540,,087-849-0201,,087-849-1122,,四宮　陽一,,月火水木金土,09：00,18：00,木曜日12：00まで。,,内科、小児科、脳神経外科、放射線科,19,,
175,0,0,372013,,香川県,高松市,しぶやこどもクリニック,シブヤコドモクリニック,無床診療所,香川県高松市牟礼町牟礼2094-1,,087-845-6111,,,,医療法人社団しぶや小児科クリニック,,月火水木金土,08：30,18：30,,,小児科,0,http://www.shibuyaclinic.jp/,
176,0,0,372013,,香川県,高松市,渋谷整形外科医院,シブヤセイケイゲカイイン,有床診療所,香川県高松市牟礼町牟礼986-1,,087-845-9339,,087-845-9309,,医療法人社団渋谷整形外科医院,,月火水金土,09：00,18：00,土曜日17：30まで。,,リウマチ科、外科、整形外科、リハビリ科,19,http://shibuya-seikei.com/,
177,0,0,372013,,香川県,高松市,湘南美容クリニック高松院,ショウナンビヨウクリニックタカマツイン,無床診療所,香川県高松市丸亀町3-13,高松丸亀町商店街参番街西館2F,050-5865-5801,,,,医療法人社団菜寿会,,火水金土日,10：00,19：00,,,美容外科、美容皮膚科,0,https://www.sbc-takamatsu.com/,
178,0,0,372013,,香川県,高松市,白石心臓血管外科クリニック,シライシシンゾウケッカンゲカクリニック,無床診療所,香川県高松市六条町166,,087-847-0011,,087-847-0010,,医療法人社団静正会,,月火水木金土,09：00,17：30,水曜日、土曜日11：30まで。,,血管外科、循環器内科,0,https://localplace.jp/t100352010/,
179,0,0,372013,,香川県,高松市,白井内科医院,シライナイカイイン,無床診療所,香川県高松市国分寺町新名440-23,,087-874-3711,,087-874-5217,,白井　忠雄,,月火水木金土,09：00,18：00,木曜日12：00まで。,,内科、消化器科、循環器科、小児科,0,https://itp.ne.jp/info/376269025400000899/,
180,0,0,372013,,香川県,高松市,白神眼科医院,シラガミガンカイイン,無床診療所,香川県高松市松縄町37-7,,087-866-3730,,,,医療法人社団白神眼科医院,,月火水木金土,09：00,18：00,木曜日、土曜日12：00まで。,,眼科,0,http://shiragami-eyeclinic.jp/,
181,0,0,372013,,香川県,高松市,しらかわ小児科医院,シラカワショウニカイイン,無床診療所,香川県高松市一宮町97-7,,087-889-2107,,087-888-5622,,医療法人社団しらかわ小児科医院,,月火水木金土,08：10,16：30,金曜日18：00まで。土曜日14：00まで。,,小児科,0,http://shirakawacc.starfree.jp/,
182,0,0,372013,,香川県,高松市,しんまるクリニック,シンマルクリニック,無床診療所,香川県高松市上福岡町922-1,,087-887-7612,,,,新丸　昭子,,月火水木金土,09：00,18：00,火曜日、土曜日12：00まで。,,内科,0,,
183,0,0,372013,,香川県,高松市,菅原眼科医院,スガハラガンカイイン,有床診療所,香川県高松市観光通一丁目5-5,,087-831-7561,,087-831-8994,,医療法人社団菅原眼科医院,,月火水木金土,09：00,17：00,木曜日、土曜日12：30まで。,,耳鼻咽喉科,3,https://itp.ne.jp/info/372953905400000899/,
184,0,0,372013,,香川県,高松市,杉上産婦人科医院,スギウエサンフジンカイイン,有床診療所,香川県高松市香川町浅野1026-5,,087-879-6969,,087-879-6973,,杉上  彰,,月火水金土,09：00,18：00,,,内科、産科、婦人科、麻酔科,19,https://sugiue-obgyn.jp/,
185,0,0,372013,,香川県,高松市,鈴木レディースクリニック,スズキレディースクリニック,無床診療所,香川県高松市福岡町三丁目11-27,,087-826-2288,,087-826-2277,,医療法人社団鈴木レディースクリニック,,月火水金土,09：00,17：30,水曜日17：30、土曜日12：30まで。,,産婦人科,0,https://itp.ne.jp/info/376136805400000899/,
186,0,0,372013,,香川県,高松市,住谷小児科医院,スミタニショウニカイイン,無床診療所,香川県高松市郷東町25-4,,087-832-8808,,087-881-8077,,医療法人社団住谷小児科医院,,月火水木金土,08：30,18：00,木曜日12：00まで。,,小児科,0,http://iryoshadansumitanishonikain.hp.gogo.jp/pc/,
188,0,0,372013,,香川県,高松市,整形外科高松厚生クリニック,セイケイゲカタカマツコウセイクリニック,有床診療所,香川県高松市塩上町8-13,,087-831-7562,,087-862-2703,,医療法人整愛会,,月火水木金土,09：00,19：00,水曜日、土曜日13：00まで。,,リウマチ科、整形外科、形成外科、リハビリ科,19（休床中）,http://www.kousei-cl.jp/,
189,0,0,372013,,香川県,高松市,せとうちクリニック,セトウチクリニック,無床診療所,香川県高松市松福町二丁目10-5,,087-811-5577,,087-811-5587,,医療法人社団せとうちクリニック,,月火水木金土,09：00,18：00,水曜日、土曜日13：00まで。,,呼吸器内科、、胃腸内科、外科、リハビリ科,0,http://wwwi.netwave.or.jp/~seto-cli/,
190,0,0,372013,,香川県,高松市,瀬上皮フ科医院,セノウエヒフカイイン,無床診療所,香川県高松市扇町二丁目2-12,,087-822-4790,,087-822-4790,,医療法人社団瀬上皮フ科医院,,月火水金土,09：00,18：00,土曜日12：30まで。,,皮膚科,0,https://itp.ne.jp/info/371019705400000899/,
192,0,0,372013,,香川県,高松市,全人クリニック,ゼンジンクリニック,無床診療所,香川県高松市勅使町62-4,,087-867-1717,,087-816-6628,,西山　尚志,,月火水金土,09：00,18：00,土曜日16：00まで。,,内科、心療内科、精神科,0,http://www016.upp.so-net.ne.jp/zenjin/,
193,0,0,372013,,香川県,高松市,聖アイクリニック,セントアイクリニック,無床診療所,香川県高松市三条町608-1,,087-868-5522,,087-868-0522,,西岡　聖子,,火水金土日,12：00,19：00,土曜日、日曜日10：30から。,,眼科,0,,
194,0,0,372013,,香川県,高松市,セントラルパーククリニック,セントラルパーククリニック,有床診療所,香川県高松市番町一丁目10-16,,087-863-4560,,087-863-0353,,一般財団法人三宅医学研究所,,月火水木金土,08：00,17：00,,,内科、外科、整形外科、婦人科、リハビリ科、放射線科,5,http://www.miyake.or.jp/index_cpc.htm,
195,0,0,372013,,香川県,高松市,そがべ整形外科,ソガベセイケイゲカ,無床診療所,香川県高松市一宮町1125,,087-886-2323,,087-886-6647,,医療法人社団高杉会,,月火水木金土,09：00,12：30,,,内科、外科、整形外科、リハビリ科、麻酔科,0,,
196,0,0,372013,,香川県,高松市,十河診療所,ソガワシンリョウショ,有床診療所,香川県高松市十川西町368-1,,087-848-1166,,087-848-1166,,医療法人社団恵生会,,月火水木金土,09：00,18：00,木曜日、土曜日12：00まで。,,内科、小児科、脳神経外科、眼科、リハビリ科,15,http://www.hcv-sakura.com/,
197,0,0,372013,,香川県,高松市,そごうクリニック,ソゴウクリニック,無床診療所,香川県高松市川島本町298,,087-848-1155,,087-848-1261,,医療法人社団そごうクリニック,,月火水木金土,09：00,18：00,木曜日、土曜日12：30まで。,,消化器科、外科、整形外科、皮膚泌尿器科、リハビリ科,0,,
198,0,0,372013,,香川県,高松市,田井メディカルクリニック,タイメディカルクリニック,無床診療所,香川県高松市田村町332-4,,087-866-7311,,087-867-5021,,田井　祐爾,,月火水木金土,09：00,18：00,水曜日19：00、木曜日13：30まで。土曜日8：30から13：00まで。,,内科、胃腸科、外科、整形外科、皮膚科、放射線科,0,http://www.tai-med-clinic.jp/,
199,0,0,372013,,香川県,高松市,タウンクリニック高松東,タウンクリニックタカマツヒガシ,無床診療所,香川県高松市春日町438-1,,087-818-0007,,,,医療法人社団佳友会,,月火水木金土,08：30,18：30,土曜日12：30まで。,,内科、消化器内科、循環器内科,0,,
200,0,0,372013,,香川県,高松市,タカオ整形外科医院,タカオセイケイゲカイイン,無床診療所,香川県高松市国分寺町新居1310-1,,087-870-6700,,087-870-6262,,鷹尾　正和,,月火水木金土,09：00,18：30,水曜日、土曜日12：30まで。,,整形外科、リハビリ科、麻酔科,0,https://itp.ne.jp/info/379371025400000899/,
201,0,0,372013,,香川県,高松市,高田耳鼻咽喉科医院,タカタジビインコウカイイン,無床診療所,香川県高松市松縄町1143-26,,087-865-8733,,087-840-0878,,医療法人社団高田耳鼻咽喉科医院,,月火木金土,09：00,18：00,土曜日16：00まで。,,耳鼻咽喉科,0,https://itp.ne.jp/info/374080815400000899/,
202,0,0,372013,,香川県,高松市,高田整形外科医院,タカダセイケイゲカイイン,無床診療所,香川県高松市御厩町476,,087-886-8866,,087-886-8889,,医療法人社団博翔会,,月火水木金土,09：00,18：30,木曜日12：00、土曜日14：00まで。,,リウマチ科、整形外科、リハビリ科,0,https://itp.ne.jp/info/378859525400000899/,
203,0,0,372013,,香川県,高松市,高塚クリニック整形外科耳鼻咽喉科,タカツカクリニックセイケイゲカジビインコウカ,無床診療所,香川県高松市中間町23-1,,087-885-4880,,087-885-4884,,医療法人社団萌光会,,月火水木金土,09：00,18：00,木曜日12：30、土曜日16：00まで。,,リウマチ科、整形外科、耳鼻咽喉科、リハビリ科,0,https://itp.ne.jp/info/370449425400000899/,
204,0,0,372013,,香川県,高松市,高畠医院,タカバタケイイン,有床診療所,香川県高松市木太町1986,,087-862-3410,,087-862-3550,,医療法人社団高畠医院,,月火水木金土,09：00,18：00,木曜日13：00まで。,,内科、リウマチ科、外科、整形外科、皮膚科、泌尿器科、リハビリ科,19,http://www.takabatakec.com/,
205,0,0,372013,,香川県,高松市,高畠小児科・アレルギー科医院,タカバタケショウニカ・アレルギーカイイン,無床診療所,香川県高松市木太町1813-1,,087-862-2032,,087-835-9380,,医療法人社団高畠小児科医院,,月火水木金土,09：00,17：00,木曜日午後休診。,,アレルギー科、小児科,0,http://www.takabatake-ped.com/,
206,0,0,372013,,香川県,高松市,高松e眼科,タカマツイーガンカ,無床診療所,香川県高松市太田下町2457-1,,087-868-8855,,,,田中　茂登,,月火水木金土,09：00,18：00,木曜日、土曜日12：00まで。,,眼科,0,https://eganka.com/,
207,0,0,372013,,香川県,高松市,高松画像診断クリニック,タカマツガゾウシンダンクリニック,無床診療所,香川県高松市朝日町二丁目483-322,,087-811-5588,,,,医療法人社団西高松脳外科・内科クリニック,,月火水木金土,09：00,18：00,土曜日12：30まで。,,内科、脳神経外科、リハビリ科、放射線科、小児科,0,https://image.nishitakamatsu.jp/,
208,0,0,372013,,香川県,高松市,たかまつクリニック,タカマツクリニック,無床診療所,香川県高松市木太町1174-1,,087-813-5876,,087-813-7317,,医療法人財団愛和会,,月火水金土,09：30,17：30,,,内科、心療内科、精神科,0,,
209,0,0,372013,,香川県,高松市,高松紺屋町クリニック,タカマツコンヤマチクリニック,無床診療所,香川県高松市紺屋町5-3,,087-813-1018,,,,医療法人ウェルネスサポート,,月火水木金土,09：00,18：00,　,,内科、糖尿病内科、皮膚科、呼吸器内科,0,http://www.well-sprt.com/,
210,0,0,372013,,香川県,高松市,高松市国民健康保険男木診療所,タカマツシコクミンケンコウホケンオギシンリョウショ,無床診療所,香川県高松市男木町134,,087-873-0003,,087-873-0708,,高松市,,月火木金,15：00,16：45,,,内科、外科,0,,
211,0,0,372013,,香川県,高松市,高松市国民健康保険女木診療所,タカマツシコクミンケンコウホケンメギシンリョウショ,無床診療所,香川県高松市女木町112,,087-873-0103,,087-873-0838,,高松市,,月火木金,10：30,14：00,,,内科、外科,0,,
212,0,0,372013,,香川県,高松市,高松市夜間急病診療所,タカマツシヤカンキュウビョウシンリョウショ,無床診療所,香川県高松市松島町一丁目16-20,,087-839-2299,,087-839-2298,,高松市,,月火水木金土日,19：30,23：30,耳鼻咽喉科は木曜日のみ、眼科は土曜日のみ。,,内科、小児科、眼科、耳鼻咽喉科,0,https://www.city.takamatsu.kagawa.jp/kurashi/kurashi/kyukyu/yakan/shinryojo.html,
213,0,0,372013,,香川県,高松市,高松神経内科クリニック,タカマツシンケイナイカクリニック,無床診療所,香川県高松市紺屋町4-10,鹿島紺屋町ビル1F,087-873-2228,,,,医療法人高松神経内科クリニック,,月火水木金土,09：00,17：00,水曜日12：30まで、第２土曜日のみ12：00まで診療、他土曜日は休診,,精神科、神経内科,0,http://www.tn-clinic.jp/,
214,0,0,372013,,香川県,高松市,高松内視鏡診断クリニック,タカマツナイシキョウシンダンクリニック,無床診療所,香川県高松市福岡町四丁目28-30,,087-821-8877,,,,医療法人社団西高松脳外科・内科クリニック,,月火水木金土,09：00,18：00,月曜日、土曜日13：00まで。,,内科、消化器内科、循環器内科、脳神経外科,0,https://endoscope.nishitakamatsu.jp/,
215,0,0,372013,,香川県,高松市,高松にれクリニック,タカマツニレクリニック,無床診療所,香川県高松市番町二丁目10-6,,087-851-1117,,,,医療法人讃楡会,,月火水木金土,08：30,15：00,月曜日、水曜日、金曜日22：30まで。,,内科、人工透析内科、糖尿病内科、腎臓内科、泌尿器科,0,https://niere.jp/takamatsu/,
216,0,0,372013,,香川県,高松市,高松脳神経外科・外科医院,タカマツノウシンケイゲカ・ゲカイイン,無床診療所,香川県高松市檀紙町1593-1,,087-886-5588,,087-886-5589,,医療法人社団高松脳神経外科・外科医院,,月火水木金土,08：30,17：30,木曜日、土曜日12：30まで。,,外科、整形外科、脳神経外科、リハビリ科、放射線科,0,http://www.takamatsunouge.jp/,
217,0,0,372013,,香川県,高松市,高松ハートクリニック,タカマツハートクリニック,有床診療所,香川県高松市春日町148-1,,087-814-5111,,087-814-5112,,医療法人社団立心会高松ハートクリニック,,月火水木金土,09：00,17：00,土曜日12：00まで。,,内科、循環器内科,6,http://ta-heart.com/,
219,0,0,372013,,香川県,高松市,高本内科医院,タカモトナイカイイン,無床診療所,香川県高松市牟礼町原430,,087-845-8000,,087-845-8000,,医療法人社団高本内科医院,,月火水金土,09：00,17：30,土曜日12：30まで。,,内科、胃腸科、循環器科,0,,
220,0,0,372013,,香川県,高松市,瀧川整形外科医院,タキガワセイケイゲカイイン,無床診療所,香川県高松市林町1583-1,,087-867-2288,,087-867-6532,,医療法人社団瀧川整形外科医院,,月火水木金土,09：00,18：00,水曜日、土曜日13：00まで。,,リウマチ科、整形外科、リハビリ科,0,http://www.myclinic.ne.jp/t_seikei/pc/,
221,0,0,372013,,香川県,高松市,武田耳鼻咽喉科医院,タケダジビインコウカイイン,無床診療所,香川県高松市太田下町2355-5,,087-865-2311,,087-866-4501,,医療法人社団武田耳鼻咽喉科医院,,月火水木金土,09：00,18：00,木曜日12：00、土曜日16：30まで。,,耳鼻咽喉科、気管食道内科,0,"https://itp.ne.jp/info/510000000000062037/
https://www.489map.com/helios/A8135594/reserve/syoshin",
222,0,0,372013,,香川県,高松市,竹田耳鼻咽喉科クリニック,タケダジビインコウカクリニック,無床診療所,香川県高松市郷東町134-1,西高松メディカルビルイーア1階,087-873-2033,,,,医療法人社団すずらん,,月火水木金土,09：00,18：00,水曜日12：30、土曜日13：00まで。,,アレルギー科、耳鼻咽喉科,0,http://park.paa.jp/park2/clinics/2171,
223,0,0,372013,,香川県,高松市,竹広小児科医院,タケヒロショウニカイイン,無床診療所,香川県高松市太田下町2462-3,,087-866-2461,,087-840-0750,,医療法人社団竹広小児科医院,,月火水木金土,08：30,18：00,水曜日、土曜日12：30まで。,,小児科,0,https://www.takehiro-clinic.jp/medical/,
224,0,0,372013,,香川県,高松市,たけべ乳腺外科クリニック,タケベニュウセンゲカクリニック,有床診療所,香川県高松市多肥下町字山道365-9,,087-867-0205,,087-867-0306,,医療法人社団一歩一景会,,月火水木金土,09：00,17：30,火曜日、木曜日、土曜日12：30まで。,,乳腺外科,15,https://takebe.gr.jp/,
225,0,0,372013,,香川県,高松市,田坂耳鼻咽喉科医院,タサカジビインコウカイイン,無床診療所,香川県高松市松島町一丁目14-23,,087-861-8204,,087-834-8180,,田坂　周治,,月火水木金土,09：00,18：15,木曜日12：30、土曜日17：00まで。,,アレルギー科、耳鼻咽喉科、気管食道科,0,https://itp.ne.jp/info/374845615400000899/,
226,0,0,372013,,香川県,高松市,多田医院,タダイイン,無床診療所,香川県高松市扇町一丁目25-48,,087-851-2921,,087-851-2967,,多田　昌弘,,月火水金土,09：00,17：30,火曜日、木曜日、土曜日12：30まで。,,内科,0,,
227,0,0,372013,,香川県,高松市,多田羅内科クリニック,タタラナイカクリニック,有床診療所,香川県高松市番町三丁目3-1,,087-861-3730,,087-861-3430,,医療法人福生会,,月火水木金土,09：00,17：30,水曜日、土曜日12：30まで。,,内科、呼吸器内科、消化器内科、循環器内科、,18,http://tatara-clinic.main.jp/,
228,0,0,372013,,香川県,高松市,たつや耳鼻咽喉科,タツヤジビインコウカ,無床診療所,香川県高松市高松町3006-21,,087-843-8733,,,,医療法人社団千和会,,月火水木金土,09：00,18：00,木曜日13：00、土曜日16：00まで。,,耳鼻咽喉科,0,https://itp.ne.jp/info/379733225126530510/,
229,0,0,372013,,香川県,高松市,TANAKAクリニック　形成外科・美容外科,タナカクリニック　ケイセイゲカ・ビヨウゲカ,無床診療所,香川県高松市丸亀町1-1,丸亀町壱番街西館2階,087-823-1500,,,,医療法人社団RENATUS PRAS,,月火水金土,10：00,18：30,土曜日17：00まで。,,形成外科、美容外科,0,http://www.tanaka-pras-cl.com/,
230,0,0,372013,,香川県,高松市,谷崎眼科医院,タニザキガンカイイン,無床診療所,香川県高松市円座町129-4,,087-885-5558,,087-885-5568,,医療法人社団谷崎眼科医院,,月火水木金土,09：00,18：00,土曜日13：00まで。水曜日は手術のみ。,,眼科,0,https://itp.ne.jp/info/377779425400000899/,
231,0,0,372013,,香川県,高松市,谷本医院,タニモトイイン,無床診療所,香川県高松市林町1281,,087-867-1861,,087-865-8819,,医療法人社団育林会,,月火水木金土,09：00,18：00,土曜日12：30まで。,,内科、小児科,0,,
232,0,0,372013,,香川県,高松市,谷本内科医院,タニモトナイカイイン,有床診療所,香川県高松市香川町大野997-3,,087-885-8500,,087-870-4130,,医療法人社団谷本内科医院,,月火水木金土,09：00,18：00,木曜日13：00まで。,,内科、循環器内科、人工透析内科、糖尿病内科、泌尿器科、リハビリ科,19,http://www.tanimoto-c.or.jp/,
233,0,0,372013,,香川県,高松市,田原内科医院,タハラナイカイイン,有床診療所,香川県高松市松縄町41-5,,087-867-1766,,087-867-1767,,医療法人社団田原内科医院,,月火水木金土,09：00,18：00,木曜日、土曜日13：00まで。,,呼吸器内科、消化器内科、循環器内科、糖尿病・内分泌内科、リハビリ科,19（休床中）,http://www.taharanaika.jp/clinic.html,
234,0,0,372013,,香川県,高松市,田渕医院,タブチイイン,無床診療所,香川県高松市扇町一丁目25-25,,087-821-3091,,087-821-3162,,田渕　保己,,月火水木金土,09：00,18：00,木曜日、土曜日12：00まで。,,内科、外科、婦人科,0,https://itp.ne.jp/info/375999605400000899/,
235,0,0,372013,,香川県,高松市,玉藻クリニック,タマモクリニック,無床診療所,香川県高松市寿町一丁目4番3号,高松中央通りビル4階,087-811-7021,,,,医療法人社団清仁会,,火水木金土,09：00,18：00,水曜日14：00から。金曜日、土曜日12：00まで。,,内科、リウマチ科,0,http://www.utz.or.jp/tamamo/,
236,0,0,372013,,香川県,高松市,たむら内科,タムラナイカ,無床診療所,香川県高松市多肥上町1461,,087-888-3311,,087-888-3312,,医療法人社団ポラリス,,月火水木金土,09：00,18：00,金曜日、土曜日12：30まで。,,内科、呼吸器内科、消化器内科、糖尿病内科、血液内科、アレルギー科、リウマチ科、泌尿器科,0,http://tamuranaika-polaris.com/pc/,
237,0,0,372013,,香川県,高松市,田村内科クリニック,タムラナイカクリニック,無床診療所,香川県高松市庵治町6385-104,,087-871-1181,,087-871-1171,,田村　隆一,,月火水木金土,09：00,18：00,木曜日、土曜日12：30まで。,,内科、消化器科、循環器科、糖尿病内科,0,,
238,0,0,372013,,香川県,高松市,ツゲ医院,ツゲイイン,無床診療所,香川県高松市川部町1443-1,,087-885-1432,,087-885-5863,,柘植　司郎,,月火水木金土,09：00,18：30,木曜日12：00、土曜日16：00まで。,,内科、外科,0,https://tsuge-iin.com/,
239,0,0,372013,,香川県,高松市,辻クリニック,ツジクリニック,無床診療所,香川県高松市林町1501-1,,087-867-2662,,087-867-3232,,医療法人社団仁和会,,月火水木金土,09：00,18：00,木曜日、土曜日12：00まで。,,腹部外科、内科（循環器科）、外科、消化器外科、血管外科,0,http://www.cvs-tsuji.jp/index.html,
240,0,0,372013,,香川県,高松市,筒井皮ふ科医院,ツツイナイカ・ヒフカイイン,無床診療所,香川県高松市鍛冶屋町1-6,,087-821-6250,,,,井上　雅子,,月火水木金土,09：30,18：00,土曜日08：30～11：30まで、第１第３第５のみ。,,皮膚科・内科,0,http://www.tsutsui.clinic/,
241,0,0,372013,,香川県,高松市,翼医院,ツバサイイン,無床診療所,香川県高松市茜町16-12,,087-837-5800,,087-837-5651,,医療法人社団翼医院,,月火水木金土,09：00,18：00,水曜日、木曜日、土曜日13：00まで。,,内科、胃腸科、循環器科、放射線科,0,,
242,0,0,372013,,香川県,高松市,寺井山内医院,テライヤマウチイイン,無床診療所,香川県高松市寺井町1053-18,,087-886-7888,,087-886-7895,,山内　康彦,,月火水木金土,09：30,18：00,木曜日、土曜日12：30まで。,,内科、消化器内科、循環器内科、糖尿病内科、アレルギー科、,0,https://hospital.dr-navip.jp/kagawa/facility/1457/,
243,0,0,372013,,香川県,高松市,東京ノーストクリニック,トウキョウノーストクリニック,無床診療所,香川県高松市丸亀町4-1,パイロットビル4F,087-823-1134,,,,山本　英樹,,土日,15：00,21：00,日曜日10：00～18：00まで。,,形成外科、泌尿器科,0,https://www.norst.co.jp/phimotic/map/takamatsu.html,
244,0,0,372013,,香川県,高松市,徳野医院,トクノイイン,無床診療所,香川県高松市木太町2808-1,,087-831-3700,,087-831-3701,,医療法人社団眞貴会,,月火水木金土,09：00,18：00,土曜日13：00まで。,,整形外科、リハビリ科、麻酔科,0,,
245,0,0,372013,,香川県,高松市,トビウメ小児科医院,トビウメショウニカイイン,無床診療所,香川県高松市伏石町1390-1,,087-865-3111,,087-865-3134,,飛梅　董,,月火水木金土,08：30,17：00,水曜日12：00まで。,,小児科,0,http://www.tobiume-shounika.com/index.html,
246,0,0,372013,,香川県,高松市,とびうめ内科医院,トビウメナイカイイン,無床診療所,香川県高松市伏石町2131-2,,087-866-1130,,087-866-1130,,医療法人社団水明会,,月火水木金土,08：30,18：30,土曜日13：00まで。,,内科、呼吸器科、胃腸科,0,http://www.tobiume-cl.com/,
247,0,0,372013,,香川県,高松市,とみおか内科クリニック,トミオカナイカクリニック,無床診療所,香川県高松市番町二丁目6-13,,087-825-9121,,087-825-9120,,医療法人社団とみおか内科クリニック,,月火水金,09：00,17：30,火曜日19：30まで。,,内科,0,http://www.netwave.or.jp/~tomi-cli/,
248,0,0,372013,,香川県,高松市,内科・消化器内科　佐々木クリニック,ナイカ・ショウカキナイカササキクリニック,無床診療所,香川県高松市香川町浅野1030-1,,087-840-5339,,087-840-5337,,医療法人社団陽洸会,,月火水木金土日,08：00,18：00,水曜日12：30、土曜日、日曜日第１第３第５のみ12：30まで。,,内科、消化器内科,0,,
249,0,0,372013,,香川県,高松市,内科高橋クリニック,ナイカタカハシクリニック,無床診療所,香川県高松市藤塚町一丁目8-17,,087-831-7073,,087-831-7568,,医療法人社団内科高橋クリニック,,月火水木金土,09：00,18：00,火曜日19：00、土曜日13：00まで。,,内科、消化器科、循環器科,0,https://www.naikatakahashi.clinic/,
250,0,0,372013,,香川県,高松市,内科前田医院,ナイカマエダイイン,無床診療所,香川県高松市松島町二丁目17-15,,087-863-5252,,087-837-1009,,前田　道彦,,月火水木金土,09：00,18：00,木曜日、土曜日13：00まで。,,内科、アレルギー科、リハビリ科,0,http://maeda-cl.com/,
251,0,0,372013,,香川県,高松市,永井小児科医院,ナガイショウニカイイン,無床診療所,香川県高松市茜町2-20,,087-862-2920,,087-863-4321,,医療法人社団永井小児科医院,,月火水木金土,09：00,18：00,水曜日12：00、土曜日13：00まで。,,小児科,0,http://park.paa.jp/park2/clinics/2313,
252,0,0,372013,,香川県,高松市,長尾医院,ナガオイイン,無床診療所,香川県高松市飯田町343-１,,087-881-2901,,087-870-5171,,医療法人健心会,,月火水木金土,09：30,18：00,金曜日12：00まで。,,内科、外科,0,,
253,0,0,372013,,香川県,高松市,中川皮膚科医院,ナカガワヒフカイイン,無床診療所,香川県高松市国分寺町新居1288-6,,087-870-6660,,087-870-6611,,中川　俊文,,月火水木金土,09：00,18：00,木曜日12：30、土曜日17：00まで。,,皮膚科,0,http://www.myclinic.ne.jp/naka6660/pc/,
254,0,0,372013,,香川県,高松市,中空医院,ナカゾライイン,無床診療所,香川県高松市香西本町256-1,,087-881-1230,,087-881-6171,,医療法人社団中空医院,,月火水木金土,09：00,18：00,木曜日、土曜日12：00まで。,,内科、人工透析内科、消化器内科、循環器内科,0,http://nakazora.kagawa.jp/,
255,0,0,372013,,香川県,高松市,中村眼科医院,ナカムラガンカイイン,無床診療所,香川県高松市藤塚町一丁目7-7,,087-833-4880,,087-833-8330,,中村　晶,,月火水木金土,09：00,18：00,水曜日12：00、土曜日12：30まで。,,眼科,0,,
256,0,0,372013,,香川県,高松市,那須医院,ナスイイン,無床診療所,香川県高松市円座町1593,,087-885-1406,,087-885-1427,,那須　義功,,月火水木金土,09：00,18：00,土曜日12：30まで。,,内科、小児科,0,,
257,0,0,372013,,香川県,高松市,なりあい医院,ナリアイイイン,有床診療所,香川県高松市成合町1357,,087-885-7700,,087-885-7500,,学校法人　村上学園,,月火水木金土,09：00,18：00,木曜日、土曜日12：30まで。,,胃腸内科、外科、リハビリ科,19（休床中）,,
258,0,0,372013,,香川県,高松市,西岡医院,ニシオカイイン,有床診療所,香川県高松市寺井町1385-10,,087-885-2021,,087-885-9438,,医療法人社団仁泉会,,月火水木金,09：00,18：00,火14：00～18：00、金9：00～14：00,,内科、リウマチ科、小児科、整形外科、リハビリ科,19,http://www.jinsenkai.jp/nishioka/,
259,0,0,372013,,香川県,高松市,西春日小児科医院,ニシカスガショウニカイイン,無床診療所,香川県高松市松並町559-3,,087-867-7070,,087-869-0801,,医療法人社団良済会,,月火水木金土,09：00,18：00,水曜日12：45、土曜日17：00まで。,,小児精神科、小児科,0,http://www.nishikasuga.com/,
260,0,0,372013,,香川県,高松市,西風循環器科医院,ニシカゼジュンカンキカイイン,無床診療所,香川県高松市紺屋町3-12,,087-851-0880,,087-823-4086,,本間　菜々,,月火水金土,09：30,17：30,月曜日13：00、土曜日12：30まで。,,内科、呼吸器科、循環器科、麻酔科,0,,
261,0,0,372013,,香川県,高松市,西川クリニック,ニシカワクリニック,無床診療所,香川県高松市瓦町一丁目4-5,,087-851-1027,,087-851-0537,,医療法人恵愛会,,月火水木金土,09：00,18：00,土曜日11：30まで。,,整形外科、形成外科、リハビリ科,0,https://itp.ne.jp/info/377251934118051570/,
262,0,0,372013,,香川県,高松市,西高松脳外科･内科クリニック,ニシタカマツノウゲカ・ナイカクリニック,無床診療所,香川県高松市郷東町134-1,西高松メディカルビルイーア2階,087-832-8811,,087-881-1653,,医療法人社団西高松脳外科・内科クリニック,,月火水木金土,08：30,18：00,,,内科、整形外科、脳神経外科、リハビリ科,0,https://brain.nishitakamatsu.jp/,
263,0,0,372013,,香川県,高松市,西原眼科医院,ニシハラガンカイイン,有床診療所,香川県高松市香川町大野1325-1,,087-885-5511,,087-885-5534,,医療法人社団西原眼科医院,,月火水木金土,09：00,18：00,水曜日、金曜日12：30まで。,,耳鼻咽喉科,4,http://www.nishihara-gankaiin.com/,
264,0,0,372013,,香川県,高松市,西本皮膚科医院,ニシモトヒフカイイン,無床診療所,香川県高松市松縄町1139-6,,087-869-1170,,087-869-1090,,医療法人社団フィリーズ,,月火木金土,09：30,18：00,金曜日、土曜日12：30まで。,,皮膚科,0,,
265,0,0,372013,,香川県,高松市,新田リウマチ整形外科医院,ニッタリウマチセイケイゲカイイン,無床診療所,香川県高松市木太町2543-13,,087-833-8757,,087-833-8757,,新田　雅英,,月火水木金土,09：00,18：00,水、土曜日13：00まで。,,リウマチ科、整形外科、リハビリ科,0,,
266,0,0,372013,,香川県,高松市,沼本産婦人科医院,ヌマモトサンフジンカイイン,有床診療所,香川県高松市東田町4-8,,087-831-7062,,,,沼本　篤男,,月火水木金土,09：00,18：00,水曜日、土曜日12：30まで。,,産婦人科,2,,
267,0,0,372013,,香川県,高松市,ぬもと内科医院,ヌモトナイカイイン,無床診療所,香川県高松市昭和町二丁目14-13,,087-861-0465,,087-861-0465,,沼本　明美,,月火水木金土,09：00,18：00,土曜日13：00まで。,,内科、呼吸器科,0,,
268,0,0,372013,,香川県,高松市,野口内科医院,ノグチナイカイイン,無床診療所,香川県高松市前田東町1213-2,,087-847-6555,,087-847-6555,,野口　章男,,月火水木金土,09：00,18：00,火曜日、木曜日、金曜日、土曜日12：30まで。,,内科、消化器内科,0,https://byoinnavi.jp/clinic/95688,
269,0,0,372013,,香川県,高松市,のざき内科循環器科クリニック,ノザキナイカジュンカンキカクリニック,無床診療所,香川県高松市木太町2631-1,,087-831-5581,,087-831-5591,,野崎　士郎,,月火水木金土,09：00,18：00,木曜日12：00、土曜日14：00まで。,,内科、循環器科,0,http://www.dr-nozaki.com/clinic/index.html,
270,0,0,372013,,香川県,高松市,野田医院,ノダイイン,無床診療所,香川県高松市多賀町二丁目9-20,,087-831-4275,,,,医療法人社団野田医院,,月火水木金土,09：00,18：00,土曜日12：00まで。,,内科、循環器内科、小児科,0,https://www.noda-iin.jp/,
271,0,0,372013,,香川県,高松市,のむら内科循環器消化器クリニック,ノムラナイカジュンカンキショウカキクリニック,無床診療所,香川県高松市香川町川東上字漆原1802-7,,087-816-8088,,087-816-8080,,医療法人社団のむら内科循環器消化器クリニック,,月火木金土,08：00,20：00,日曜日12：00まで。,,内科、消化器内科、循環器内科,0,http://8423nomura.byoinnavi.jp/pc/index.html,
272,0,0,372013,,香川県,高松市,端岡厚生クリニック,ハシオカコウセイクリニック,無床診療所,香川県高松市国分寺町新居469-6,,087-874-0003,,087-874-7358,,真鍋　正茂,,月火木金土,09：00,17：30,土曜日12：30まで。,,内科、外科、整形外科、リハビリ科、精神科、心療内科,0,http://w01.tp1.jp/~a151823631/,
273,0,0,372013,,香川県,高松市,蓮井内科医院,ハスイナイカイイン,無床診療所,香川県高松市太田上町346-5,,087-888-1331,,087-888-5020,,医療法人社団蓮井内科医院,,月火水木金土,09：00,18：00,木曜日、土曜日13：00まで。,,内科、消化器内科、循環器内科、糖尿病・代謝内科,0,http://www.hasui-i.com/,
274,0,0,372013,,香川県,高松市,はせ川内科循環器科医院,ハセガワナイカジュンカンキカイイン,無床診療所,香川県高松市屋島西町1736,,087-841-1555,,087-844-1021,,医療法人社団はせ川内科循環器科医院,,月火水木金土,09：00,18：00,火曜日、土曜日13：30まで。,,内科、循環器科,0,http://www.hasegawa-heart.com/,
275,0,0,372013,,香川県,高松市,はた医院,ハタイイン,無床診療所,香川県高松市香西本町89,,087-881-2262,,087-881-7520,,医療法人社団はた医院,,月火水木金土,09：00,18：00,木曜日、土曜日12：30まで。,,内科、消化器科、小児科、リハビリ科,0,https://itp.ne.jp/info/371603325400000899/,
276,0,0,372013,,香川県,高松市,幡内科消化器科医院,ハタナイカショウカキカイイン,無床診療所,香川県高松市天神前6-18,,087-835-3366,,087-835-3367,,医療法人社団幡内科消化器科医院,,月火水木金土,09：00,18：00,木曜日、土曜日13：00まで。,,内科、消化器科,0,http://www.hatanaika.jp/,
277,0,0,372013,,香川県,高松市,八幡前三好医院,ハチマンマエミヨシイイン,無床診療所,香川県高松市宮脇町一丁目31-5,,087-834-4800,,087-835-5428,,三好　正嗣,,月火水木金土,09：00,18：00,木曜日、土曜日13：00まで。,,内科,0,http://www7b.biglobe.ne.jp/hachimanmae-miyoshi/,
279,0,0,372013,,香川県,高松市,花ノ宮クリニック,ハナノミヤクリニック,無床診療所,香川県高松市花ノ宮町一丁目5-36,,087-816-3555,,087-816-3550,,医療法人社団讃志会,,月火水木金土,09：00,18：00,木曜日13：00、土曜日16：30まで。月曜日、水曜日、金曜日18：00～22：00透析。,,内科、循環器内科、人工透析内科、腎臓内科、リウマチ科,0,http://www.hananomiya.sanshikai-med.jp/,
280,0,0,372013,,香川県,高松市,花房外科医院,ハナブサゲカイイン,有床診療所,香川県高松市鶴市町2026-1,,087-881-0066,,087-881-0067,,医療法人社団伸萌会,,月火水木金土,08：30,18：00,木曜日午後休診。,,胃腸科、外科、こう門科、リハビリ科,19（休床中）,http://www.shinboukai.net/,
281,0,0,372013,,香川県,高松市,ハピネスこどもクリニック,ハピネスコドモクリニック,無床診療所,香川県高松市十川東町55-1,,087-848-9178,,087-848-6178,,医療法人社団ハピネスこどもクリニック,,月火水木金土,08：30,18：00,水曜日、土曜日第４以外12：00まで。,,小児科,0,http://www.happiness-kids-c.com/index2.htm,
282,0,0,372013,,香川県,高松市,はまもと医院,ハマモトイイン,有床診療所,香川県高松市六条町795-6,,087-864-6666,,087-869-1213,,医療法人社団ひまわり会,,月火水木金土,09：00,18：30,土曜日13：00まで。,,内科、呼吸器内科、消化器内科、胃腸内科、循環器内科、循環器内科、人工透析内科、糖尿病内科、腎臓内科、老年内科、アレルギー疾患内科、リハビリ科,19,,
283,0,0,372013,,香川県,高松市,ふるきた皮フ科,フルキタヒフカ,無床診療所,香川県高松市多肥上町1111-1,,087-889-1112,,087-869-2002,,医療法人社団ふるきた皮フ科,,月火木金土,09：00,18：00,土曜日12：00まで。,,皮膚科,0,"http://www.dermat1112.com/
http://www.ihr-medical.net/hayashi/",
284,0,0,372013,,香川県,高松市,原胃腸科医院,ハライチョウカイイン,無床診療所,香川県高松市常磐町一丁目4-8,丸新ビル6F,087-861-4433,,087-861-4433,,原　敬,,月火水木金土,09：00,18：00,木曜日午後休診。,,内科、胃腸科,0,,
285,0,0,372013,,香川県,高松市,はらだ産婦人科医院,ハラダサンフジンカイイン,有床診療所,香川県高松市花ノ宮町一丁目5-30,,087-837-1611,,087-832-7131,,医療法人社団はらだ産婦人科医院,,月火水木金土,09：00,18：00,木曜日13：00、土曜日17：00まで。,,産婦人科,2,,
286,0,0,372013,,香川県,高松市,番丁クリニック,バンチョウクリニック,無床診療所,香川県高松市番町五丁目9-10,,087-862-1110,,,,西岡　孝,,月火水木金土,09：00,19：00,木曜日、土曜日13：00まで。,,内科、リウマチ科、整形外科、リハビリ科,0,https://itp.ne.jp/info/374751616159370970/shop/,
287,0,0,372013,,香川県,高松市,ひがさクリニック,ヒガサクリニック,無床診療所,香川県高松市三谷町1697-14,,087-888-5151,,087-840-1307,,樋笠　靖,,月火水木金土,08：30,18：00,,,小児科、整形外科、リハビリ科,0,http://clinic-1.jp/web/higasa/pc/,
288,0,0,372013,,香川県,高松市,東高松クリニック,ヒガシタカマツクリニック,無床診療所,香川県高松市高松町2310-2,,087-841-0033,,087-841-0031,,医療法人社団東高松クリニック,,月火水木金土,09：00,18：00,土曜日13：00まで。,,内科、呼吸器科内科、循環器内科、リハビリ科、消化器内科、整形外科,0,"https://kimura.nishitakamatsu.jp/
https://hospital.dr-navip.jp/kagawa/facility/1592/",
290,0,0,372013,,香川県,高松市,ひまわりクリニック高松,ヒマワリクリニックタカマツ,無床診療所,香川県高松市田町14-3,小倉ビル１階,087-863-7622,,087-863-7663,,医療法人しんあい会,,月火水木土日,11：00,19：00,,,眼科,0,http://pmganka.com/himawari-takamatsu/,
291,0,0,372013,,香川県,高松市,ピュア形成外科医院,ピュアケイセイゲカイイン,無床診療所,香川県高松市天神前5-6,高松メディカルモール6F,087-832-5811,,087-832-5822,,医療法人社団白鳳会,,月火水金土,09：00,19：00,　,,形成外科、美容外科、皮膚科,0,http://www.i-clinic.org/,
292,0,0,372013,,香川県,高松市,平井眼科医院,ヒライガンカイイン,無床診療所,香川県高松市木太町2559-2,,087-861-2777,,087-861-2777,,医療法人社団平井眼科医院,,月火水木金土,09：00,17：30,水曜日、土曜日12：00まで。,,眼科,0,,
293,0,0,372013,,香川県,高松市,平野泌尿器科医院,ヒラノヒニョウキカイイン,無床診療所,香川県高松市上福岡町984-1,北村ビル3F,087-863-6551,,087-863-6552,,平野　学,,月火水木金土,08：30,17：30,土曜日12：30まで。,,泌尿器科,0,,
294,0,0,372013,,香川県,高松市,福田眼科医院,フクダガンカイイン,無床診療所,香川県高松市仏生山町甲344-3,,087-889-5633,,087-889-1777,,医療法人社団福田眼科医院,,月火水木金土,09：00,18：00,木曜日、土曜日12：30まで。,,眼科,0,https://fukuda-gankaiin.com/,
295,0,0,372013,,香川県,高松市,ふくだ眼科クリニック,フクダガンカクリニック,無床診療所,香川県高松市多賀町二丁目18-13,,087-802-2777,,,,福田　恒輝,,月火水木金土,09：00,18：00,水曜日午後手術、土曜日12：00まで。,,眼科,0,http://fukudaeyeclinic.com/,
296,0,0,372013,,香川県,高松市,福田外科医院,フクダゲカイイン,無床診療所,香川県高松市屋島西町2445-5,,087-843-6250,,,,福田　隆了,,月火水木金土,08：30,18：30,木曜日、土曜日12：30まで。,,胃腸科、外科、こう門科,0,,
297,0,0,372013,,香川県,高松市,ふくま内科クリニック,フクマナイカクリニック,無床診療所,香川県高松市牟礼町牟礼2560-11,,087-870-1311,,087-870-1661,,医療法人社団ふくま内科クリニック,,月火水木金土,08：30,17：30,水曜日、土曜日12：30まで。,,内科、消化器科、リハビリ科,0,,
298,0,0,372013,,香川県,高松市,藤井外科胃腸科・整形外科,フジイゲカイチョウカ・セイケイゲカ,有床診療所,香川県高松市田村町1277,,087-867-1222,,087-867-1220,,医療法人社団藤井外科胃腸科・整形外科,,月火水木金土,09：00,18：00,土曜日13：00まで。,,胃腸科、外科、整形外科、,19,https://itp.ne.jp/info/377212159070560400/,
299,0,0,372013,,香川県,高松市,藤井内科循環器科医院,フジイナイカジュンカンキカイイン,無床診療所,香川県高松市多肥下町57,,087-865-7711,,087-868-0210,,医療法人社団藤井内科循環器科医院,,月火水木金土,09：00,18：00,木曜日、土曜日13：00まで。,,内科、循環器内科,0,,
300,0,0,372013,,香川県,高松市,藤沢眼科,フジサワガンカ,無床診療所,香川県高松市檀紙町59-1,,087-885-1010,,,,医療法人社団藤沢眼科医院,,月火水木金土,09：00,18：00,木曜日、土曜日12：00まで。,,眼科,0,http://fujisawa-a-eyeclinic.com/,
301,0,0,372013,,香川県,高松市,藤沢こどもクリニック,フジサワコドモクリニック,無床診療所,香川県高松市中間町49-10,,087-885-3338,,087-885-2272,,医療法人社団藤沢こどもクリニック,,月火水木金土,08：30,18：00,水曜日、土曜日12：30まで。,,小児科,0,http://fujisawa.kids.coocan.jp/,
302,0,0,372013,,香川県,高松市,二川産婦人科レディースクリニック,フタガワサンフジンカレディースクリニック,有床診療所,香川県高松市三名町118-1,,087-888-1188,,087-888-2700,,医療法人社団太紀会,,月火水木金土,09：00,17：30,木曜日、土曜日12：00まで。,,産科、婦人科,18,https://itp.ne.jp/info/374221625400000899/,
303,0,0,372013,,香川県,高松市,仏生山駅前　こだまクリニック,ブッショウザンエキマエコダマクリニック,無床診療所,香川県高松市仏生山町甲816-5,,087-814-4262,,087-814-4263,,児玉　浩昭,,月火水木金土,09：00,17：30,水・木・土曜日12：30まで、第１第３休診。,,内科、リウマチ科、整形外科、形成外科、リハビリ科、放射線科,0,"https://itp.ne.jp/info/373132002103971550/
http://ameblo.jp/kodama-clinic/",
304,0,0,372013,,香川県,高松市,仏生山クリニック,ブッショウザンクリニック,無床診療所,香川県高松市出作町205-1,,087-889-0111,,087-889-0112,,医療法人仏生山クリニック,,月火水木金土,09：00,18：00,水曜日12：30、土曜日14：00まで。,,内科、呼吸器科、アレルギー科、小児科,0,"http://busshozancl.webcrow.jp/
https://itp.ne.jp/info/378020726149130820/",
305,0,0,372013,,香川県,高松市,仏生山みぞぶち内科医院,ブッショウザンミゾブチナイカイイン,無床診療所,香川県高松市仏生山町甲691-1,,087-888-1322,,087-888-6390,,医療法人社団仏生山みぞぶち内科医院,,月火水木金土,08：30,18：00,木曜日、土曜日12：00まで。,,内科、胃腸内科,0,,
306,0,0,372013,,香川県,高松市,古新町こころの診療所,フルジンマチココロノシンリョウショ,無床診療所,香川県高松市古新町10-3,砂屋ビル6階,087-802-2205,,,,医療法人社団つたの葉,,月火水木金土,08：30,17：00,水曜日19：00、木曜日と土曜日12：00まで。,,心療内科、精神科,0,http://www.kokoro-c.jp,
307,0,0,372013,,香川県,高松市,ぶんご内科医院,ブンゴナイカイイン,無床診療所,香川県高松市太田下町2463-6,,087-869-7117,,087-869-7118,,豊後　雅巳,,月火水木金土,09：00,18：00,水曜日、土曜日12：30まで。,,呼吸器科、消化器科,0,https://www.bungoiin.com/,
308,0,0,372013,,香川県,高松市,へいわこどもクリニック,ヘイワコドモクリニック,無床診療所,香川県高松市栗林町一丁目4-11,,087-835-2026,,087-835-2027,,香川医療生活協同組合,,月火水木金土,09：00,19：00,土曜日13：00まで。,,アレルギー科、小児科,0,https://heiwakodomo.com/,
309,0,0,372013,,香川県,高松市,ほそかわクリニック,ホソカワクリニック,無床診療所,香川県高松市番町一丁目2-19,,087-811-3252,,087-811-3258,,細川　二郎,,月火水金土,10：00,19：30,火曜日15：00から19：30まで。土曜日13：00まで。,,心療内科、精神科、神経科,0,http://www.h-clinic.com/,
310,0,0,372013,,香川県,高松市,堀耳鼻咽喉科医院,ホリジビインコウカイイン,無床診療所,香川県高松市錦町二丁目13-11,,087-821-8733,,087-821-8735,,堀　芳朗,,月火水木金土,09：00,17：30,土曜日13：00まで。,,耳鼻咽喉科,0,,
311,0,0,372013,,香川県,高松市,本多内科医院,ホンダナイカイイン,無床診療所,香川県高松市今新町8-5,,087-821-4916,,087-822-7275,,本多　完次,,月火水木金土,09：00,17：30,木曜日、土曜日13：00まで。,,内科,0,https://www.hondanaika.com/,
312,0,0,372013,,香川県,高松市,まさだ皮フ科,マサダヒフカ,無床診療所,香川県高松市郷東町東新開134-1,西高松メディカルビルイーア3階,087-832-8833,,087-881-1757,,医療法人社団つなぎまさだ皮フ科,,月火水木金土,09：00,18：00,水曜日12：30、土曜日13：00まで。,,皮膚科、美容皮膚科,0,http://www.masada-hifuka.com/,
313,0,0,372013,,香川県,高松市,ましま内科・循環器内科クリニック,マシマナイカ・ジュンカンキナイカクリニック,無床診療所,香川県高松市朝日町二丁目2-7,Ｌ-ビルディング2階,087-811-1810,,,,医療法人社団壽弘会,,月火水木金土,09：00,18：00,木曜日、土曜日12：00まで。,,内科、循環器内科,0,http://www.mashima-naikajun.com/,
314,0,0,372013,,香川県,高松市,マツオカ医院,マツオカイイン,無床診療所,香川県高松市一宮町143-5,,087-888-2222,,087-888-1995,,医療法人社団マツオカ医院,,月火水木金土,08：30,18：00,木曜日、土曜日12：30まで。,,内科、糖尿病内科、皮膚科,0,https://itp.ne.jp/info/510000000000062080/shop/,
315,0,0,372013,,香川県,高松市,松岡医院,マツオカイイン,無床診療所,香川県高松市香川町川東上2032-6,,087-879-2011,,087-879-7351,,松岡　義久,,月火水木金土,08：30,18：00,水曜日、土曜日13：00まで。,,内科、小児科,0,,
316,0,0,372013,,香川県,高松市,松木泌尿器科医院,マツキヒニョウキカイイン,無床診療所,香川県高松市前田西町1080-7,,087-847-1121,,087-847-1128,,医療法人社団看源会,,月火水木金土,09：00,18：00,土曜日13：00まで。,,泌尿器科、性病科,0,http://www.mat-iin.com/,
317,0,0,372013,,香川県,高松市,松下眼科医院,マツシタガンカイイン,無床診療所,香川県高松市瓦町二丁目7-1,冠野ビル4F,087-833-1388,,087-861-9932,,医療法人社団松下眼科,,月火水木金土,09：00,17：30,水曜日12：30まで。,,眼科,0,,
318,0,0,372013,,香川県,高松市,松田胃腸科外科医院,マツダイチョウカゲカイイン,無床診療所,香川県高松市高松町3004-2,,087-843-3377,,087-843-3378,,松田　滋明,,月火水木金土,09：00,12：30,,,胃腸科、外科,0,,
319,0,0,372013,,香川県,高松市,松田内科医院,マツダナイカイイン,無床診療所,香川県高松市藤塚町一丁目3-21,,087-831-4601,,087-833-7255,,医療法人社団松田内科医院,,月火水木金土,09：00,18：00,土曜日11：00まで。,,内科、胃腸内科、循環器内科、内視鏡内科、漢方内科,0,https://itp.ne.jp/info/379590905400000899/,
320,0,0,372013,,香川県,高松市,松原耳鼻咽喉科医院,マツバラジビインコウカイイン,無床診療所,香川県高松市川島東町518-1,,087-848-1100,,087-848-1100,,松原　一仁,,月火水木金土,09：00,18：00,水曜日12：00、土曜日16：00まで。,,耳鼻咽喉科,0,,
321,0,0,372013,,香川県,高松市,まつもと眼科,マツモトガンカ,無床診療所,香川県高松市郷東町東新開134-1,西高松メディカルビルイーア3階,087-832-8822,,087-881-5358,,医療法人社団あずみ会まつもと眼科,,月火水木金土,09：00,18：00,水曜日12：00、土曜日13：00まで。,,眼科,0,https://ophthalmology.nishitakamatsu.jp/,
322,0,0,372013,,香川県,高松市,松本整形外科医院,マツモトセイケイゲカイイン,無床診療所,香川県高松市塩上町二丁目8-1,,087-835-5272,,087-835-5272,,医療法人社団松本整形外科医院,,月火水木金土,09：00,18：00,木曜日、土曜日12：00まで。,,整形外科、リハビリ科,0,,
323,0,0,372013,,香川県,高松市,松山内科クリニック,マツヤマナイカクリニック,無床診療所,香川県高松市多肥下町1501-1,,087-867-7778,,087-867-7689,,医療法人社団松山内科クリニック,,月火水金土日,09：00,17：00,木曜日、土曜日12：00,,内科、循環器内科、糖尿病内科,0,http://www.matsuyama-clinic.com/,
324,0,0,372013,,香川県,高松市,真鍋医院,マナベイイン,無床診療所,香川県高松市番町二丁目4-15,,087-851-2678,,087-851-2676,,医療法人社団真鍋医院,,月火水金土,09：00,18：30,土曜日16：30まで。,,耳鼻咽喉科、気管食道内科,0,,
325,0,0,372013,,香川県,高松市,まなべ眼科クリニック,マナベガンカクリニック,無床診療所,香川県高松市番町三丁目20-2,,087-816-5580,,087-816-7307,,医療法人　信眼会,,月火水木金,09：00,18：00,　,,眼科,0,https://www.manabeganka.jp/,
326,0,0,372013,,香川県,高松市,マヤ内科医院,マヤナイカイイン,無床診療所,香川県高松市大工町1-12,,087-821-5230,,087-821-5210,,医療法人社団マヤ内科医院,,月火水木金土,09：00,18：00,火曜日、木曜日13：00まで。,,内科、消化器内科、循環器内科、,0,,
327,0,0,372013,,香川県,高松市,真弓内科呼吸器科医院,マユミナイカコキュウキカイイン,無床診療所,香川県高松市塩上町二丁目2-6,,087-835-2321,,087-835-2373,,医療法人社団哲樹会,,月火水木金土,09：00,18：00,木曜日13：00まで。,,内科、呼吸器科、循環器科、糖尿病内科、女性内科、アレルギー科、リウマチ科、皮膚科、美容皮膚科,0,http://www.satokikai.jp/a6427.html,
328,0,0,372013,,香川県,高松市,真弓皮膚泌尿器科医院,マユミヒフヒニョウキカイイン,無床診療所,香川県高松市福田町13-3,,087-821-3913,,087-821-3842,,医療法人社団研友会,,月火水木金土,09：00,18：00,土曜日13：00まで。,,皮膚科、泌尿器科,0,https://www.mayumi-clinic.jp/,
329,0,0,372013,,香川県,高松市,丸亀町アイクリニック,マルガメマチアイクリニック,無床診療所,香川県高松市丸亀町12-8,ラクダやビル2階,087-804-0022,,,,平岡　一志,,水木金土日祝,11：00,18：30,,,眼科,0,,
330,0,0,372013,,香川県,高松市,丸亀町眼科医院,マルガメマチガンカイイン,無床診療所,香川県高松市丸亀町5-9,阿波屋ビル2階,087-811-5175,,087-811-5176,,岩田　武,,月木金土日祝,10：30,18：30,日曜日、祝日18：00まで。,,眼科,0,,
331,0,0,372013,,香川県,高松市,丸亀町クリニック,マルガメマチクリニック,無床診療所,香川県高松市丸亀町1-1,丸亀町壱番街西館3階,087-802-6360,,,,医療法人社団　豊永会,,月火木金土,09：00,18：00,,,内科、循環器内科、リハビリテーション科、放射線科、整形外科、泌尿器科,0,http://www.marucl.jp/,
332,0,0,372013,,香川県,高松市,まる耳鼻咽喉科,マルジビインコウカ,無床診療所,香川県高松市多肥下町246-1,,087-868-5600,,,,医療法人まる耳鼻咽喉科,,月火水木金土,09：00,17：30,水曜日、土曜日12：00まで。,,耳鼻咽喉科,0,http://www.maru-clinic.jp/,
333,0,0,372013,,香川県,高松市,水尾医院,ミズオイイン,無床診療所,香川県高松市三谷町1161-1,,087-899-8620,,,,水尾　純,,月火水木金土,09：00,18：00,木曜日、土曜日12：30まで。,,内科、循環器内科,0,,
334,0,0,372013,,香川県,高松市,水谷内科クリニック,ミズタニナイカクリニック,無床診療所,香川県高松市木太町3602-1,,087-835-5037,,087-835-5036,,医療法人社団光樹会,,月火木金土,09：00,18：00,　,,内科、消化器内科、肝臓内科,0,"http://m-koujyukai.or.jp/
http://user.j-connect.net/koujyukai/mizutani",
335,0,0,372013,,香川県,高松市,溝口クリニック,ミゾグチクリニック,無床診療所,香川県高松市円座町1575-3,,087-886-0824,,087-886-0824,,医療法人社団溝口クリニック,,月火水木金土,08：00,18：00,木曜日、土曜日12：30まで。,,内科,0,,
336,0,0,372013,,香川県,高松市,みぞて眼科クリニック,ミゾテガンカクリニック,無床診療所,香川県高松市多肥上町1111-1,多肥メディカルビル・イーア3F,087-806-1103,,087-806-1105,,溝手　雅宣,,月火水木金土,09：00,18：00,水曜日、土曜日12：00まで。,,眼科,0,https://www.mizote-eye.com/,
337,0,0,372013,,香川県,高松市,みつ内科・ハートクリニック,ミツナイカ・ハートクリニック,無床診療所,香川県高松市多肥上町1111-1,多肥メディカルビル・イーア2F,087-888-3810,,,,藤村　光則,,月火水木金土,09：00,18：00,水曜日、土曜日12：30まで。,,内科、循環器内科,0,"http://www.ihr-medical.net/mitsu/
https://hospital.dr-navip.jp/kagawa/facility/1530/",
338,0,0,372013,,香川県,高松市,みねやまクリニック,ミネヤマクリニック,無床診療所,香川県高松市西春日町1111-1,,087-865-3387,,,,医療法人ブルームみねやまクリニック,,月火水木金,09：00,17：30,水曜日診察13：00まで、午後往診。,,内科、耳鼻咽喉科、皮膚科,0,,
339,0,0,372013,,香川県,高松市,みのクリニック,ミノクリニック,無床診療所,香川県高松市瓦町二丁目7-16,ソレイユ第3ビル4F,087-863-1155,,087-863-3306,,三野　進,,月火水金土,09：00,18：00,土曜日12：00まで。,,心療内科、精神科、神経内科,0,https://itp.ne.jp/info/378075735178820010/,
340,0,0,372013,,香川県,高松市,宮武耳鼻咽喉科クリニック,ミヤタケジビインコウカクリニック,無床診療所,香川県高松市香西南町512-1,,087-882-8881,,087-881-0250,,医療法人社団宮武耳鼻咽喉科クリニック,,月火水木金土,09：30,18：00,水曜日14：30から18：00、土曜日13：00から17：00まで。,,耳鼻咽喉科,0,,
341,0,0,372013,,香川県,高松市,みやべ耳鼻咽喉科クリニック,ミヤベジビインコウカクリニック,無床診療所,香川県高松市林町478-1,,087-889-1133,,,,医療法人社団M.J.C.晃成会,,月火水木金土,09：00,18：30,木曜日12：30まで。土曜日午後14：00から16：00まで。,,アレルギー科、耳鼻咽喉科,0,"http://www.boxroom1.com/miyabecl/
https://itp.ne.jp/info/370855320156461810/",
342,0,0,372013,,香川県,高松市,宮本耳鼻咽喉科医院,ミヤモトジビインコウカイイン,無床診療所,香川県高松市花ノ宮町一丁目12-36,,087-834-0666,,087-834-2226,,医療法人社団宮本耳鼻咽喉科医院,,月火水木金土,08：30,18：00,木曜日、土曜日13：00まで。,,耳鼻咽喉科,0,http://www.terra.dti.ne.jp/miyamoto-jibika/,
343,0,0,372013,,香川県,高松市,みやもとレディースクリニック,ミヤモトレディースクリニック,無床診療所,香川県高松市楠上町二丁目3-15,アルファメディカルモール2F,087-806-1177,,087-806-1178,,医療法人社団みやもとレディースクリニック,,月火水木金土,09：30,18：30,木曜日12：30、土曜日午後17：00まで。,,産科、婦人科,0,http://miyamoto-lc.p-kit.com/,
344,0,0,372013,,香川県,高松市,三好外科胃腸科医院,ミヨシゲカイチョウカイイン,有床診療所,香川県高松市亀田町226-1,,087-847-8888,,087-847-8889,,医療法人社団つくし会,,月火水金土,08：45,18：00,土曜日12：00まで。,,胃腸内科、循環器内科、外科、整形外科、こう門外科、リハビリ科,19,https://itp.ne.jp/info/378606415400000899/,
345,0,0,372013,,香川県,高松市,三好外科胃腸科医院,ミヨシゲカイチョウカイイン,有床診療所,香川県高松市香川町浅野1035-1,,087-879-8111,,087-879-8112,,医療法人社団康和会,,月火水木金土,09：00,18：00,水曜日、土曜日12：30まで。,,胃腸科、外科、整形外科、こう門科、,19（休床中）,,
346,0,0,372013,,香川県,高松市,三好内科医院,ミヨシナイカイイン,有床診療所,香川県高松市川島本町431-5,,087-848-2288,,087-848-4987,,医療法人社団三好内科医院,,月火水金土,08：30,18：00,土曜日午後診察14：00から16：00まで。,,内科、消化器科、循環器科、小児科、泌尿器科、リハビリ科,19,,
347,0,0,372013,,香川県,高松市,むらかわクリニック,ムラカワクリニック,無床診療所,香川県高松市朝日町二丁目2-7,Ｌ-ビルディング2階,087-823-2525,,,,村川　和義,,月火木金土,09：00,18：00,土曜日16：00まで。,,児童精神科、小児科、リハビリ科,0,https://murakawa-clinic.com/,
348,0,0,372013,,香川県,高松市,むらせ内科クリニック,ムラセナイカクリニック,無床診療所,香川県高松市浜ノ町60-65,,087-813-7333,,087-813-7330,,村瀨　知也,,月火水木金土,09：00,16：00,月曜日、水曜日、木曜日、土曜日12：00まで。,,内科、放射線科,0,http://murasenaika.la.coocan.jp/,
349,0,0,372013,,香川県,高松市,メディカルカウンセリングルームたなかクリニック,メディカルカウンセリングルームタナカクリニック,無床診療所,香川県高松市亀井町3-8,Aポイントビル4F,087-812-5556,,087-812-5607,,田中　和孝,,月火水金土,10：00,19：30,火曜日、土曜日14：00まで。,,心療内科、精神科、神経科,0,http://www.tanaka-clinic.jp/,
350,0,0,372013,,香川県,高松市,森岡皮膚科医院,モリオカヒフカイイン,無床診療所,香川県高松市天神前8-14,,087-834-1011,,087-834-1013,,医療法人社団森岡皮膚科医院,,月火水木金土,09：00,18：00,木曜日、土曜日13：00まで。,,皮膚科、泌尿器科,0,http://hifumorioka.byoinnavi.jp/pc/,
352,0,0,372013,,香川県,高松市,森産婦人科医院,モリサンフジンカイイン,有床診療所,香川県高松市瓦町二丁目3-5,,087-831-5513,,087-862-2212,,森　卓司,,月火水金土,09：00,18：00,土曜日17：00まで、第３土曜日は休診。,,産科・婦人科,19,http://morisanfujinka.jp/,
353,0,0,372013,,香川県,高松市,もりした眼科クリニック,モリシタガンカクリニック,無床診療所,香川県高松市松縄町1140-9,,087-865-6633,,,,森下　真実,,月火水木金土,09：00,18：00,水曜日、土曜日12：30まで。,,眼科,0,https://morishita-eye.com/,
354,0,0,372013,,香川県,高松市,森下クリニック,モリシタクリニック,無床診療所,香川県高松市三条町309-1,ロゼ三条1F,087-815-0030,,087-815-0757,,森　卓司,,火木土,08：30,15：00,,,内科、アレルギー科、リハビリ科、麻酔科,0,,
355,0,0,372013,,香川県,高松市,森下内科医院,モリシタナイカイイン,無床診療所,香川県高松市瓦町二丁目6-1,,087-831-5557,,087-831-5524,,森下　直也,,月火水木金土,09：00,18：00,水曜日、土曜日13：00まで。,,内科、循環器内科,0,http://www.niji.jp/home/morinao/index.html,
356,0,0,372013,,香川県,高松市,屋島みちクリニック,ヤシマミチクリニック,無床診療所,香川県高松市高松町2552-2,,087-844-3933,,087-844-4002,,医療法人社団英新会,,月火木金土,09：00,18：00,土曜日は午前中のみ。,,心療内科、精神科、神経内科,0,https://yashima-michi.com/,
357,0,0,372013,,香川県,高松市,屋島眼科クリニック,ヤシマガンカクリニック,無床診療所,香川県高松市高松町3002-13,,087-844-1341,,087-844-8828,,医療法人社団屋島眼科クリニック,,月火水木金土,09：00,18：00,水曜日、土曜日12：30まで。,,眼科,0,https://itp.ne.jp/info/378703950131130520/,
358,0,0,372013,,香川県,高松市,屋島整形外科医院,ヤシマセイケイゲカイイン,有床診療所,香川県高松市高松町3009-24,,087-843-2525,,087-844-4355,,医療法人社団らく楽会,,月火水木金土,09：00,18：00,土曜日12：30まで。,,リウマチ科、整形外科、リハビリ科,19,http://www.yashimaseikei.com/,
359,0,0,372013,,香川県,高松市,安原クリニック,ヤスハラクリニック,無床診療所,香川県高松市三条町321-2,,087-866-1111,,087-867-7871,,医療法人社団安原クリニック,,月火水木金土,08：30,17：30,木曜日、土曜日12：30まで。,,産科、婦人科、糖尿病内科、代謝内科、腎臓内科、美容外科,0,http://yasuhara-maternity.com/,
360,0,0,372013,,香川県,高松市,安元クリニック,ヤスモトクリニック,無床診療所,香川県高松市東山崎町90-6,,087-847-1300,,087-847-7721,,医療法人社団安元クリニック,,月火水木金土,09：00,18：00,水曜日、土曜日12：30まで。,,皮膚科、泌尿器科,0,http://www.yasumoto-c.com/,
361,0,0,372013,,香川県,高松市,ヤノ肛門外科クリニック,ヤノコウモンゲカクリニック,無床診療所,香川県高松市亀井町11-7,,087-861-1515,,087-861-1516,,矢野　賢二,,月火水木金土,09：00,18：00,土曜日13：00まで。,,肛門外科,0,http://www.yano-koumonka.com/,
362,0,0,372013,,香川県,高松市,矢野皮膚科クリニック,ヤノヒフカクリニック,無床診療所,香川県高松市飯田町17-5,,087-881-5885,,087-881-5886,,矢野　充範,,月火水木金土,09：00,18：30,木曜日、土曜日12：30まで。,,アレルギー科、美容外科、皮膚科、美容皮膚科、泌尿器科,0,http://www.yanohifuka.com/,
363,0,0,372013,,香川県,高松市,山内クリニック,ヤマウチクリニック,無床診療所,香川県高松市一宮町403-1,,087-886-7082,,087-885-7417,,医療法人社団清瞳会,,月火水木金土,09：00,12：30,　,,内科、呼吸器科、循環器科、胃腸科、小児科、放射線科,0,,
364,0,0,372013,,香川県,高松市,やまぐちクリニック,ヤマグチクリニック,無床診療所,香川県高松市天神前5-6,高松メディカルモール5Ｆ,087-832-5611,,087-832-5631,,医療法人社団耕仁会,,月火水金土,09：00,19：00,土曜日15：00まで。,,心療内科、精神科,0,https://itp.ne.jp/info/372264155114531680/,
365,0,0,372013,,香川県,高松市,山崎内科呼吸器科医院,ヤマサキナイカコキュウキカイイン,無床診療所,香川県高松市春日町799-1,,087-818-1560,,087-818-1555,,山崎　保寛,,月火水金土,08：30,18：00,土曜日15：00まで。,,内科、呼吸器科、アレルギー科,0,https://clinic-yamasaki.com/,
366,0,0,372013,,香川県,高松市,山下医院,ヤマシタイイン,無床診療所,香川県高松市国分寺町国分2155-3,,087-874-0077,,087-874-0049,,医療法人社団準星会,,月火水木金土,09：00,18：00,木曜日、土曜日午後休診。,,内科、胃腸科、小児科,0,,
367,0,0,372013,,香川県,高松市,山田医院,ヤマダイイン,無床診療所,香川県高松市国分寺町新居3388,,087-874-0040,,087-874-0002,,医療法人社団山田医院,,月火水木金土,09：00,18：00,木曜日、土曜日午後休診。,,内科、消化器内科,0,,
368,0,0,372013,,香川県,高松市,やまもと医院,ヤマモトイイン,有床診療所,香川県高松市塩上町一丁目4番10号,,087-837-0707,,,,医療法人社団隆朗会,,月火水金,09：00,18：00,,,内科、心療内科、精神科,1,,
369,0,0,372013,,香川県,高松市,湯浅クリニック,ユアサクリニック,無床診療所,香川県高松市上之町一丁目3-29,,087-868-9111,,087-868-9222,,医療法人社団湯浅クリニック,,月火水木金土,09：00,18：00,火曜日、木曜日12：30、土曜日16：00まで。,,内科、皮膚科、泌尿器科,0,http://www.yuasaclinic.jp/,
370,0,0,372013,,香川県,高松市,ゆいメンタルクリニック,ユイメンタルクリニック,無床診療所,香川県高松市伏石町2150-5,,087-897-7277,,087-897-7377,,鈴木　ゆい,,月火木金土,09：00,17：00,,,心療内科、精神科,0,http://www.yui-mental-cl.com/index.html,
371,0,0,372013,,香川県,高松市,湯川クリニック,ユカワクリニック,無床診療所,香川県高松市屋島西町2487-21,,087-813-8270,,,,湯川　貴男,,火水木金土,09：30,18：30,土曜日12：00まで。,,放射線科,0,http://yukawa.clinic.jp/,
372,0,0,372013,,香川県,高松市,ゆりのき診療室,ユリノキシンリョウシツ,無床診療所,香川県高松市国分寺町国分2090-1,,087-874-2217,,087-874-2217,,花岡　正憲,,月火水木金土,19：00,22：00,,,精神科,0,,
373,0,0,372013,,香川県,高松市,陽子レディースクリニック,ヨウコレディースクリニック,無床診療所,香川県高松市丸亀町1-1,丸亀町壱番街西館2階,087-811-6607,,,,安藤　陽子,,月火木金土,10：00,18：00,土曜日（女性内科）14：00まで。,,女性内科、産婦人科、婦人科,0,http://www.yokoladies.com/,
374,0,0,372013,,香川県,高松市,横井クリニック,ヨコイクリニック,無床診療所,香川県高松市丸の内4-9,丸の内ビル2F,087-821-2212,,087-821-2352,,横井　一郎,,月火水木金土,09：00,12：.30,第2第4土曜日休診。,,内科、胃腸科,0,,
375,0,0,372013,,香川県,高松市,横井内科医院,ヨコイナイカイイン,無床診療所,香川県高松市木太町1663-2,,087-862-2222,,087-833-6846,,横井　徹,,月火水木金土,09：00,17：30,木曜日、土曜日13：00まで。,,内科,0,http://wwwb.pikara.ne.jp/yokoimasa/,
376,0,0,372013,,香川県,高松市,よこい内科クリニック,ヨコイナイカクリニック,無床診療所,香川県高松市多肥下町359-1,,087-869-4511,,087-869-4566,,医療法人社団よこい内科クリニック,,月火水木金土,09：00,18：00,木曜日、土曜日12：30まで。,,内科、消化器内科、循環器内科、糖尿病・代謝内科、内分泌内科,0,http://yokoiclinic.main.jp/,
377,0,0,372013,,香川県,高松市,横田外科医院,ヨコタゲカイイン,無床診療所,香川県高松市生島町460-1,,087-882-7165,,087-870-5098,,医療法人社団横田外科医院,,月火水木金土,09：00,18：00,木曜日、土曜日12：00まで。,,外科、麻酔科,0,,
378,0,0,372013,,香川県,高松市,吉田眼科,ヨシダガンカ,無床診療所,香川県高松市国分寺町新居1356-1,,087-875-1010,,,,医療法人社団優生会,,月火水木金土,09：00,18：00,火曜日、木曜日12：30、土曜日14：30まで。,,眼科,0,https://itp.ne.jp/info/372832933123050790/,
379,0,0,372013,,香川県,高松市,吉田内科医院,ヨシダナイカイイン,無床診療所,香川県高松市林町1971-10,,087-867-0777,,087-869-9058,,吉田　恭典,,月火水木金土,09：00,18：00,木曜日、土曜日12：00まで。,,内科、胃腸科、循環器科,0,,
380,0,0,372013,,香川県,高松市,よしまつクリニック,ヨシマツクリニック,無床診療所,香川県高松市西の丸町2-17,,087-811-7333,,087-811-7337,,吉松　誠,,月火水木金土,09：00,18：30,火曜日、木曜日、土曜日13：00まで。,,心療内科、精神科、神経内科,0,https://www.yoshimatsu-clinic.jp/,
381,0,0,372013,,香川県,高松市,吉村整形外科醫院,ヨシムラセイケイゲカイイン,無床診療所,香川県高松市木太町5055-4,,087-866-6666,,087-866-6665,,医療法人社団吉村整形外科醫院,,月火水木金土,09：00,18：00,水曜日12：30まで。,,リウマチ科、整形外科、リハビリ科,0,https://www.yoshimura-seikei.com/,
382,0,0,372013,,香川県,高松市,よつばウィメンズクリニック,ヨツバウィメンズクリニック,有床診療所,香川県高松市円座町375-1,,087-885-4103,,,,医療法人よつばウイメンズクリニック,,月火水木金土,09：00,18：00,木曜日12：30、土曜日16：00まで。,,産婦人科,17,http://yotsuba-w.jp/,
383,0,0,372013,,香川県,高松市,予防協会健康管理センター,ヨボウキョウカイケンコウカンリセンター,無床診療所,香川県高松市伏石町2129-2,,087-868-5555,,087-868-6650,,公益財団法人香川県予防医学協会,,月火水木金土,09：00,18：00,,,内科、外科、婦人科,0,http://www.kagawa-yobouigaku.or.jp/,
384,0,0,372013,,香川県,高松市,リウマチ・腎臓内科はちまんクリニック,リウマチ・ジンゾウナイカハチマンクリニック,無床診療所,香川県高松市亀岡町11-10,,087-862-7878,,087-862-7600,,医療法人社団宅光会,,月火水木金土,09：00,18：00,木曜日、土曜日12：30まで。,,内科、人工透析内科、腎臓内科、リウマチ科,0,http://8man-clinic.com/,
385,0,0,372013,,香川県,高松市,りつりん皮フ科クリニック,リツリンヒフカクリニック,無床診療所,香川県高松市楠上町二丁目3-15,アルファメディカルモール2F,087-813-4112,,,,医療法人社団健悠会,,月火木金土,09：30,18：00,水曜日、土曜日12：30まで。,,皮膚科、美容皮膚科,0,https://ritsurin-d.com/,
386,0,0,372013,,香川県,高松市,リッツ美容外科,リッツビヨウゲカ,無床診療所,香川県高松市瓦町二丁目6-14,瓦町スクエアビルド6F,087-831-6022,,087-831-6224,,古屋　富治雄,,月火水木金土日,10：00,19：00,,,美容外科,0,http://www.ritz-takamatsu.com/,
387,0,0,372013,,香川県,高松市,竜雲メンタルクリニック,リュウウンメンタルクリニック,無床診療所,香川県高松市多肥下町466,,087-840-0735,,087-840-0737,,伊庭　永二,,月火木金土,09：00,17：00,,,心療内科、精神科,0,https://itp.ne.jp/info/378148115400000899/,
388,0,0,372013,,香川県,高松市,六条眼科,ロクジョウガンカ,無床診療所,香川県高松市六条町17-1,ハローズ六条店モール内,087-873-2735,,,,田中　剛,,月火木金土,09：00,18：00,,,眼科,0,https://www.rokujyo-eye-clinic.jp/,
389,0,0,372013,,香川県,高松市,六条ひふ科クリニック,ロクジョウヒフカクリニック,無床診療所,香川県高松市下田井町372-1,,087-802-3906,,,,印藤　昌彦,,火水木金土,09：00,18：00,木曜日12：30、土曜日17：00まで。,,皮膚科,0,http://rokujo-hifuka.com/,
390,0,0,372013,,香川県,高松市,わかばクリニック,ワカバクリニック,無床診療所,香川県高松市松並町1023-3,,087-813-7560,,087-813-7561,,藤田　博茂,,月火水木金,09：00,17：00,,,外科,0,http://wakaba-hado-clinic.com/,
391,0,0,372013,,香川県,高松市,わき外科・内科クリニック,ワキゲカ・ナイカクリニック,有床診療所,香川県高松市仏生山町甲460-8,,087-888-5123,,087-888-5122,,医療法人社団わき外科クリニック,,月火水木金土,09：00,18：00,水曜日、土曜日12：30まで。,,内科、胃腸科、外科、皮膚泌尿器科、こう門科、呼吸器内科,15,http://wakigeka.com/,
392,0,0,372013,,香川県,高松市,和田産婦人科医院,ワダサンフジンカイイン,無床診療所,香川県高松市木太町4020-1,,087-867-2340,,087-867-2341,,出口　理恵,,月火水木金土,09：00,18：00,,,産科、婦人科,0,https://itp.ne.jp/info/374740915400000899/,
393,0,0,372013,,香川県,高松市,和田内科循環器科医院,ワダナイカジュンカンキカイイン,無床診療所,香川県高松市鶴市町2039-2,,087-881-7575,,087-881-7571,,和田　茂,,月火水木金土,08：50,18：00,木曜日13：00、土曜日12：30まで。,,内科、循環器科,0,,
394,0,0,372013,,香川県,高松市,渡邉医院,ワタナベイイン,無床診療所,香川県高松市番町一丁目7番22号,,087-851-2067,,,,医療法人清進会,,月火水木金土,09：00,17：30,木曜日12：30まで。,,感染症内科、皮膚科、泌尿器科,0,http://www.watanabehifuka.net/,
395,0,0,372013,,香川県,高松市,わたなべ耳鼻咽喉科,ワタナベジビインコウカ,無床診療所,香川県高松市出作町字東原281番地1,,087-889-8733,,,,医療法人社団龍里会,,月火水木金土,08：30,19：00,木曜日12：00、土曜日17：00まで。,,アレルギー科、耳鼻咽喉科,0,https://nabejibi.jp/,
396,0,0,372013,,香川県,高松市,わたなべ内科消化器科医院,ワタナベナイカショウカキカイイン,無床診療所,香川県高松市今里町一丁目30-21,,087-833-6660,,087-833-6630,,医療法人社団わたなべ内科消化器科医院,,月火水木金土,09：00,18：00,木曜日、土曜日16：00まで。,,内科、消化器科,0,https://itp.ne.jp/info/378271015400000899/,
397,0,0,372013,,香川県,高松市,あおぞら歯科クリニック,アオゾラシカクリニック,歯科,香川県高松市木太町5095-1,,087-866-6480,,087-866-3353,,三好　智,,月火水木金土,09：00,18：00,木曜日13：00まで。,,歯科、小児歯科、歯科口腔外科,0,http://aozoradentalclinic.fc2web.com/,
398,0,0,372013,,香川県,高松市,赤松歯科医院,アカマツシカイイン,歯科,香川県高松市錦町二丁目17-8,,087-826-6030,,087-826-6036,,赤松　秀規,,月火水金土,09：00,18：00,,,歯科、矯正歯科,0,http://www.akamatsushika.com/,
399,0,0,372013,,香川県,高松市,アキ歯科医院,アキシカイイン,歯科,香川県高松市松縄町44-7,,087-866-5522,,087-866-5538,,安藝　豊司,,月火水木金土,09：00,18：00,水曜日13：00まで。,,歯科,0,,
400,0,0,372013,,香川県,高松市,あさはら歯科,アサハラシカ,歯科,香川県高松市三名町58-4,,087-889-8211,,087-889-8220,,朝原　秀樹,,月火木金土,09：00,18：30,,,歯科、小児歯科,0,https://localplace.jp/t100336737/,
401,0,0,372013,,香川県,高松市,ア歯科診療所,アシカシンダンショ,歯科,香川県高松市天神前6-6,,087-835-5000,,087-835-5755,,医療法人社団ア歯会,,月火水金土,08：00,20：00,土曜日9：00から18：00まで。第２水曜日は休み,,歯科、矯正歯科、小児歯科、歯科口腔外科,0,http://www.ashika.or.jp/,
402,0,0,372013,,香川県,高松市,穴吹歯科医院,アナブキシカイイン,歯科,香川県高松市太田下町2220-6,,087-865-8200,,087-865-8200,,穴吹　昇三,,月火水木金土,09：00,18：00,土曜日12：00まで。,,歯科、小児歯科,0,http://www.anabukidental.com/,
403,0,0,372013,,香川県,高松市,阿部歯科医院,アベシカイイン,歯科,香川県高松市木太町2836-1,,087-834-5314,,087-834-5314,,阿部　康一,,月火水木金土,09：00,18：00,土曜日13：00まで。,,歯科,0,,
404,0,0,372013,,香川県,高松市,アヤ歯科医院,アヤシカイイン,歯科,香川県高松市鬼無町是竹93-5,,087-881-1211,,087-881-1911,,綾　英紀,,月火水木金土,09：00,18：00,金曜日13：00まで。,,歯科,0,http://www.418takamatu.com/hospital/aya/,
405,0,0,372013,,香川県,高松市,あんどう歯科,アンドウシカ,歯科,香川県高松市東山崎町89-6,,087-840-7899,,087-840-7898,,医療法人社団彩正会あんどう歯科,,月火水木金土,09：00,18：30,木曜日13：00、土曜日17：00まで。,,歯科、矯正歯科、小児歯科、歯科口腔外科,0,http://www2.netwave.or.jp/~m-ando-d/framepage1.htm,
406,0,0,372013,,香川県,高松市,飯田歯科クリニック,イイダシカクリニック,歯科,香川県高松市香川町川東下1301-4,,087-814-3300,,,,飯田　大介,,月火水金土,09：30,18：00,,,歯科,0,https://www.iida-dental.cc/,
407,0,0,372013,,香川県,高松市,池上歯科医院,イケガミシカイイン,歯科,香川県高松市西山崎町182-7,,087-886-6600,,087-886-6644,,池上　正,,月火水木金土,09：00,18：30,水曜日13：00まで。,,歯科,0,,
408,0,0,372013,,香川県,高松市,池尻歯科医院,イケジリシカイイン,歯科,香川県高松市檀紙町2288-3,,087-885-0085,,087-886-7590,,池尻　国夫,,月火水木金土,09：00,18：00,木曜日12：30まで。,,歯科,0,,
409,0,0,372013,,香川県,高松市,池田歯科医院,イケダシカイイン,歯科,香川県高松市兵庫町3-14,,087-821-4664,,087-821-4671,,橋本　信之介,,月火水木金土,09：00,18：00,土曜日17：00まで。,,歯科、小児歯科、歯科口腔外科,0,http://www.ikedashikaiin.com/,
410,0,0,372013,,香川県,高松市,いしい歯科クリニック,イシイシカクリニック,歯科,香川県高松市宮脇町一丁目3-17,,087-863-0088,,087-863-0088,,石井　浩之,,月火水木金土,09：30,19：00,木曜日14：00から18：00。土曜日13：00まで,,歯科、小児歯科、歯科口腔外科,0,http://www.ishiishika-clinic.com/,
411,0,0,372013,,香川県,高松市,石丸歯科医院,イシマルシカイイン,歯科,香川県高松市伏石町2018-12,,087-815-2747,,087-815-2858,,石丸　毅,,月火水金土,09：00,18：00,土曜日17：00まで。,,歯科、矯正歯科、小児歯科、歯科口腔外科,0,https://itp.ne.jp/info/374604421153721990/,
412,0,0,372013,,香川県,高松市,いそざき歯科,イソザキシカ,歯科,香川県高松市桜町二丁目4-11,,087-832-0777,,087-832-0778,,医療法人社団愛歯会,,月火水木金土,09：00,18：00,火曜日13：00、土曜日16：30まで。,,歯科、矯正歯科、小児歯科、歯科口腔外科,0,http://www.i-shika.com/,
413,0,0,372013,,香川県,高松市,磯島歯科医院,イソジマシカイイン,歯科,香川県高松市松島町二丁目9-103,,087-834-8686,,087-834-8686,,磯島　弘一,,月火水金土,09：00,18：00,,,歯科、小児歯科,0,,
415,0,0,372013,,香川県,高松市,いちはら歯科クリニック,イチハラシカクリニック,歯科,香川県高松市楠上町二丁目3番15号,アルファメディカルモール2F,087-813-0118,,,,医療法人社団雅月会,,月火水木金土,09：00,18：00,木曜日13：00まで。,,歯科、矯正歯科、小児歯科、歯科口腔外科,0,http://いちはら歯科クリニック.jp/,
416,0,0,372013,,香川県,高松市,イチハラデンタルクリニック,イチハラデンタルクリニック,歯科,香川県高松市円座町1124-56,,087-885-1840,,087-887-4618,,医療法人社団イチハラデンタルクリニック,,月火水木金土,09：00,18：00,木曜日12：30、土曜日17：00まで。,,歯科、矯正歯科、小児歯科、歯科口腔外科,0,http://www.ichihara-dc.com/index2.html,
417,0,0,372013,,香川県,高松市,井手口歯科医院,イデグチシカイイン,歯科,香川県高松市中野町1-32,,087-835-6688,,087-835-6742,,井手口　英章,,月火水木金土,09：00,18：00,水曜日12：30まで。,,歯科、小児歯科、歯科口腔外科,0,http://www.418takamatu.com/hospital/ideguchi/,
418,0,0,372013,,香川県,高松市,伊東歯科矯正歯科医院,イトウシカキョウセイシカイイン,歯科,香川県高松市浜ノ町9-9,,087-826-2118,,,,伊東　正志,,月火木金土,09：30,18：00,,,歯科、矯正歯科、小児歯科,0,http://www.ito-dc.org/,
419,0,0,372013,,香川県,高松市,いのうえファミリー歯科,イノウエファミリーシカ,歯科,香川県高松市元山町577-1,,087-867-2554,,,,医療法人社団いのうえファミリー歯科,,月火水木金土,09：00,18：00,第1第3木曜日休診。,,歯科、矯正歯科、小児歯科、歯科口腔外科,0,http://inouefamilydc.com/,
421,0,0,372013,,香川県,高松市,いのした歯科医院,イノシタシカイイン,歯科,香川県高松市香川町川東上1781-5,,087-879-4712,,087-879-4736,,井下　博文,,月火水木金土,08：30,18：30,土曜日12：30まで。,,歯科、矯正歯科、小児歯科、歯科口腔外科,0,http://www.inoshita-dc.com/,
422,0,0,372013,,香川県,高松市,いまじょう矯正歯科クリニック,イマジョウキョウセイシカクリニック,歯科,香川県高松市松縄町1117-5 ,シブヤビル松縄1F,087-815-2848,,087-815-2847,,今城　広治,,月火水金土,10：00,18：00,,,歯科、矯正歯科,0,http://imajo-ortho.com/,
423,0,0,372013,,香川県,高松市,今滝歯科医院,イマタキシカイイン,歯科,香川県高松市太田上町783-2,,087-866-9081,,087-865-2268,,今瀧　勝己,,月火水木金土,09：00,18：00,木曜日12：30まで。,,歯科、矯正歯科、小児歯科,0,http://www.imatakishika.com/,
424,0,0,372013,,香川県,高松市,今瀧歯科クリニック,イマタキシカクリニック,歯科,香川県高松市片原町4-3,,087-821-5154,,087-821-5154,,今瀧　昇,,月火水木金土,09：00,18：30,水曜日13：00まで。,,歯科、小児歯科、歯科口腔外科,0,,
425,0,0,372013,,香川県,高松市,岩田歯科医院,イワタシカイイン,歯科,香川県高松市浜ノ町56-8,,087-897-5646,,087-897-5646,,岩田　哲郎,,月火水木金土,09：00,18：00,木曜日13：00まで。,,歯科、小児歯科、歯科口腔外科,0,https://iwata-dc2009.com/,
426,0,0,372013,,香川県,高松市,上里歯科医院,ウエサトシカイイン,歯科,香川県高松市伏石町2096-4,,087-867-6480,,087-867-6485,,山岸　奈名,,月火水金土,09：00,18：00,土曜日17：00まで。,,歯科、小児歯科、歯科口腔外科,0,,
427,0,0,372013,,香川県,高松市,植田歯科医院,ウエダシカイイン,歯科,香川県高松市上福岡町704-2,池添ビル2Ｆ,087-834-3718,,087-834-3718,,医療法人社団植田歯科医院,,月火水木金土,09：00,18：30,木曜日13：00まで。,,歯科、矯正歯科、小児歯科、歯科口腔外科,0,http://www.ueta-dc.com/,
428,0,0,372013,,香川県,高松市,植松歯科クリニック,ウエマツシカクリニック,歯科,香川県高松市上之町二丁目1-37,,087-802-8241,,,,植松　勇介,,月火水金土,09：00,18：00,土曜日17：30まで。,,歯科、小児歯科、歯科口腔外科,0,https://uematsu-d.jp/,
429,0,0,372013,,香川県,高松市,ウガワ歯科クリニック,ウガワシカクリニック,歯科,香川県高松市国分寺町新居283-1,,087-802-8684,,,,鵜川　祐樹,,月火水木金土,09：00,18：00,水曜日、土曜日13：00まで。,,歯科、矯正歯科、小児歯科、歯科口腔外科,0,https://www.e8148.net/dental/a000000017,
430,0,0,372013,,香川県,高松市,浮田歯科医院,ウキダシカイイン,歯科,香川県高松市香西本町150-10,,087-832-8801,,087-832-8821,,中山　真弓,,月火水木金土,09：00,18：00,土曜日13：00まで。,,歯科、矯正歯科、小児歯科、歯科口腔外科,0,http://www.ukita-dental.jp/,
431,0,0,372013,,香川県,高松市,梅村歯科医院,ウメムラシカイイン,歯科,香川県高松市川島東町958-3,,087-848-1136,,087-848-1136,,梅村　謙二,,月火水木金土,09：00,18：00,木曜日13：00まで。,,歯科、矯正歯科,0,http://www.418takamatu.com/hospital/umemura/,
432,0,0,372013,,香川県,高松市,えがお歯科,エガオシカ,歯科,香川県高松市林町2572-12,,087-840-0777,,087-840-0707,,医療法人社団えがお歯科,,月火水木金土,09：00,18：00,,,歯科、矯正歯科、小児歯科、歯科口腔外科,0,https://egao-shika.com/,
433,0,0,372013,,香川県,高松市,エビヌマ歯科医院,エビヌマシカイイン,歯科,香川県高松市寺井町1248-6,,087-886-3465,,087-886-3465,,海老沼　孝至,,月火木金土,09：00,18：00,,,歯科,0,,
434,0,0,372013,,香川県,高松市,大石歯科クリニック,オオイシシカクリニック,歯科,香川県高松市観光通二丁目9-12,,087-813-3956,,,,大石　慶二,,月火水木金土,09：00,18：00,水曜日13：00まで。,,歯科、歯科口腔外科,0,,
435,0,0,372013,,香川県,高松市,おおくま歯科医院,オオクマシカイイン,歯科,香川県高松市花園町三丁目2-12,,087-837-9000,,087-837-9000,,大熊　秀和,,月火水木金土,09：00,18：00,水曜日12：30まで。,,歯科、小児歯科,0,http://ookumashika.com/,
436,0,0,372013,,香川県,高松市,大黒歯科医院,オオグロシカイイン,歯科,香川県高松市高松町2412-15,,087-841-3500,,087-841-3500,,大黒　義明,,月火水木金土,09：00,18：00,木曜日、土曜日12：30まで。,,歯科,0,,
437,0,0,372013,,香川県,高松市,高松大塚歯科医院,オオツカシカイイン,歯科,香川県高松市林町2538-10,,087-815-2424,,,,医療法人優心会,,月火水金土日,08：30,19：00,,,歯科,0,http://www.yusinkai.or.jp/clinic_03.html,
438,0,0,372013,,香川県,高松市,大西歯科医院,オオニシシカイイン,歯科,香川県高松市国分寺町福家乙214-10,,087-874-1194,,087-874-5432,,医療法人社団ひまわり会,,月火水木金土,09：00,18：00,木曜日12：00まで。,,歯科、小児歯科、歯科口腔外科,0,https://www.ohnishi-dental-777.jp/,
439,0,0,372013,,香川県,高松市,岡田歯科醫院,オカダシカイイン,歯科,香川県高松市成合町725-1,,087-885-9700,,087-885-9300,,医療法人社団岡田歯科醫院,,月火水木金土,09：00,18：00,水曜日13：00まで。,,歯科、矯正歯科、小児歯科、歯科口腔外科,0,https://itp.ne.jp/info/374941525400000899/,
440,0,0,372013,,香川県,高松市,小河歯科医院,オゴシカカイイン,歯科,香川県高松市高松町91,,087-841-7170,,087-841-7170,,小河　隆太,,月火水木金土,09：00,18：00,木曜日13：00まで。第2第4木曜日休診。,,歯科、小児歯科,0,"http://wwwb.pikara.ne.jp/ogoshikaiin/
https://itp.ne.jp/info/379254215400000899/",
441,0,0,372013,,香川県,高松市,おぐら歯科医院,オグラシカイイン,歯科,香川県高松市太田上町212-5,,087-888-0222,,087-888-0222,,小倉　寛治,,月火水金土,09：00,18：00,,,歯科、小児歯科,0,,
442,0,0,372013,,香川県,高松市,小倉歯科医院,オグラシカイイン,歯科,香川県高松市中新町2-1,,087-831-5059,,087-831-5059,,小倉　喜博,,月火水木金土,09：00,18：00,,,歯科,0,,
443,0,0,372013,,香川県,高松市,小野歯科医院,オノシカイイン,歯科,香川県高松市一宮町328-1,,087-886-8100,,087-886-8200,,医療法人社団小野歯科医院,,月火水木金土,09：00,18：30,　,,歯科、小児歯科,0,,
444,0,0,372013,,香川県,高松市,オリーブ歯科医院,オリーブシカイイン,歯科,香川県高松市田町13-13,,087-832-0808,,087-832-0888,,天野　伊知郎,,月火水木金土,09：00,20：00,土曜日18：00まで。第2第4水曜日休診。,,歯科、小児歯科,0,https://itp.ne.jp/info/374642053126331040/,
445,0,0,372013,,香川県,高松市,香川大学前はこざき歯科医院,カガワダイガクマエハコザキシ,歯科,香川県高松市番町三丁目20-15,,087-813-0418,,087-813-0830,,医療法人社団Ｆ＆Ｃ,,月火木金土,09：00,18：00,　,,歯科、矯正歯科、小児歯科、歯科口腔外科,0,http://takamatsu418.com/,
446,0,0,372013,,香川県,高松市,かさいデンタルクリニック,カサイデンタルクリニック,歯科,香川県高松市香川町大野149-1,,087-813-8217,,,,笠井　真一,,月火水金土,09：00,18：00,土曜日17：00まで。,,歯科、矯正歯科、小児歯科、歯科口腔外科,0,http://kdc2010.jp/,
447,0,0,372013,,香川県,高松市,樫デンタルクリニック,カシデンタルクリニック,歯科,香川県高松市木太町1245-1,,087-813-8461,,087-866-0418,,樫　圭一,,月火水木金土,09：00,18：00,土曜日12：30まで。,,歯科、小児歯科,0,http://www.kashi-dc.com/,
448,0,0,372013,,香川県,高松市,春日歯科クリニック,カスガシカクリニック,歯科,香川県高松市春日町1643-9,,087-843-4181,,087-843-4181,,豊島　泰介,,月火水木金土,09：00,18：00,土曜日13：00まで。,,歯科、矯正歯科、小児歯科,0,http://www.418takamatu.com/hospital/kasuga/,
449,0,0,372013,,香川県,高松市,金倉歯科医院,カネクラシカイイン,歯科,香川県高松市磨屋町1-1,,087-826-2223,,087-823-0115,,金倉　圭一,,月火水木金土,09：00,18：00,木曜日12：30まで。,,歯科、小児歯科,0,,
450,0,0,372013,,香川県,高松市,神原歯科医院,カンバラシカイイン,歯科,香川県高松市宮脇町一丁目32-25,,087-834-4102,,087-834-4102,,神原　圭,,月火水木金土,09：00,18：00,土曜日12：00まで。,,歯科、小児歯科、歯科口腔外科,0,,
451,0,0,372013,,香川県,高松市,かみやま歯科医院,カミヤマシカイイン,歯科,香川県高松市木太町1145-1,新和開発ビル１F,087-835-6480,,087-835-6483,,神山　拓也,,月火水金土,09：00,18：00,,,歯科、小児歯科、歯科口腔外科,0,http://www.kamiyama-dent.com/,
452,0,0,372013,,香川県,高松市,亀井歯科医院,カメイシカイイン,歯科,香川県高松市天神前4-33,,087-831-6891,,087-831-6878,,亀井　稔之,,月火木金土,09：00,17：30,,,歯科、小児歯科,0,http://kamei-dent.jp/,
453,0,0,372013,,香川県,高松市,亀田歯科医院,カメダシカイイン,歯科,香川県高松市錦町二丁目7-8,,087-821-7619,,087-821-7621,,亀田　好司,,月火水金土,09：00,19：00,土曜日16：00まで。,,歯科、矯正歯科、小児歯科、歯科口腔外科,0,https://www.kamedashika.com/,
455,0,0,372013,,香川県,高松市,川上矯正歯科医院,カワカミキョウセイシカイイン,歯科,香川県高松市番町一丁目3-30,,087-822-4888,,087-826-0529,,医療法人昭和会,,月火水金土,10：00,18：00,,,歯科、矯正歯科,0,https://www.e-kawakami.jp/,
456,0,0,372013,,香川県,高松市,河北歯科医院,カワキタシカイイン,歯科,香川県高松市円座町522,,087-885-2436,,087-885-2436,,池内　孝芳,,月火水木金,09：00,18：00,木曜日12：00まで。,,歯科,0,,
457,0,0,372013,,香川県,高松市,川﨑歯科医院,カワサキシカイイン,歯科,香川県高松市国分寺町国分294-7,,087-874-2363,,087-874-2363,,川﨑　恵美子,,月火水木金,09：00,18：00,木曜日12：00まで。,,歯科,0,,
458,0,0,372013,,香川県,高松市,川西歯科医院,カワニシシカイイン,歯科,香川県高松市扇町一丁目22-12,,087-821-1080,,087-821-1080,,川西　英三,,月火水木金土,08：45,18：00,木曜日、土曜日12：45まで。,,歯科、矯正歯科、小児歯科,0,http://www.kawanishi-dental.com/,
459,0,0,372013,,香川県,高松市,かわにし歯科クリニック,カワニシシカクリニック,歯科,香川県高松市新田町甲3-8,,087-870-0444,,087-870-0445,,医療法人社団かわにし歯科クリニック,,月火水木金土,09：00,18：00,水曜日、土曜日12：30まで。,,歯科、小児歯科,0,http://www.418takamatu.com/hospital/kawanishi/,
460,0,0,372013,,香川県,高松市,瓦町矯正歯科,カワラマチキョウセイシカ,歯科,香川県高松市瓦町二丁目6-21,ラ・ブームビル2F,087-834-4187,,087-834-4187,,高橋　巧,,火水金土日,10：00,18：00,,,歯科、矯正歯科,0,https://www.kawaramachi-ortho.com/,
461,0,0,372013,,香川県,高松市,きくしま歯科医院,キクシマシカイイン,歯科,香川県高松市出作町383-1,,087-889-1182,,087-889-1182,,菊島　将臣,,月火水木金土,09：00,18：00,水曜日12：30まで。,,歯科、小児歯科,0,http://kikushimadental.net/,
462,0,0,372013,,香川県,高松市,北岡歯科診療所,キタオカシカシンリョウジョ,歯科,香川県高松市亀岡町14-18,,087-862-5549,,087-862-5549,,亀井　智子,,月火水木金土,09：00,17：30,水曜日13：00、土曜日12：00まで。,,歯科,0,,
463,0,0,372013,,香川県,高松市,木田歯科医院,キダシカイイン,歯科,香川県高松市川部町460-6,,087-885-1500,,087-885-6635,,木田　一秀,,月火水木金土,09：00,18：30,木曜日13：00、土曜日18：00まで。,,歯科、小児歯科,0,,
464,0,0,372013,,香川県,高松市,木太デンタルクリニック,キタデンタルクリニック,歯科,香川県高松市木太町1837-5,,087-862-1461,,087-862-1461,,山下　智弘,,月火水木金土,09：00,18：00,水曜日12：00、土曜日15：00まで。,,歯科、小児歯科,0,,
465,0,0,372013,,香川県,高松市,木太東歯科,キタヒガシシカ,歯科,香川県高松市木太町3868,,070-5514-3869,,,,梶本　淳也,,火水木金土,11：00,20：30,土曜日10：00～18：00まで。,,歯科,0,http://khmed.grupo.jp/,
466,0,0,372013,,香川県,高松市,木村歯科医院,キムラシカイイン,歯科,香川県高松市木太町9区466-6,,087-865-7788,,087-866-8811,,木村　元厚,,月火水木金土,09：00,18：00,木曜日12：30まで。,,歯科、矯正歯科、小児歯科,0,,
467,0,0,372013,,香川県,高松市,くにしげ歯科医院,クニシゲシカイイン,歯科,香川県高松市中間町川向22-1,,087-885-8801,,087-885-8850,,国重　俊郎,,月火水木金土,09：00,18：00,木曜日12：30まで。,,歯科、小児歯科、歯科口腔外科,0,http://www.418takamatu.com/hospital/kunishige/,
468,0,0,372013,,香川県,高松市,久保歯科医院,クボシカイイン,歯科,香川県高松市屋島西町1454-1,,087-843-3001,,087-843-3096,,医療法人社団久保歯科医院,,月火水金土,09：00,18：30,,,歯科、矯正歯科、小児歯科,0,https://itp.ne.jp/info/376722040154921380/,
469,0,0,372013,,香川県,高松市,久保歯科クリニック,クボシカクリニック,歯科,香川県高松市元山町1163-12,,087-865-6600,,087-865-6600,,医療法人社団里春会,,月火木金土,09：00,18：00,土曜日17：00まで。,,歯科、矯正歯科、小児歯科,0,,
470,0,0,372013,,香川県,高松市,こう歯科医院,コウシカイイン,歯科,香川県高松市今里町一丁目8-19,,087-832-2525,,087-832-2525,,医療法人社団こう歯科医院,,月火水木金土,09：00,18：00,,,歯科、小児歯科、歯科口腔外科,0,,
471,0,0,372013,,香川県,高松市,こうじ歯科クリニック,コウジシカクリニック,歯科,香川県高松市亀田町438-12,,087-847-4874,,087-847-4874,,木村　幸司,,月火水木金土,09：00,18：00,水曜日13：00、土曜日17：00まで。,,歯科、小児歯科,0,http://www.kojidental.com/,
472,0,0,372013,,香川県,高松市,湖崎歯科クリニック,コサキシカクリニック,歯科,香川県高松市築地町5-1,,087-821-6949,,087-823-2817,,医療法人社団湖﨑歯科クリニック,,月火水金土,09：00,17：30,,,歯科、矯正歯科、歯科口腔外科,0,https://itp.ne.jp/info/371063705400000899/,
473,0,0,372013,,香川県,高松市,小谷歯科医院,コタニシカイイン,歯科,香川県高松市瓦町二丁目7-14,,087-834-2393,,,,小谷　一成,,月火水木金土,09：00,18：00,木曜日12：30、土曜日16：00まで。,,歯科、小児歯科,0,,
474,0,0,372013,,香川県,高松市,小西歯科医院,コニシシカイイン,歯科,香川県高松市牟礼町牟礼3-1,,087-845-3535,,087-845-5250,,医療法人社団小西歯科医院,,月火水木金土,09：00,18：30,木曜日午後休診。,,歯科、矯正歯科、小児歯科、歯科口腔外科,0,http://www.konishishika.net/,
475,0,0,372013,,香川県,高松市,こばやし歯科・小児歯科クリニック,コバヤシシカ・ショウニシカクリニック,歯科,香川県高松市太田下町3035-7,,087-867-8228,,087-867-8228,,医療法人スマイルデザイン,,月火水金土,09：00,18：00,,,歯科、矯正歯科、小児歯科、歯科口腔外科,0,http://www.pikapika-teeth.com/,
476,0,0,372013,,香川県,高松市,こまつ歯科クリニック,コマツシカクリニック,歯科,香川県高松市国分寺町新名字南川向694-1,,087-899-6722,,,,小松　弘明,,月火水木金土,09：00,18：00,木曜日13：00まで。,,歯科、矯正歯科、小児歯科、歯科口腔外科,0,https://dental-clinic.dr-navip.jp/kagawa/facility/1586/,
477,0,0,372013,,香川県,高松市,小山歯科医院,コヤマシカイイン,歯科,香川県高松市鬼無町藤井59-5,,087-882-1711,,087-882-1711,,小山　力,,月火水木金土,09：00,19：00,土曜日午後休診。,,歯科,0,http://koyamadc.com/,
478,0,0,372013,,香川県,高松市,さいとう歯科クリニック,サイトウシカクリニック,歯科,香川県高松市天神前5-6,高松メディカルモール5Ｆ,087-835-1117,,087-835-1117,,齋藤　隆司,,月火水金土,09：00,19：00,土曜日17：30まで。,,歯科、矯正歯科、小児歯科、歯科口腔外科,0,http://www.saito-d.com/,
479,0,0,372013,,香川県,高松市,三枝デンタルオフィス,サエグサデンタルオフィス,歯科,香川県高松市亀井町8-4,高松インプラントセンタービル2F,087-833-5008,,087-833-5068,,三枝　尚登,,月火水金土,10：00,18：00,,,歯科,0,http://www.saegusa-dent.com/,
480,0,0,372013,,香川県,高松市,さくら歯科医院,サクラシカイイン,歯科,香川県高松市香川町大野860-3,,087-885-4618,,,,医療法人社団健進会,,月火水木金土,09：00,18：00,土曜日13：00まで。,,歯科、矯正歯科、小児歯科、歯科口腔外科,0,,
481,0,0,372013,,香川県,高松市,佐々木歯科医院,ササキシカイイン,歯科,香川県高松市川島本町189-1,,087-848-0142,,087-848-0142,,佐々木　正美,,月火水木金土,09：00,18：00,木曜日午後休診。土曜日16：30まで。,,歯科,0,,
482,0,0,372013,,香川県,高松市,サナダ歯科医院,サナダシカイイン,歯科,香川県高松市勅使町536-2,,087-840-0648,,087-840-0645,,真田　晋作,,月火水木金土,09：00,18：30,第2第4土曜日休診。,,歯科、小児歯科,0,,
483,0,0,372013,,香川県,高松市,サンクリーン歯科,サンクリーンシカ,歯科,香川県高松市香西本町1-1,イオン高松SC3F,087-882-8241,,087-882-8241,,医療法人社団弘誠会,,火水木金土日祝,10：00,19：30,日曜日、祝日18：30まで。,,歯科、矯正歯科、小児歯科、歯科口腔外科,0,http://www.sunclean-shika.com/,
484,0,0,372013,,香川県,高松市,サンシャイン歯科,サンシャインシカ,歯科,香川県高松市多肥下町1562-15,,087-815-0118,,087-815-0117,,医療法人社団弘誠会,,月火水金土,09：30,18：30,,,歯科、矯正歯科、小児歯科、歯科口腔外科,0,http://sunshine-shika.com/,
485,0,0,372013,,香川県,高松市,サンポート歯科,サンポートシカ,歯科,香川県高松市浜ノ町63-2,,087-851-5545,,087-851-5545,,医療法人社団ジュンアートアンドサイエンス,,月火木金土,09：30,19：00,土曜日17：00まで。,,歯科、矯正歯科、小児歯科、歯科口腔外科,0,http://www.jun-dc.com/,
486,0,0,372013,,香川県,高松市,塩井歯科医院,シオイシカイイン,歯科,香川県高松市香西南町472,2F,087-881-6626,,087-881-6626,,塩井　正志,,月火水金土,09：00,18：00,,,歯科、小児歯科,0,,
487,0,0,372013,,香川県,高松市,渋谷歯科医院,シブヤシカイイン,歯科,香川県高松市牟礼町牟礼1033-1,,087-845-9506,,087-845-9509,,渋谷　敦人,,月火水金土,09：00,18：30,,,歯科、矯正歯科、小児歯科、歯科口腔外科,0,https://itp.ne.jp/info/371471206189331290/,
488,0,0,372013,,香川県,高松市,シミズ歯科医院,シミズシカイイン,歯科,香川県高松市松縄町51-18,,087-867-0046,,087-867-0811,,清水　延哲,,月火水木金土,08：30,18：30,水曜日、土曜日13：30まで。,,歯科、矯正歯科、小児歯科,0,http://www.418takamatu.com/hospital/shimizu/,
489,0,0,372013,,香川県,高松市,しもむら歯科医院,シモムラシカイイン,歯科,香川県高松市元山町1192-1,,087-805-7308,,,,医療法人社団駿陽花,,月火木金土,09：00,18：00,,,歯科,0,,
490,0,0,372013,,香川県,高松市,しもよこ歯科,シモヨコシカ,歯科,香川県高松市国分寺町福家甲2919-5,,087-874-5677,,,,下横　輝雄,,月火水金土,09：30,19：00,土曜日17：00まで。,,歯科、矯正歯科,0,https://itp.ne.jp/info/378711125400000899/,
491,0,0,372013,,香川県,高松市,宿南歯科医院,シュクナミシマイイン,歯科,香川県高松市花園町一丁目10-45,,087-834-5580,,087-834-5580,,医療法人社団宿南歯科医院,,月火水木金土,09：00,18：00,土曜日17：00まで。,,歯科,0,http://takamatsu-sika.com/,
492,0,0,372013,,香川県,高松市,JUN歯科クリニック,ジュンシカクリニック,歯科,香川県高松市常磐町二丁目8-10,,087-813-2123,,087-823-1320,,医療法人社団ジュンアートアンドサイエンス,,月火水木金土,09：00,18：00,土曜日13：00まで。,,歯科、小児歯科、歯科口腔外科,0,http://www.jun-dc.com/,
493,0,0,372013,,香川県,高松市,しん治歯科医院,シンジシカイイン,歯科,香川県高松市牟礼町原594-1,,087-845-6644,,087-845-3223,,医療法人社団しん治歯科医院,,月火水金土,09：00,18：30,,,歯科、矯正歯科、小児歯科,0,http://shinji-shika.jp/,
494,0,0,372013,,香川県,高松市,シンタニ歯科医院,シンタニシカイイン,歯科,香川県高松市屋島西町2490-5,,087-841-1213,,087-841-4443,,医療法人社団聖哲会シンタニ歯科医院,,月水木金土,09：00,18：30,土曜日12：00まで。,,歯科、矯正歯科、小児歯科、歯科口腔外科,0,http://www.d-shintani.com/,
495,0,0,372013,,香川県,高松市,スガタ歯科医院,スガタシカイイン,歯科,香川県高松市田町1-2,,087-835-1001,,087-835-1002,,医療法人社団スガタ歯科医院,,月火水木金土,09：00,18：00,,,歯科、矯正歯科、小児歯科、歯科口腔外科,0,https://www.sugata-shika.com/,
496,0,0,372013,,香川県,高松市,すまいる歯科・矯正歯科,スマイルシカイイン・キョウセイシカイイン,歯科,香川県高松市岡本町1674-3,,087-814-4111,,,,医療法人青空会,,月火木金土,09：00,18：00,,,歯科、矯正歯科、小児歯科、歯科口腔外科,0,https://haisha-yoyaku.jp/bun2sdental/detail/index/id/3730135633/,
497,0,0,372013,,香川県,高松市,すみたに歯科・矯正歯科医院,スミタニシカ・キョウセイシカイイン,歯科,香川県高松市昭和町二丁目15-1,,087-831-7080,,087-831-7080,,住谷　光治,,月火水木金土,09：00,18：00,木曜日午後休診。,,歯科、矯正歯科,0,https://www.sumitani.net/,
498,0,0,372013,,香川県,高松市,諏訪歯科医院,スワシカイイン,歯科,香川県高松市香川町川東下644-1,,087-879-7746,,087-879-7746,,諏訪　一昭,,月火水木金土,09：00,20：00,土曜日12：30まで。,,歯科、小児歯科,0,,
499,0,0,372013,,香川県,高松市,生協へいわ歯科診療所,セイキョウヘイワシカシンリョウジョ,歯科,香川県高松市栗林町一丁目3-24,,087-837-6480,,,,香川医療生活協同組合,,月火水木金土,09：00,20：00,月曜日、火曜日18：30まで。木曜日12：30まで。土曜日17：00まで。,,歯科、小児歯科,0,https://kagawa.coop/sika/4580,
500,0,0,372013,,香川県,高松市,関元歯科医院,セキモトシカイイン,歯科,香川県高松市上之町三丁目9-28,,087-867-7431,,087-867-7431,,関元　直登,,月火水木金土,09：00,18：00,木曜日13：00まで。,,歯科、小児歯科、歯科口腔外科,0,http://www.swjo.jp/dental-sekimoto/,
501,0,0,372013,,香川県,高松市,そごう歯科医院,ソゴウシカイイン,歯科,香川県高松市十川西町180-3,,087-848-3200,,087-848-5777,,十河　陽治,,月火水木金土,09：00,18：30,水曜日12：30まで。,,歯科、小児歯科,0,http://www.418takamatu.com/hospital/sogou/,
502,0,0,372013,,香川県,高松市,高田歯科口腔外科医院,タカダシカコウクウゲカイイン,歯科,香川県高松市御厩町476,,087-886-4600,,,,髙田　匡基,,月火水木金土,09：00,18：00,, ,歯科、矯正歯科、歯科口腔外科,0,"https://dental-clinic.dr-navip.jp/kagawa/facility/4001/
https://localplace.jp/t100343595/",
503,0,0,372013,,香川県,高松市,高橋歯科医院,タカハシシカイイン,歯科,香川県高松市番町三丁目15-21,,087-833-3328,,087-833-3375,,高橋　博之,,月火水木金土,09：00,18：00,土曜日13：00まで。,,歯科、小児歯科、歯科口腔外科,0,,
504,0,0,372013,,香川県,高松市,高橋歯科医院,タカハシシカイイン,歯科,香川県高松市塩上町一丁目5-3,,087-833-5564,,087-833-5764,,髙橋　利之,,月火水金土,09：00,13：00,,,歯科、小児歯科,0,,
505,0,0,372013,,香川県,高松市,高松駅前アルファ歯科クリニック,タカマツエキマエアルファシカクリニック,歯科,香川県高松市西内町1-6,アルファリビング高松駅前1階,087-821-2418,,,,医療法人アルファ,,月水木金土,10：00,19：30,, ,歯科、小児歯科、歯科口腔外科歯科口腔外科,0,https://www.a-dental.info/,
506,0,0,372013,,香川県,高松市,高松歯科口腔外科クリニック,タカマツシカコウクウゲカクリニック,歯科,香川県高松市塩屋町11-16,,087-813-1666,,087-813-1667,,細江　美知,,火水木金土,14：00,20：00,土曜日10：00から16：00まで。,,歯科、口腔外科,0,http://www.oms-center.com/,
507,0,0,372013,,香川県,高松市,高松歯科診療所,タカマツシカシンリョウジョ,歯科,香川県高松市福岡町三丁目36-23,,087-851-1166,,,,社団法人高松市歯科医師会,,月火水木金土日祝,09：00,16：30,月曜日、木曜日、土曜日16：30、日曜日、祝日16：00まで。月曜日から土曜日19：30から22：00夜間診療。,,歯科,0,http://www.418takamatu.com/,
508,0,0,372013,,香川県,高松市,たかまつファミリー歯科医院,タカマツファミリーシカイイン,歯科,香川県高松市春日町812-1,,087-813-8788,,087-813-8876,,髙松　昇一郎,,月火水木金土,09：00,18：30,水曜日13：00まで。, ,歯科、矯正歯科、小児歯科、歯科口腔外科,0,https://www.takamatsu-fdc.com/,
509,0,0,372013,,香川県,高松市,たけい歯科クリニック,タケイシカクリニック,歯科,香川県高松市中央町16-17,西村会計事務所ビル2F,087-862-5482,,087-862-5482,,武井　延哲,,月火水木金土,09：00,18：00,土曜日13：00まで。第3土曜日休診。,,歯科、小児歯科、歯科口腔外科,0,http://www.takei-shika.com/,
510,0,0,372013,,香川県,高松市,武田歯科医院,タケダシカイイン,歯科,香川県高松市サンポート2-1,シンボルタワービジネススクウェア9F,087-822-0972,,087-822-8022,,武田　聡史,,月火水木金土,09：00,18：00,木曜日13：00、土曜日17：00まで。第2土曜日休診。, ,歯科,0,http://www.sunport-takeda.com/,
511,0,0,372013,,香川県,高松市,たけま歯科医院,タケマシカイイン,歯科,香川県高松市牟礼町大町1550-10,,087-870-1360,,087-870-1360,,竹間　和重,,月火木金土,09：30,19：00,,,歯科、小児歯科,0,,
512,0,0,372013,,香川県,高松市,多田歯科医院,タダシカイイン,歯科,香川県高松市木太町792-6,,087-815-2010,,087-815-2008,,多田　彰仁,,月火水金土,09：00,19：30,土曜日17：00まで。,,歯科、矯正歯科、小児歯科,0,http://tadashika.jp/,
513,0,0,372013,,香川県,高松市,立本歯科診療所,タテモトシカシンリョウジョ,歯科,香川県高松市新北町1-11,,087-862-2001,,087-862-2003,,立本　悟,,月火木金土,09：00,18：00,,,歯科,0,,
514,0,0,372013,,香川県,高松市,谷口歯科医院,タニグチシカイイン,歯科,香川県高松市常磐町一丁目9-14,,087-831-8020,,087-831-8021,,谷口　潔,,月火水木金土,08：30,19：00,　,,歯科,0,http://www.tani8020.jp/info.php,
515,0,0,372013,,香川県,高松市,たにぐち歯科医院,タニグチシカイイン,歯科,香川県高松市上之町一丁目4-5,,087-816-7551,,087-816-7455,,谷口　徳広,,月火水木金,09：00,18：00,水曜日12：00まで。,,歯科、矯正歯科、小児歯科,0,https://itp.ne.jp/info/379992734154050090/,
516,0,0,372013,,香川県,高松市,谷本歯科医院,タニモトシカイイン,歯科,香川県高松市仏生山町乙54-7,,087-889-0644,,087-889-0644,,徳丸　和代,,月火水金土,08：30,18：00,,,歯科、小児歯科,0,,
517,0,0,372013,,香川県,高松市,田町たかはし歯科医院,タマチタカハシシカイイン,歯科,香川県高松市東田町1-1,ビーイング今竹2F,087-837-7205,,087-837-7205,,髙橋　利友,,月火水木金土,09：00,18：00,土曜日13：00まで。,,歯科、小児歯科、歯科口腔外科,0,http://www.taka84.jp/,
518,0,0,372013,,香川県,高松市,つかだ歯科医院,ツカダシカイイン,歯科,香川県高松市屋島西町2479-27,,087-844-9082,,087-844-9068,,塚田　英治,,月火水木金土,09：00,18：00,土曜日13：00まで。,,歯科、矯正歯科、小児歯科,0,http://www.tukada-dc.com/,
519,0,0,372013,,香川県,高松市,月見ケ丘歯科クリニック,ツキミガオカシカクリニック,歯科,香川県高松市香南町横井989-1,,087-879-0220,,087-879-0221,,尾崎　正幸,,月水木金土日,09：00,19：00,日曜日17：00まで。,,歯科、小児歯科,0,,
520,0,0,372013,,香川県,高松市,佃歯科医院,ツクダシカイイン,歯科,香川県高松市栗林町一丁目9-16,,087-831-8244,,,,医療法人つくだ歯科医院,,月火水木金土,09：00,18：00,水曜日13：00まで。, ,歯科、矯正歯科、小児歯科、歯科口腔外科,0,"http://www.tsukuda-dc.com/
https://itp.ne.jp/info/375604905400000899/",
521,0,0,372013,,香川県,高松市,つつみ歯科医院,ツツミシカイイン,歯科,香川県高松市国分寺町福家甲3853-6,,087-874-7373,,087-874-7329,,堤　久雄,,月火水金土,09：00,18：00,木曜日13：00まで。,,歯科、小児歯科、歯科口腔外科,0,http://tsutsumi-dentalclinic.jp/,
522,0,0,372013,,香川県,高松市,つばさ歯科医院,ツバサシカイイン,歯科,香川県高松市西宝町一丁目4-21,,087-802-0418,,087-802-0419,,奥谷　諭,,月火水金土,09：00,19：00,, ,歯科、矯正歯科、小児歯科、歯科口腔外科,0,http://www.tsubasa-shika.jp/,
523,0,0,372013,,香川県,高松市,てらい歯科矯正歯科,テライシカキョウセイシカ,歯科,香川県高松市春日町485-15,,087-844-4187,,087-844-4178,,医療法人社団てらい歯科矯正歯科,,月火水金土日,09：00,18：00,木曜日13：00まで。,,歯科、矯正歯科、小児歯科、歯科口腔外科,0,http://teraidc.info/,
524,0,0,372013,,香川県,高松市,デンタルステーションアップル歯科医院,デンタルステーションアップルシカイイン,歯科,香川県高松市太田上町420-1,すこやかタウン内,087-868-7777,,,,医療法人社団グローバル会,,火水木金土,09：00,18：00,土曜日17：00まで祝日のある週の月曜日は9：00～18：00,,歯科、矯正歯科、小児歯科、歯科口腔外科,0,http://global-kai.com/facility/otakami/,
525,0,0,372013,,香川県,高松市,デンタルステーションスマイル歯科医院,デンタルステーションスマイルシカイイン,歯科,香川県高松市郷東町134-1,西高松メディカルビルイーア4階,087-832-8844,,087-832-8889,,医療法人社団グローバル会,,月火水木金土,09：00,17：00,木曜日13：00まで。祝日のある週の木曜日は9：00～17：00,,歯科、矯正歯科、小児歯科、歯科口腔外科,0,http://global-kai.com/facility/goto/,
526,0,0,372013,,香川県,高松市,デンタルステーション谷本歯科医院,デンタルステーションタニモトシカイイン,歯科,香川県高松市香西本町311,,087-882-1181,,087-882-1181,,医療法人社団グローバル会,,月火水木金土,09：00,17：00,木曜日13：00まで。祝日のある週の木曜日は9：00～17：00,,歯科、矯正歯科、小児歯科,0,http://global-kai.com/facility/kozaihon/,
527,0,0,372013,,香川県,高松市,デンタルステーションピース歯科医院,デンタルステーションピースシカイイン,歯科,香川県高松市東山崎町668-1,,087-847-2525,,087-847-0321,,医療法人社団グローバル会,,月火水金土,10：00,19：00,土曜日9：00～17：00。祝日のある週の木曜日は10：00～19：00,,歯科、矯正歯科、小児歯科、歯科口腔外科,0,http://global-kai.com/facility/higashiyamasaki/,
528,0,0,372013,,香川県,高松市,デンタルステーションプリンス歯科医院,デンタルステーションプリンスシカイイン,歯科,香川県高松市国分寺町福家3812-1,イオンタウン国分寺メディカルモール,087-874-8844,,,,医療法人社団グローバル会,,月火水金土,10：00,19：00,土曜日9：00～17：00。祝日のある週の木曜日は10：00～19：00,,歯科、小児歯科、歯科口腔外科,0,http://global-kai.com/facility/kokubunji/,
530,0,0,372013,,香川県,高松市,デンタルステーションりつりん歯科医院,デンタルステーションリツリンシカイイン,歯科,香川県高松市西ハゼ町18,マルナカ栗林南店1F,087-867-1181,,,,医療法人社団グローバル会,,月水木金土,09：00,18：00,土曜日9：00～17：00まで。祝日のある週の火曜日は9：00～18：00, ,歯科、矯正歯科、小児歯科、歯科口腔外科,0,http://global-kai.com/facility/nishihaze/,
531,0,0,372013,,香川県,高松市,デンタルステーションレインボー歯科医院,デンタルステーションレインボーシカイイン,歯科,香川県高松市多肥下町1553-4,,087-814-8888,,087-866-0321,,医療法人社団グローバル会,,火水木金土日祝,10：00,19：30,日曜日、祝日18：00まで。,,歯科、矯正歯科、小児歯科,0,http://global-kai.com/facility/tahishimo/,
532,0,0,372013,,香川県,高松市,としま歯科医院,トシマシカイイン,歯科,香川県高松市伏石町1428-16,,087-865-7878,,087-865-6597,,豊島　雄一,,月火水木金土,09：00,18：00,土曜日13：00まで。,,歯科、矯正歯科、小児歯科、歯科口腔外科,0,http://takamatsu-toshimadc.com/,
533,0,0,372013,,香川県,高松市,豊嶋歯科医院,トヨシマシカイイン,歯科,香川県高松市古新町5-1,,087-822-6575,,087-822-6335,,医療法人社団新樹会,,月火水木金土,09：00,18：00,土曜日13：00まで。,,歯科、矯正歯科、小児歯科、歯科口腔外科,0,http://www.toyoshima-dc.or.jp/,
534,0,0,372013,,香川県,高松市,鳥かい歯科医院,トリカイシカイイン,歯科,香川県高松市檀紙町1514-1,,087-885-2525,,087-885-4111,,医療法人社団鳥かい歯科医院,,月火水金土,09：00,18：00,,,歯科、小児歯科、歯科口腔外科,0,https://www.torikaidental.com/,
535,0,0,372013,,香川県,高松市,永木歯科医院,ナガキシカイイン,歯科,香川県高松市松福町二丁目10-6,,087-823-1188,,087-822-1040,,医療法人社団永木歯科医院,,月火木金土,09：00,18：00,土曜日17：00まで。,,歯科、小児歯科,0,https://itp.ne.jp/info/510000000000061882/,
536,0,0,372013,,香川県,高松市,長束歯科医院,ナガタバシカイイン,歯科,香川県高松市高松町2488-12,,087-843-1818,,087-843-5577,,医療法人社団長束歯科医院,,月火水木金土,09：00,18：30,,,歯科、小児歯科,0,http://www.418takamatu.com/hospital/natsuka/,
537,0,0,372013,,香川県,高松市,なかつか歯科医院,ナカツカシカイイン,歯科,香川県高松市栗林町二丁目10-13,,087-862-3150,,087-862-3150,,中塚　智雄,,月火水木金土,09：00,18：00,木曜日13：00、土曜日17：00まで。,,歯科、小児歯科、歯科口腔外科,0,http://www.nakatsukashika.jp/,
538,0,0,372013,,香川県,高松市,永原歯科医院,ナガハラシカイイン,歯科,香川県高松市伏石町2126-7,,087-866-1115,,087-865-9511,,永原　滋万,,月火水木金土,08：30,18：30,木曜日12：30まで。,,歯科、小児歯科、歯科口腔外科,0,,
539,0,0,372013,,香川県,高松市,ながまち歯科医院,ナガマチシカイイン,歯科,香川県高松市香川町浅野624-7,,087-888-6001,,087-888-6047,,長町　直樹,,月火木金土,09：00,18：00,,,歯科、小児歯科,0,,
540,0,0,372013,,香川県,高松市,長町歯科クリニック,ナガマチシカクリニック,歯科,香川県高松市木太町2565-4,,087-813-4618,,,,長町　健史,,月火水木金土,09：00,18：00,木曜日13：00まで。,,歯科、小児歯科、歯科口腔外科,0,http://nagamachi-dc.com/,
541,0,0,372013,,香川県,高松市,中村歯科医院,ナカムラシカイイン,歯科,香川県高松市多肥上町509-1,,087-888-1211,,087-888-1616,,中村　公士,,月火水木金土,09：00,18：00,木曜日13：00まで。,,歯科、小児歯科,0,http://nakamurashika.net/,
542,0,0,372013,,香川県,高松市,なかむら歯科医院,ナカムラシカイイン,歯科,香川県高松市一宮町1591-6,,087-885-5655,,087-885-5650,,中村　久美,,月火水木金土,09：00,18：00,木曜日13：00まで。,,歯科、小児歯科,0,,
543,0,0,372013,,香川県,高松市,中山歯科医院,ナカヤマシカイイン,歯科,香川県高松市中央町5-29,,087-833-6233,,087-833-6233,,中山　盛幹,,月火水木金土,09：00,18：00,土曜日12：00まで。,,歯科,0,https://itp.ne.jp/info/375541015400000899/,
544,0,0,372013,,香川県,高松市,中山歯科クリニック,ナカヤマシカクリニック,歯科,香川県高松市花ノ宮町一丁目1-27,,087-863-7730,,087-837-8311,,中山　康弘,,月火木金土,09：30,18：00,,,歯科、歯科口腔外科,0,"http://nakayamadental.com/
https://localplace.jp/t100339310/",
545,0,0,372013,,香川県,高松市,新枝歯科医院,ニイエダシカイイン,歯科,香川県高松市東山崎町704-1,,087-847-2118,,,,医療法人社団Brilliant Smile,,月火水木金土,09：00,18：00,水曜日13：00まで。（ただし同一週内に祝祭日がある場合は、14:30から18:00まで診療を行う）,,歯科、矯正歯科、歯科口腔外科,0,http://niieda-dental-office.com/,
546,0,0,372013,,香川県,高松市,新居歯科医院,ニイシカイイン,歯科,香川県高松市国分寺町新居3385-1,,087-874-0116,,087-874-0893,,新居　賢,,月火水木金土,09：00,18：00,木曜日12：30まで。,,歯科,0,,
547,0,0,372013,,香川県,高松市,西岡歯科医院,ニシオカシカイイン,歯科,香川県高松市塩上町三丁目14-17,,087-831-1987,,087-833-4667,,西岡　士郎,,月火水木金土,08：30,18：00,土曜日12：00まで。,,歯科,0,http://nishiokadent.com/,
548,0,0,372013,,香川県,高松市,にしくぼ歯科医院,ニシクボシカイイン,歯科,香川県高松市扇町二丁目7-1,岡ビル1F,087-813-2088,,087-813-2077,,西窪　政人,,月火水木金土,09：00,18：00,木曜日13：00まで。,,歯科、矯正歯科、小児歯科、歯科口腔外科,0,http://www.n-dental.dr-clinic.jp/,
549,0,0,372013,,香川県,高松市,西クリニック歯科,ニシクリニックシカ,歯科,香川県高松市一宮町783-7,1Ｆ,087-899-6712,,,,西　稚子,,月火水木金土,09：00,17：30,木曜日、土曜日12：30まで。,,歯科、小児歯科,0,,
550,0,0,372013,,香川県,高松市,西谷歯科医院,ニシタニシカイイン,歯科,香川県高松市郷東町136-6,,087-882-8800,,087-882-8850,,西谷　義則,,月火水木金土,09：00,18：30,木曜日13：00まで、第2第4木曜日休診、土曜日17：00まで。,,歯科,0,,
551,0,0,372013,,香川県,高松市,西原歯科医院,ニシハラシカイイン,歯科,香川県高松市伏石町2056-3,,087-868-3535,,087-868-3535,,医療法人社団西原歯科医院,,月火水木金土,09：00,18：00,水曜日、土曜日13：00まで。,,歯科、小児歯科、歯科口腔外科,0,https://itp.ne.jp/info/376996915400000899/,
552,0,0,372013,,香川県,高松市,西村歯科医院,ニシムラシカイイン,歯科,香川県高松市仏生山町甲1416-1,,087-889-1811,,087-888-2135,,医療法人社団皓歯会,,月火水木金土,08：30,18：00,水曜日、土曜日13：00まで。,,歯科、矯正歯科、小児歯科,0,,
553,0,0,372013,,香川県,高松市,新田歯科医院,ニッタシカイイン,歯科,香川県高松市仏生山町甲370-3,,087-888-4618,,087-888-2590,,新田　浩樹,,月火水金土,09：00,18：30,,,歯科、小児歯科,0,,
554,0,0,372013,,香川県,高松市,ぬまた歯科医院,ヌマタシカイイン,歯科,香川県高松市香川町浅野1053-7,,087-879-0661,,087-879-0664,,沼田　浩,,月火水金土,08：45,18：00,,,歯科、小児歯科,0,https://dental-clinic.dr-navip.jp/kagawa/facility/1453/,
555,0,0,372013,,香川県,高松市,ハッピーデンタルクリニック,ハッピーデンタルクリニック,歯科,香川県高松市檀紙町757-6,,087-816-4046,,087-816-4046,,香西　勝之,,月火水金土,09：00,18：00,,,歯科、矯正歯科、小児歯科,0,,
556,0,0,372013,,香川県,高松市,馬場歯科医院,ババシカイイン,歯科,香川県高松市多賀町二丁目15-17,,087-835-2884,,087-835-2884,,馬場　勝也,,月火水木金土,09：00,18：00,木曜日13：00まで。,,歯科,0,http://www.418takamatu.com/hospital/baba/,
557,0,0,372013,,香川県,高松市,丸亀町ハビット歯科クリニック,ハビットシカクリニック,歯科,香川県高松市丸亀町13-3,高松丸亀町商店街参番街東館3F,087-851-2266,,087-811-1803,,医療法人社団丸亀町ハビット歯科クリニック,,月火水木金土,09：00,20：00,水曜日13：00、土曜日18：00まで。,,歯科,0,http://habitdc.com/,
558,0,0,372013,,香川県,高松市,はまおか歯科医院,ハマオカシカイイン,歯科,香川県高松市新田町甲653-10,,087-844-3755,,087-844-3755,,濱岡　宏典,,月火水木金土,09：00,18：00,水曜日、土曜日13：00まで。,,歯科、小児歯科、歯科口腔外科,0,https://www.hamaokashika.net/,
559,0,0,372013,,香川県,高松市,林歯科医院,ハヤシシカイイン,歯科,香川県高松市百間町9-2,,087-821-3684,,087-821-3696,,林　秀樹,,月火水木金土,09：00,17：00,土曜日13：00まで。,,歯科,0,,
560,0,0,372013,,香川県,高松市,林歯科医院,ハヤシシカイイン,歯科,香川県高松市高松町5-8,,087-841-9026,,087-841-9026,,医療法人社団林歯科医院,,月火水木金土,09：00,18：00,木曜日12：30、土曜日16：00まで。,,歯科、矯正歯科、小児歯科,0,http://www.hayashishika.info/,
562,0,0,372013,,香川県,高松市,はる歯科診療室,ハルシカシンリョウシツ,歯科,香川県高松市西町13-31,,087-833-6480,,087-833-6482,,野口　卓司,,月火水木金土,09：00,18：00,火曜日、土曜日12：30まで。,,歯科、矯正歯科、小児歯科、歯科口腔外科,0,https://www.haru-do.com/,
563,0,0,372013,,香川県,高松市,番町歯科クリニック,バンチョウシカクリニック,歯科,香川県高松市番町四丁目11-3,,087-861-0008,,087-861-0085,,多田　爲則,,月火水木金土,09：00,18：00,水曜日13：00、土曜日17：00まで。,,歯科、小児歯科,0,http://www.bancho-dc.com/,
564,0,0,372013,,香川県,高松市,坂東歯科クリニック,バンドウシカクリニック,歯科,香川県高松市西宝町一丁目10-12,ツリーハイム2F201,087-837-6487,,087-837-6487,,坂東　達矢,,月火水木金土,09：00,16：00,木曜日13：00まで。,,歯科、小児歯科、歯科口腔外科,0,https://www.facebook.com/bandosika/,
565,0,0,372013,,香川県,高松市,ひまわり歯科医院,ヒマワリシカイイン,歯科,香川県高松市松縄町1143-3,,087-868-5151,,087-868-5151,,永原　義章,,月火木金土,09：00,18：00,土曜日16：00まで。,,歯科、小児歯科、歯科口腔外科,0,,
566,0,0,372013,,香川県,高松市,兵庫町歯科,ヒョウゴマチシカ,歯科,香川県高松市兵庫町2-2,兵庫町商店街アーケード内,087-851-8211,,087-851-4182,,宿南　仁志,,月火水木土日,09：00,20：00,日曜日13：00まで。,,歯科、小児歯科、歯科口腔外科,0,http://hyogomachi-dc.com/,
567,0,0,372013,,香川県,高松市,平池歯科医院,ヒライケシカイイン,歯科,香川県高松市天神前9-25,,087-835-0295,,,,平池　洋一郎,,月火水木金土,09：00,18：00,,,歯科,0,,
568,0,0,372013,,香川県,高松市,平尾歯科クリニック,ヒラオシカクリニック,歯科,香川県高松市多肥上町1223-19,,087-814-4015,,,,平尾　史恵,,月火水木金土,09：00,18：00,木曜日12：30、土曜日17：00まで。,,歯科、小児歯科、歯科口腔外科,0,http://user.j-connect.net/hirao-dental-clinic/,
569,0,0,372013,,香川県,高松市,平田歯科医院,ヒラタシカイイン,歯科,香川県高松市紺屋町4-7,,087-821-7459,,087-821-7559,,平田　成志,,月火水木金土,09：00,18：00,土曜日午後休診。,,歯科,0,http://hirata.main.jp/,
570,0,0,372013,,香川県,高松市,ひらの歯科,ヒラノシカ,歯科,香川県高松市木太町2063-6,,087-812-6480,,,,比良野　哲彦,,月火水木金土,09：00,20：00,土曜日17：00まで。,,歯科、小児歯科、歯科口腔外科,0,https://www.hirano-shika.dental/,
571,0,0,372013,,香川県,高松市,裕歯科クリニック,ヒロシシカクリニック,歯科,香川県高松市上林町字竹部65-1,,087-816-4618,,087-816-1846,,医療法人社団　裕歯科クリニック,,月火水金土,09：00,18：00,,,歯科、小児歯科,0,http://www.hiroshi-dc.com/,
572,0,0,372013,,香川県,高松市,広瀬歯科医院,ヒロセシカイイン,歯科,香川県高松市御坊町4-19,藤井ビル2F,087-851-3383,,087-823-4351,,広瀬　佳史,,月火水木金土,09：00,17：00,木曜日、土曜日12：00まで。,,歯科,0,,
574,0,0,372013,,香川県,高松市,ふくもと歯科クリニック,フクモトシカクリニック,歯科,香川県高松市太田下町3038-12,,087-897-3388,,087-897-3389,,医療法人ふくもと歯科クリニック,,月火木金土,08：30,18：00,土曜日は17：30まで。　祝日が平日にある時は水曜日１日診療。,,歯科、矯正歯科、小児歯科、歯科口腔外科,0,http://www.fukumoto-dental.com/,
575,0,0,372013,,香川県,高松市,藤木歯科医院,フジキシカイイン,歯科,香川県高松市香南町由佐1152,,087-879-1188,,087-879-1170,,藤木　秀保,,月火水木金土,09：00,18：00,土曜日16：30まで。,,歯科、矯正歯科、小児歯科、歯科口腔外科,0,,
576,0,0,372013,,香川県,高松市,藤塚歯科クリニック,フジツカシカクリニック,歯科,香川県高松市藤塚町一丁目7-25,,087-813-1103,,087-813-1103,,小山　貴生,,月火木金土,10：00,21：00,土曜日13：00まで。,,歯科、小児歯科、歯科口腔外科,0,http://fujituka-dc.com/,
577,0,0,372013,,香川県,高松市,フジツカ三好歯科医院,フジツカミヨシシカイイン,歯科,香川県高松市藤塚町三丁目1-10,,087-831-3025,,087-834-8308,,三好　貴美子,,月火水木金土,09：30,18：00,月曜日16：00から18：00まで。,,歯科,0,,
578,0,0,372013,,香川県,高松市,藤本歯科医院,フジモトシカイイン,歯科,香川県高松市瀬戸内町16-13,,087-837-1182,,087-837-1189,,藤本　幸重,,月火水木金土,09：00,19：00,水曜日13：00、土曜日17：00まで。,,歯科,0,,
579,0,0,372013,,香川県,高松市,ふじわら歯科医院,フジワラシカイイン,歯科,香川県高松市松縄町1104-2,,087-865-5884,,087-865-5884,,藤原　和彦,,月火木金土,09：00,18：00,,,歯科、小児歯科,0,https://www.fujiwara-sika.jp/,
580,0,0,372013,,香川県,高松市,フチダ歯科医院,フチダシカイイン,歯科,香川県高松市香川町大野1320-1,,087-886-5117,,087-886-5117,,渕田　眞利子,,月火水木金土,08：30,17：30,木曜日12：30、土曜日16：30まで。,,歯科、小児歯科,0,http://www7b.biglobe.ne.jp/~fuchida/,
581,0,0,372013,,香川県,高松市,フラワー歯科,フラワーシカ,歯科,香川県高松市三条町608-1,ゆめタウン高松2F,087-815-1211,,087-867-6760,,医療法人白樹会,,月火水木金土日祝,09：00,20：00,土曜日、日曜日、祝日18：30まで。,,歯科、矯正歯科、小児歯科、歯科口腔外科,0,http://www.flower-sika.com/,
582,0,0,372013,,香川県,高松市,古市歯科医院,フルイチシカイイン,歯科,香川県高松市多賀町二丁目5-6,,087-831-2810,,087-880-7150,,医療法人社団明恵会,,月火水金土,08：30,18：00,土曜日18：00まで。祝日のある週は木曜午後診察。,,歯科、小児歯科,0,http://furuichi-dent.com/,
583,0,0,372013,,香川県,高松市,フレッシュ歯科,フレッシュシカ,歯科,香川県高松市林町1183,,087-814-4181,,,,医療法人フレッシュ歯科,,月火水木金土,09：00,18：00,水曜日13：00まで。,,歯科、矯正歯科、小児歯科、歯科口腔外科,0,https://www.fresh-shika.com/,
584,0,0,372013,,香川県,高松市,フレンズ歯科クリニック,フレンズシカクリニック,歯科,香川県高松市木太町5023-25,,087-815-1181,,087-815-1190,,医療法人友慈会フレンズ歯科クリニック,,月火水木金土,09：00,18：00,水曜日12：30まで。,,歯科、矯正歯科、小児歯科、歯科口腔外科,0,http://www.friends-dental.com/,
585,0,0,372013,,香川県,高松市,細川歯科クリニック,ホソカワシカクリニック,歯科,香川県高松市亀井町12-4,日の出ビル2F,087-835-2056,,087-835-2056,,細川　雅敬,,月火水木金土,09：00,18：00,土曜日13：00まで。,,歯科,0,,
586,0,0,372013,,香川県,高松市,ほりうち歯科,ホリウチシカ,歯科,香川県高松市新田町乙25-34,,087-841-0648,,087-841-2655,,堀内　正純,,月火水金土,09：30,19：00,,,歯科、小児歯科,0,,
587,0,0,372013,,香川県,高松市,堀歯科診療所,ホリシカシンリョウジョ,歯科,香川県高松市福田町14-18,,087-821-5773,,087-821-5752,,堀　祥二,,月火水木金土,09：00,18：00,土曜日13：00まで。,,歯科、矯正歯科、小児歯科,0,,
588,0,0,372013,,香川県,高松市,マシマ歯科クリニック,マシマシカクリニック,歯科,香川県高松市三谷町384-1,,087-814-6600,,,,間島　徹,,月火水木金土,09：00,18：00,木曜日12：30、土曜日17：00まで。,,歯科、小児歯科、歯科口腔外科,0,http://www.mashima-dc.com/,
589,0,0,372013,,香川県,高松市,ますだ歯科医院,マスダシカイイン,歯科,香川県高松市屋島西町2484-18,ウエストコーストヤシマA203,087-843-7718,,087-843-7718,,増田　幸三,,月火水木金土,09：00,20：00,,,歯科、小児歯科,0,http://park6.wakwak.com/~masoo/,
590,0,0,372013,,香川県,高松市,町田歯科クリニック,マチダシカクリニック,歯科,香川県高松市多肥下町1587-11,,087-813-8241,,087-813-8241,,町田　誠一,,月火木金土,09：00,18：30,,,歯科、矯正歯科、小児歯科、歯科口腔外科,0,http://www.machida-dc.com/main.html,
591,0,0,372013,,香川県,高松市,松井歯科医院,マツイシカイイン,歯科,香川県高松市木太町2351-3,,087-861-6548,,087-861-6548,,松井　康男,,月火水木金土,09：00,18：00,水曜日午後休診。土曜日13：00まで。,,歯科、小児歯科、歯科口腔外科,0,http://www.418takamatu.com/hospital/matsui/,
592,0,0,372013,,香川県,高松市,まつおか歯科医院,マツオカシカイイン,歯科,香川県高松市紺屋町10-6,,087-821-6537,,087-821-6686,,松岡  利安,,月火水木金土,09：00,17：00,木曜日午後休診。土曜日14：00まで。,,歯科、小児歯科,0,,
593,0,0,372013,,香川県,高松市,松木歯科医院,マツキシカイイン,歯科,香川県高松市牟礼町牟礼2112-1,,087-845-8577,,087-845-8577,,松木　倫和,,月火木金土,09：00,18：30,,,歯科、小児歯科、歯科口腔外科,0,,
594,0,0,372013,,香川県,高松市,松崎ファミリー歯科矯正歯科,マツザキファミリーシカキョウセイシカ,歯科,香川県高松市中央町1-5,MBSビル6F,087-862-6222,,087-862-8050,,医療法人社団セラ松崎ファミリー歯科矯正歯科,,月火水木金土日,09：00,18：00,,,歯科、矯正歯科、小児歯科,0,http://www.matsuzaki-dental.com/,
595,0,0,372013,,香川県,高松市,まつした歯科医院,マツシタシカイイン,歯科,香川県高松市上福岡町916-4,,087-863-6755,,087-863-6756,,松下　直弘,,月火水木金土,09：00,18：00,土曜日13：00まで。,,歯科、小児歯科、歯科口腔外科,0,http://matsushitashika.dentalmall.jp/,
596,0,0,372013,,香川県,高松市,松原歯科医院,マツバラシカイイン,歯科,香川県高松市高松町2196,,087-843-8815,,087-843-8879,,松原　法夫,,月火水木金土,09：00,18：00,木曜日12：00、土曜日16：00まで。,,歯科,0,,
597,0,0,372013,,香川県,高松市,松見歯科診療所,マツミシカシンリョウジョ,歯科,香川県高松市香西西町7,,087-881-2323,,087-881-8499,,松見　哲雄,,月火水木金土,08：45,17：00,,,歯科,0,http://www.matsumishika.jp/,
598,0,0,372013,,香川県,高松市,松本歯科,マツモトシカ,歯科,香川県高松市川島東町275-1,,087-848-4182,,087-848-1192,,医療法人社団松本歯科,,月火水木金土,09：00,18：00,,,歯科、矯正歯科、小児歯科、歯科口腔外科,0,https://www.matsumoto-dc.com/,
599,0,0,372013,,香川県,高松市,松本歯科診療所,マツモトシカシンリョウショ,歯科,香川県高松市国分寺町新居1091-1,,087-875-1101,,087-875-1101,,松本　幹夫,,月火水木金土,09：00,18：00,水曜日、土曜日12：30まで。,,歯科、矯正歯科、小児歯科、歯科口腔外科,0,,
600,0,0,372013,,香川県,高松市,丸の内歯科,マルノウチシカ,歯科,香川県高松市丸の内11-15,松浦ビル5F,087-821-1331,,087-821-1332,,岡　左永子,,月火水木金土,09：00,18：00,木曜日13：00、土曜日16：00まで。第2第4土曜日休診。,,歯科、小児歯科、歯科口腔外科,0,,
601,0,0,372013,,香川県,高松市,みき歯科医院,ミキシカイイン,歯科,香川県高松市鶴市町2022-19,,087-813-0727,,087-813-0727,,三木　武,,月火木金土日,09：00,19：00,日曜日13：30まで。,,歯科、矯正歯科、小児歯科、歯科口腔外科,0,https://itp.ne.jp/info/371800805125650850/,
602,0,0,372013,,香川県,高松市,みき歯科三越通りクリニック,ミキシカミツコシドオリクリニック,歯科,香川県高松市丸の内10-16,,087-802-3810,,,,三木　武寛,,月火水木金土,09：00,18：00,木曜日13：00まで。,,歯科、矯正歯科、小児歯科、歯科口腔外科,0,https://www.miki-dmc.com/,
603,0,0,372013,,香川県,高松市,溝渕歯科医院,ミゾブチシカイイン,歯科,香川県高松市庵治町6385-18,,087-871-4808,,087-871-4808,,溝渕　勝彦,,月火水木金土,09：00,18：00,木曜日12：30、土曜日16：00まで。,,歯科、小児歯科,0,,
604,0,0,372013,,香川県,高松市,溝渕歯科診療所,ミゾブチシカシンリョウショ,歯科,香川県高松市中山町811-6,,087-881-1800,,087-881-1800,,医療法人社団溝渕歯科診療所,,月火木金土,09：30,18：00,土曜日12：30まで。,,歯科,0,,
605,0,0,372013,,香川県,高松市,三谷歯科医院,ミタニシカイイン,歯科,香川県高松市牟礼町牟礼2533-2,,087-845-5780,,087-845-4168,,三谷　裕子,,月火水金土,09：30,18：00,土曜日17：00まで。,,歯科、矯正歯科、小児歯科,0,http://mitani-dc.com/,
606,0,0,372013,,香川県,高松市,みたに歯科クリニック,ミタニシカクリニック,歯科,香川県高松市林町1308-15,,087-815-3373,,087-815-3372,,三谷　明将,,月火水木金土,09：00,18：00,,,歯科、小児歯科,0,http://www.mitani-dental.com/,
607,0,0,372013,,香川県,高松市,三谷歯科診療所,ミタニシカシンリョウジョ,歯科,香川県高松市内町1-5,,087-821-5474,,087-821-5474,,三谷　明弘,,月火水木金土,09：00,18：00,,,歯科,0,http://www2.odn.ne.jp/mitani_sika/,
608,0,0,372013,,香川県,高松市,みつもり歯科医院,ミツモリシカイイン,歯科,香川県高松市西山崎町886-1,,087-886-8900,,087-886-8309,,医療法人社団みつもり歯科医院,,月火水金土,09：00,18：00,,,歯科、矯正歯科、小児歯科、歯科口腔外科,0,http://www.mitsumori-dental.com/,
610,0,0,372013,,香川県,高松市,美美歯科,ミミシカ,歯科,香川県高松市多肥下町1548-14,,087-867-3933,,087-867-3934,,医療法人社団佑逵会美美歯科,,月火水木金土,09：00,18：00,水曜日午後休診。,,歯科、矯正歯科、小児歯科、歯科口腔外科,0,http://www.mimi-dc.com/,
611,0,0,372013,,香川県,高松市,みやび歯科,ミヤビシカ,歯科,香川県高松市岡本町1247-1,,087-886-8811,,,,竹内　雅哉,,月火水木金土,09：30,18：00,金曜日12：30、土曜日17：30まで。,,歯科、小児歯科、歯科口腔外科,0,https://miyabi-shika.com/,
612,0,0,372013,,香川県,高松市,宮脇歯科医院,ミヤワキシカイイン,歯科,香川県高松市下田井町633-1,,087-847-7757,,087-847-7757,,宮脇　守男,,月火水木金土,09：00,18：30,木曜日、土曜日13：00まで。,,歯科、矯正歯科、小児歯科、歯科口腔外科,0,https://localplace.jp/t100121223/,
613,0,0,372013,,香川県,高松市,みやわき歯科医院,ミヤワキシカイイン,歯科,香川県高松市国分寺町福家甲2637-1,,087-875-2442,,087-875-2442,,宮脇　聡,,月火水木金土,09：00,18：30,水曜日12：30、土曜日16：00まで。,,歯科、小児歯科,0,https://haisha-yoyaku.jp/bun2sdental/detail/index/id/3730134974/,
614,0,0,372013,,香川県,高松市,三好歯科医院,ミヨシシカイイン,歯科,香川県高松市福岡町二丁目29-30,,087-822-2587,,087-822-2567,,三好　正弘,,月火水木金土,09：00,18：00,火曜日、木曜日、土曜日13：00まで。,,歯科,0,,
615,0,0,372013,,香川県,高松市,三好歯科医院,ミヨシシカイイン,歯科,香川県高松市栗林町二丁目16-14,2F,087-831-4403,,087-831-1818,,三好　篤信,,月火水木金土,09：00,18：00,木曜日13：00まで。,,歯科、小児歯科,0,,
616,0,0,372013,,香川県,高松市,むね歯科クリニック,ムニシカクリニック,歯科,香川県高松市今里町一丁目31-3,,087-880-4829,,,,髙木　宗弘,,月火水木金土,09：00,18：00,木曜日13：00まで。,,歯科、小児歯科,0,http://www.munedc.jp/,
618,0,0,372013,,香川県,高松市,ムラトミ歯科医院,ムラトミシカイイン,歯科,香川県高松市前田東町731-1,,087-847-4018,,087-847-4663,,村冨　正芳,,月火水木金土,09：00,18：00,木曜日、土曜日12：00まで。,,歯科,0,,
619,0,0,372013,,香川県,高松市,もりい矯正歯科クリニック,モリキョウセイシカクリニック,歯科,香川県高松市片原町10-20,,087-811-7725,,087-811-7726,,森井　大介,,月火水金土,10：00,18：00,,,歯科、矯正歯科,0,http://www.moriikyousei.jp/,
620,0,0,372013,,香川県,高松市,もりぐち歯科クリニック,モリグチシカクリニック,歯科,香川県高松市木太町2341-2,,087-813-0333,,087-813-0326,,医療法人社団もりぐち歯科クリニック,,月火水木金土,09：00,18：00,土曜日17：00まで。,,歯科、矯正歯科、小児歯科、歯科口腔外科,0,http://moriguchi-dental.com/,
621,0,0,372013,,香川県,高松市,守田歯科医院,モリタシカイイン,歯科,香川県高松市太田上町874-3,,087-865-4410,,087-865-4410,,守田　浩一,,月火水金土,09：00,18：00,,,歯科、歯科口腔外科,0,http://wwwd.pikara.ne.jp/morita-dc/,
622,0,0,372013,,香川県,高松市,やくり歯科,ヤクリシカ,歯科,香川県高松市牟礼町牟礼2431－1,,087-870-1555,,087-870-1556,,医療法人社団弘誠会,,月火水木金土,09：30,18：30,,,歯科、矯正歯科、小児歯科、歯科口腔外科,0,http://www.yakuri-shika.com/,
623,0,0,372013,,香川県,高松市,やすとみ歯科医院,ヤストミシカイイン,歯科,香川県高松市太田上町392-1,,087-868-5188,,087-868-5155,,安冨　哲士,,月火水金土,09：00,18：00,　,,歯科,0,https://www.dentaldesign.jp/yasutomi/,
624,0,0,372013,,香川県,高松市,やの歯科医院,ヤノシカイイン,歯科,香川県高松市鶴市町2033-3,,087-897-2070,,087-897-2070,,矢野　宏明,,月火水木金土,09：00,18：00,水曜日、土曜日12：00まで。,,歯科、小児歯科、歯科口腔外科,0,http://www.yano-dentalclinic.com/,
625,0,0,372013,,香川県,高松市,山内歯科医院,ヤマウチシカイイン,歯科,香川県高松市香西本町486-6,,087-881-2642,,087-881-2642,,山内　宏茂,,月火水木金土,09：00,18：00,水曜日12：30、土曜日16：00まで。,,歯科、小児歯科,0,,
626,0,0,372013,,香川県,高松市,山口歯科診療所,ヤマグチシカシンリョウジョ,歯科,香川県高松市番町三丁目2-1,池田番丁ビル3F,087-831-5034,,087-834-6898,,山口　裕,,月火水木金土,09：00,18：00,,,歯科,0,,
628,0,0,372013,,香川県,高松市,山下歯科医院,ヤマシタシカイイン,歯科,香川県高松市太田上町1004-1,,087-865-1323,,,,医療法人社団山下歯科医院,,月火水金土,09：00,18：00,　,,歯科、矯正歯科、小児歯科,0,,
629,0,0,372013,,香川県,高松市,吉田歯科医院,ヨシダシカイイン,歯科,香川県高松市多肥上町1842-5,,087-888-2088,,087-888-2131,,吉田　光典,,月火水木金土,09：00,18：00,木曜日12：30まで。第1第3木曜日休診。,,歯科,0,http://yoshida-shika-tmj.jp/,
630,0,0,372013,,香川県,高松市,吉本歯科医院,ヨシモトシカイイン,歯科,香川県高松市屋島西町1968-9,,087-818-1118,,087-818-1181,,医療法人社団吉翔会,,月火水木金土,09：15,18：00,水曜日13：00まで。,,歯科、矯正歯科、歯科口腔外科,0,"https://www.8181118.com/
https://www.shiroiha.info/?kid=37&cid=1345&mode=3",
631,0,0,372013,,香川県,高松市,よしもと歯科クリニック,ヨシモトシカクリニック,歯科,香川県高松市国分寺町新居字橋岡1796-1,,087-813-6804,,087-813-6804,,医療法人よしもと歯科クリニック,,月火水木金土,09：00,18：00,木曜日13：00まで。,,歯科、小児歯科、歯科口腔外科,0,http://www7b.biglobe.ne.jp/~yoshimoto-shika/index.html,
632,0,0,372013,,香川県,高松市,米岡歯科医院,ヨネオカシカイイン,歯科,香川県高松市田村町321-1,,087-867-8888,,087-865-4618,,医療法人社団米岡歯科医院,,月火水木金土,09：00,18：00,木曜日13：00まで。,,歯科、矯正歯科、小児歯科,0,,
633,0,0,372013,,香川県,高松市,米田歯科医院,ヨネダシカイイン,歯科,香川県高松市三条町239-7,,087-866-5195,,087-866-5169,,医療法人社団邦照会米田歯科医院,,月火水木金土,09：00,18：00,,,歯科、矯正歯科、小児歯科、歯科口腔外科,0,,
634,0,0,372013,,香川県,高松市,ヨネダ歯科医院,ヨネダシカイイン,歯科,香川県高松市今新町4-7,2F,087-851-9259,,,,米田　敬,,月火水木金土,09：00,18：00,第2第4土曜日、第1第3木曜日休診。,,歯科、小児歯科、歯科口腔外科,0,,
635,0,0,372013,,香川県,高松市,らく楽歯科クリニック,ラクラクシカクリニック,歯科,香川県高松市松福町二丁目4-4,,087-851-3500,,,,医療法人社団らく楽会,,月火水木金土,09：00,18：00,土曜日13：00まで。,,歯科、小児歯科,0,http://www.rakuraku-group.jp/raku-dental/index.html,
636,0,0,372013,,香川県,高松市,かたぎり歯科クリニック,カタギリシカクリニック,歯科,香川県高松市三名町字大下723-1,,087-867-8046,,,,片桐　幸大,,月火水金土,09：30,18：00,,,歯科、小児歯科,0,https://www.katagiri.dental/,
637,0,0,372013,,香川県,高松市,西高松キッズクリニック,ニシタカマツキッズクリニック,無床診療所,香川県高松市郷東町134-1,,087-881-8899,,,,医療法人社団西高松社中,,月火水木金土,09：00,18：00,水曜日、土曜日12：30まで。,,小児科,0,https://brain.nishitakamatsu.jp/,
638,0,0,372013,,香川県,高松市,サンポート高松クリニック,サンポートタカマツクリニック,無床診療所,香川県高松市サンポート2-1,マリンタイムプラザ2階,087-802-3100,,,,石垣　俊郎,,月火水木金土,09：30,19：00,月曜日、火曜日、水曜日18：00まで。土曜日13：00まで。第4水曜日、第1、第3、第5土曜日休診。,,内科、糖尿病内科,0,https://www.sunport-takamatsu.clinic/,
639,0,0,372013,,香川県,高松市,やまもと中央クリニック,ヤマモトチュウオウクリニック,無床診療所,香川県高松市木太町5077-2,,087-802-7500,,,,山本　譲仁,,月火水木金土,09：00,18：00,水曜日、土曜日12：00まで。,,泌尿器科、内科,0,https://ychuoclinic.xsrv.jp/,
640,0,0,372013,,香川県,高松市,晴里歯科医院,ハルリシカイイン,歯科,香川県高松市牟礼町字川原2217-3,,087-802-1182,,,,今田　淳,,月火水金土,09：00,18：00,,,歯科、小児歯科、歯科口腔外科,0,https://haruri-dc.jp/,
641,0,0,372013,,香川県,高松市,ふじもり内科・消化器内科クリニック,フジモリナイカ・ショウカキナイカ,無床診療所,香川県高松市多肥下町482,,087-813-6114,,,,藤森　崇行,,月火水金土,09：00,18：00,,,内科・消化器内科,0,https://fuji-medi.com/,
642,0,0,372013,,香川県,高松市,安田内科,ヤスダナイカ,無床診療所,香川県高松市国分寺町福家甲3091-4,,087-875-2525,,,,安田　貢,,月火水木金土,09：00,18：00,水曜日、土曜日12：30まで。,,内科・消化器内科,0,http://www.yasudanaika.jp/,
643,0,0,372013,,香川県,高松市,高松南整形外科スポーツクリニック,タカマツミナミセイケイゲカスポーツクリニック,無床診療所,香川県高松市三名町65,,087-889-4970,,,,中溝　寛之,,月火水金土,09：00,18：30,土曜日15：00まで。,,整形外科,0,https://tkm-osc.com/,
644,0,0,372013,,香川県,高松市,はやし歯科医院,ハヤシシカイイン,歯科,香川県高松市林町1487-2,,087-802-8217,,,,林　直樹,,月火水木金土,09：00,18：00,水曜日13：00まで。,　,歯科・小児歯科,0,https://www.hayashishikain.com/,
645,0,0,372013,,香川県,高松市,しみずこどもクリニック,シミズコドモクリニック,無床診療所,香川県高松市木太町5080-12,,087-802-3607,,,,清水　真樹,,月火木金土,09：00,18：00,土曜日17：00まで。,,小児科,0,https://www.shimizu-children.clinic/,
646,0,0,372013,,香川県,高松市,いなもと耳鼻咽喉科,イナモトジビインコウカ,無床診療所,香川県高松市一宮町1530-1,,087-880-3341,,,,稲本　隆平,,月火水木金土,09：00,18：00,水曜日、土曜日午後休診。,,耳鼻咽喉科、小児耳鼻咽喉科,0,http://www.ent-inamoto.jp/original4.html,
647,0,0,372013,,香川県,高松市,屋島おおはら内科・消化器内科クリニック,ヤシマオオハラナイカ・ショウカキナイカクリニック,無床診療所,香川県高松市高松町2500-5,,087-844-8705,,087-844-8706,,大原　芳章,,月火水木金土,08：30,18：00,木曜日、土曜日は午前のみ。,,内科,0,https://www.kita-iin.com/,
648,0,0,372013,,香川県,高松市,エミナルクリニック高松院,エミナルクリニックタカマツイン,無床診療所,香川県高松市丸亀町7-16　,丸亀町グリーン2階,087-899-2541,,,,村端　祐樹,,月火水木金土,10：00,20：00,　,　,美容皮膚科,0,https://eminal-clinic.jp/clinic/c_takamatsu/,
649,0,0,372013,,香川県,高松市,さくらビューティークリニック　高松院,サクラビューティークリニック　タカマツイン,無床診療所,香川県高松市丸亀町2-13,丸亀町弐番街3号館3階,087-899-2802,,,,医療法人社団桜光明会,,月木金土日,10：00,19：00,　,　,美容皮膚科,0,https://sapporo-sakura.jp/takamatsu/,
650,0,0,372013,,香川県,高松市,高松メンズクリニック,タカマツメンズクリニック,無床診療所,香川県高松市瓦町二丁目12-8,LEEZENビル４F,087-873-2132,,,,林　良美,,月火土日,10：00,20：00,　,　,美容外科、泌尿器科,0,　,
651,0,0,372013,,香川県,高松市,レインボー通り内科クリニック,レインボートオリナイカクリニック,無床診療所,香川県高松市多肥下町1506-20,　,087-868-2416,,,,松原　修司,,月火木金土,09：00,19：00,　,　,内科,0,　,
652,0,0,372013,,香川県,高松市,高松ひざ関節症専門クリニック,タカマツヒザカンセツショウセンモンクリニック,無床診療所,香川県高松市花ノ宮町一丁目９－２２,,087-802-3367,,,,医療法人医仁会,,火金,0.416666667,0.708333333,,,整形外科,,,
653,0,0,372013,,香川県,高松市,心のケアクリニック,ココロノケアクリニック,無床診療所,香川県高松市昭和町二丁目16-7,,087-861-7100,,,,榎本　百合子,,月火木金土,0.375,0.75,月曜日、木曜日、土曜日は13：00まで,,心療内科、精神科,,,
654,0,0,372013,,香川県,高松市,いろのみ歯科,イロノミシカ,歯科,香川県高松市新田町甲537-3,,087-880-6374,,,,前田　直人,,月火水金土,0.375,0.75,,,歯科、歯科口腔外科、小児歯科、矯正歯科,,,
655,0,0,372013,,香川県,高松市,あらき歯科,アラキシカ,歯科,香川県高松市伏石町1316-6,,087-802-9011,,,,蓮井　咲弥加,,月火水金土,0.375,0.75,,,歯科,,,
656,0,0,372013,,香川県,高松市,プライム総合歯科クリニック,プライムソウゴウシカクリニック,歯科,香川県高松市多肥上町字松林1292-1,,087-813-8955,,,,石井　弘之,,月火水木金土,0.375,0.729166667,水曜日は13：00まで,,歯科、歯科口腔外科、小児歯科、矯正歯科,,,
657,0,0,372013,,香川県,高松市,さくら在宅クリニック,サクラザイタククリニック,無床診療所,香川県高松市花ノ宮町三丁目4-13,,087-880-4693,,,,中野　淳,,月火水木金,0.354166667,0.729166667,往診は随時対応,,内科、外科、緩和ケア内科,,,
658,0,0,372013,,香川県,高松市,きむら内科呼吸器内科クリニック,キムラナイカコキュウキナイカクリニック,無床診療所,香川県高松市牟礼町原1192-2,,087-802-1580,,,,木村　公一,,月火水木金土,0.375,0.75,水、土曜日は13：00まで,,内科、呼吸器内科,,,
